Number,Street,City,State,County,Zip,Country,Latitude,Longitude,PIN,Assessed hurricanes (three),Number of assessed hurricanes
10320,Griffins Lndg,Nichols,SC,Horry County,29581,US,34.293431,-79.076401,10105040011,Florence,1
6386,Maplewild Rd,Nichols,SC,Horry County,29581,US,34.13609,-79.05617,10611020005,Florence,1
4676,Hwy 76,Nichols,SC,Horry County,29581,US,34.226661,-79.093027,10611020006,Florence,1
3311,Hwy 917,Loris,SC,Horry County,29569,US,34.097676,-78.980377,10611020007,Florence,1
5800,Hwy 389,Nichols,SC,Horry County,29581,US,34.146734,-79.032501,11701010001,Florence,1
111,Holcombe Ln,Conway,SC,Horry County,29527,US,33.897468,-79.151138,11701010002,Matthew,1
2315,Acie Ave,Conway,SC,Horry County,29527,US,33.846157,-79.088988,11701020001,Matthew,1
6534,Three Bend Rd,Nichols,SC,Horry County,29581,US,34.170079,-79.046412,11701020002,"Matthew, Florence",2
3465,River Rd,Nichols,SC,Horry County,29581,US,34.220389,-79.132237,11701020003,Matthew,1
172,Liberty Church Rd,Loris,SC,Horry County,29569,US,34.027748,-78.815822,11701020005,Florence,1
1559,Betsy Ln,Galivants Ferry,SC,Horry County,29544,US,33.935076,-79.194672,11701020007,Matthew,1
3981,Buffkin Rd,Green Sea,SC,Horry County,29545,US,34.190191,-78.952145,11701020012,"Matthew, Florence",2
3532,Drowning Creek Dr,Nichols,SC,Horry County,29581,US,34.219181,-79.126962,11702010001,Matthew,1
3540,Drowning Creek Dr,Nichols,SC,Horry County,29581,US,34.220217,-79.126793,11702010007,"Matthew, Florence",2
972,Prospect Rd,Loris,SC,Horry County,29569,US,34.076872,-78.90288,11702040012,Matthew,1
10331,Creek Landing Rd,Nichols,SC,Horry County,29581,US,34.175552,-79.145439,12012040001,Florence,1
258,Sandy Bluff Rd,Green Sea,SC,Horry County,29545,US,34.135987,-78.88118,12813040005,Matthew,1
3125,Shelley Path,Green Sea,SC,Horry County,29545,US,34.162062,-78.924033,12900000007,Matthew,1
1630,Fair Bluff Hwy,Green Sea,SC,Horry County,29545,US,34.139732,-78.976067,13113030001,Matthew,1
9851,Providence Dr,Nichols,SC,Horry County,29581,US,34.163601,-79.152344,13600000003,Florence,1
5076,Ruby Ln,Conway,SC,Horry County,29527,US,33.89934,-79.149817,13603040002,Florence,1
9846,Providence Dr,Nichols,SC,Horry County,29581,US,34.164151,-79.151572,13603040003,Florence,1
1597,Mw Stroud Rd,Nichols,SC,Horry County,29581,US,34.161529,-79.138901,13604030002,Florence,1
10430,Hwy 917,Nichols,SC,Horry County,29581,US,34.141782,-79.193781,13715040003,Florence,1
10801,Hwy 917,Nichols,SC,Horry County,29581,US,34.144297,-79.20695,13813030001,Florence,1
10660,Church Landing Rd,Nichols,SC,Horry County,29581,US,34.141047,-79.205489,13904020001,Florence,1
9700,Hwy 917,Nichols,SC,Horry County,29581,US,34.137581,-79.170571,13904020003,Matthew,1
10671,Church Landing Rd,Nichols,SC,Horry County,29581,US,34.140273,-79.204271,14001010003,"Matthew, Florence",2
1672,Hwy 905,Conway,SC,Horry County,29526,US,33.856874,-79.002782,14008010002,Florence,1
521,Willoughby Rd,Nichols,SC,Horry County,29581,US,34.115456,-79.121381,14200000019,Matthew,1
6200,Maplewild Rd,Nichols,SC,Horry County,29581,US,34.13713,-79.050815,14403020002,Florence,1
1076,Green Sea Rd,Green Sea,SC,Horry County,29545,US,34.124063,-78.975483,14612020004,Matthew,1
3234,Fulton Rd,Loris,SC,Horry County,29569,US,34.111113,-78.976223,14613030003,Matthew,1
2644,N Hwy 701,Loris,SC,Horry County,29569,US,34.121154,-78.875235,14912020001,Matthew,1
901,Airport Rd,Loris,SC,Horry County,29569,US,34.090235,-78.849872,15200000026,Florence,1
204,Morgan Rd,Loris,SC,Horry County,29569,US,34.09533,-78.871082,15208030001,Florence,1
2502,Hillside Dr S,North Myrtle Beach,SC,Horry County,29582,US,33.805682,-78.711975,15209030003,Matthew,1
310,Circle Heights Dr,Loris,SC,Horry County,29569,US,34.100094,-78.990226,15606040003,Matthew,1
125,W Hwy 501,Galivants Ferry,SC,Horry County,29544,US,34.057114,-79.246041,16300000002,Florence,1
4059,Hwy 308,Galivants Ferry,SC,Horry County,29544,US,34.075939,-79.128764,16900000005,Matthew,1
5326,Sycamore Cir,Aynor,SC,Horry County,29511,US,34.061435,-79.127718,16900000038,Matthew,1
3950,Hwy 308,Galivants Ferry,SC,Horry County,29544,US,34.075679,-79.134931,16908020001,Matthew,1
4883,Daniel Rd,Galivants Ferry,SC,Horry County,29544,US,34.065257,-79.12877,16910040003,Matthew,1
11868,W Hwy 19,Loris,SC,Horry County,29569,US,34.065155,-79.038827,17200000018,Matthew,1
2247,Kennasaw Rd,Loris,SC,Horry County,29569,US,34.066688,-79.041207,17209040001,Matthew,1
3350,Reynolda Rd,Loris,SC,Horry County,29569,US,34.072493,-78.995095,17300000024,Matthew,1
976,Live Oak Church Rd,Loris,SC,Horry County,29569,US,34.058285,-78.941441,17516040009,Matthew,1
195,Prospect Rd,Loris,SC,Horry County,29569,US,34.07629,-78.878549,17604030004,Florence,1
167,Bay Circle Dr,Loris,SC,Horry County,29569,US,34.067151,-78.879168,17612020029,Florence,1
6883,Hwy 66,Loris,SC,Horry County,29569,US,34.072188,-78.847315,17705010001,Matthew,1
3796,Bakers Chapel Rd,Aynor,SC,Horry County,29511,US,33.949402,-79.0424,17915010004,Matthew,1
450,Log Cabin Rd,Loris,SC,Horry County,29569,US,34.047932,-78.838885,18201010001,Joaquin,1
1243,Volunteer Dr,Loris,SC,Horry County,29569,US,34.04102,-78.771347,18208030005,Matthew,1
5707,Seabird Ct,North Myrtle Beach,SC,Horry County,29582,US,33.810039,-78.770167,18208040011,Florence,1
970,W Hwy 9th Byp,Loris,SC,Horry County,29569,US,34.091094,-78.906479,18502030021,Matthew,1
943,Deckfield Ct,Loris,SC,Horry County,29569,US,34.050279,-78.912704,18704030002,Matthew,1
103,Kecia Rd,Loris,SC,Horry County,29569,US,34.051882,-78.914986,18704040010,Matthew,1
422,Carolina Hickory St,Loris,SC,Horry County,29569,US,34.036243,-78.937795,18709030006,Florence,1
332,Carolina Hickory St,Loris,SC,Horry County,29569,US,34.037439,-78.934538,18710040008,Florence,1
758,Mincey Dr,Loris,SC,Horry County,29569,US,34.04276,-78.987602,18900000038,Matthew,1
1722,Gatewood Dr,Loris,SC,Horry County,29569,US,34.052165,-78.978192,18900000054,"Matthew, Florence",2
362,Sean River Rd,Conway,SC,Horry County,29526,US,33.863582,-78.988511,18900000056,Matthew,1
2831,Ino Dr,Loris,SC,Horry County,29569,US,34.044008,-78.992535,18906040002,Matthew,1
2855,Green Sea Rd S,Loris,SC,Horry County,29569,US,34.033226,-79.018813,19000000034,Matthew,1
2737,Joyner Swamp Rd,Galivants Ferry,SC,Horry County,29544,US,34.040888,-79.150832,19411030007,Matthew,1
7744,Lamplighter Rd,Myrtle Beach,SC,Horry County,29588,US,33.668345,-79.054019,20206010002,Matthew,1
2788,Nichols Hwy,Aynor,SC,Horry County,29511,US,34.014531,-79.151593,20411020002,Matthew,1
2374,Nichols Hwy,Aynor,SC,Horry County,29511,US,34.004135,-79.146738,20500000028,Matthew,1
3928,Vick Rd,Aynor,SC,Horry County,29511,US,34.017898,-79.117894,20511020002,Matthew,1
3658,Edwards Rd,Aynor,SC,Horry County,29511,US,34.012658,-79.122288,20511040003,Matthew,1
4181,Long Bay Rd,Aynor,SC,Horry County,29511,US,34.005153,-79.11098,20513030009,Matthew,1
4306,Skipper Rd,Aynor,SC,Horry County,29511,US,34.026437,-79.098887,20602010002,Matthew,1
4985,Plantation Rd,Aynor,SC,Horry County,29511,US,34.025503,-79.088035,20603040003,Matthew,1
5472,Dock Ridge Rd,Galivants Ferry,SC,Horry County,29544,US,34.032769,-79.07063,20605020001,Matthew,1
170,Ole Maple St,Loris,SC,Horry County,29569,US,34.010336,-78.95518,21011030004,Matthew,1
707,Cane Branch Rd,Loris,SC,Horry County,29569,US,34.004435,-78.938238,21100000005,Matthew,1
833,Daisy Rd,Loris,SC,Horry County,29569,US,34.011294,-78.925418,21100000030,Matthew,1
140,Cart Crossing Dr,Conway,SC,Horry County,29526,US,33.780069,-79.003754,21111010002,Matthew,1
1262,Daisy Rd,Loris,SC,Horry County,29569,US,34.003228,-78.916635,21113010001,Matthew,1
1240,Daisy Rd,Loris,SC,Horry County,29569,US,34.003533,-78.917826,21113010004,Matthew,1
1495,Wilderness Ln,Loris,SC,Horry County,29569,US,34.000202,-78.915634,21113040013,Matthew,1
740,Cane Branch Rd,Loris,SC,Horry County,29569,US,34.003861,-78.941837,21116040001,Matthew,1
1711,Daisy Rd,Loris,SC,Horry County,29569,US,34.000971,-78.902483,21200000038,Matthew,1
1847,Daisy Rd,Loris,SC,Horry County,29569,US,33.999918,-78.898891,21200000039,Matthew,1
1890,Log Cabin Rd,Loris,SC,Horry County,29569,US,34.059834,-78.798173,21210020006,Florence,1
1730,Daisy Rd,Loris,SC,Horry County,29569,US,33.999573,-78.899177,21216030001,Matthew,1
330,Sunshine Rd,Loris,SC,Horry County,29569,US,34.012743,-78.861838,21307030001,Florence,1
1860,Red Bluff Rd,Loris,SC,Horry County,29569,US,34.01201,-78.874894,21308040010,Matthew,1
3358,S Bend St,Loris,SC,Horry County,29569,US,34.055244,-78.899968,21312010002,Matthew,1
1454,Simpson Creek Dr,Loris,SC,Horry County,29569,US,34.01236,-78.849808,21312010003,Matthew,1
4689,Fries Bay Rd,Loris,SC,Horry County,29569,US,34.019992,-78.752963,21600000020,Matthew,1
625,Camp Swamp Rd,Loris,SC,Horry County,29569,US,34.012342,-78.753831,21606030002,Matthew,1
375,Coney Dr,Longs,SC,Horry County,29568,US,33.982653,-78.733913,22100000012,Florence,1
336,Harvest Moon Dr,Longs,SC,Horry County,29568,US,33.985604,-78.740848,22108030006,Florence,1
1805,Hwy 9,Longs,SC,Horry County,29568,US,33.983089,-78.746047,22108040010,Matthew,1
1125,48th Ave N,Myrtle Beach,SC,Horry County,29577,US,33.730884,-78.858438,22212020005,Matthew,1
3891,Daisy Rd,Loris,SC,Horry County,29569,US,33.986924,-78.834345,22407040005,Matthew,1
3363,Dusty Rd,Loris,SC,Horry County,29569,US,33.995162,-78.872876,22500000006,Matthew,1
3300,Daisy Rd,Loris,SC,Horry County,29569,US,33.991772,-78.852991,22504040002,Matthew,1
3778,Hwy 66,Loris,SC,Horry County,29569,US,33.986427,-78.872384,22508030008,Florence,1
1900,Daisy Rd,Loris,SC,Horry County,29569,US,33.998909,-78.898682,22602010001,Matthew,1
1850,Daisy Rd,Loris,SC,Horry County,29569,US,33.999275,-78.899349,22602010003,Matthew,1
631,Daisy Rd,Loris,SC,Horry County,29569,US,34.015717,-78.931009,22602040002,Matthew,1
1835,Southern Crest Dr,Loris,SC,Horry County,29569,US,33.991454,-78.908339,22608010002,Matthew,1
3040,Cherry Hill Rd,Loris,SC,Horry County,29569,US,33.97597,-78.892318,22614010001,Matthew,1
923,Cane Branch Rd,Loris,SC,Horry County,29569,US,33.999465,-78.939808,22701020001,Matthew,1
2530,Southern Crest Dr,Loris,SC,Horry County,29569,US,33.99293,-78.930108,22702030003,Matthew,1
2320,Southern Crest Dr,Loris,SC,Horry County,29569,US,33.993534,-78.923178,22703030001,Matthew,1
2400,Southern Crest Dr,Loris,SC,Horry County,29569,US,33.993776,-78.926186,22703040002,Matthew,1
1471,Cane Branch Rd,Loris,SC,Horry County,29569,US,33.986355,-78.935972,22708030001,Matthew,1
3024,Pioneer Rd,Conway,SC,Horry County,29526,US,33.947548,-78.930515,22713010008,Matthew,1
6975,N Hwy 701,Conway,SC,Horry County,29526,US,33.981364,-79.006923,22909030010,Matthew,1
7163,Cartrette Rd,Aynor,SC,Horry County,29511,US,33.979805,-79.034704,23015010005,Matthew,1
3927,Mickey Ln,Aynor,SC,Horry County,29511,US,33.995998,-79.098225,23202040005,Matthew,1
3880,Plainfield Rd,Galivants Ferry,SC,Horry County,29544,US,34.05221,-79.092904,23300000043,Matthew,1
1884,Dixon Rd,Aynor,SC,Horry County,29511,US,33.985994,-79.141649,23300000048,Matthew,1
4121,Gunter Lake Rd,Galivants Ferry,SC,Horry County,29544,US,33.953356,-79.317256,24014030003,Matthew,1
6891,Louisville Rd,Aynor,SC,Horry County,29511,US,33.989699,-79.053408,24309010003,Matthew,1
2600,Dog Bluff Rd,Galivants Ferry,SC,Horry County,29544,US,33.950449,-79.218389,24314030001,Matthew,1
2683,Garner Rd,Aynor,SC,Horry County,29511,US,33.967228,-79.113674,24605020001,Matthew,1
3473,Hwy 319,Aynor,SC,Horry County,29511,US,33.967688,-79.133054,24607010003,Matthew,1
2891,Moores Mill Rd,Aynor,SC,Horry County,29511,US,33.967205,-79.097876,24700000007,Matthew,1
2738,Garner Rd,Aynor,SC,Horry County,29511,US,33.966732,-79.111585,24700000011,Matthew,1
3016,Hughes Gasque Rd,Aynor,SC,Horry County,29511,US,33.954334,-79.071186,24700000033,Matthew,1
3756,Bakers Chapel Rd,Aynor,SC,Horry County,29511,US,33.950336,-79.039968,24800000023,Matthew,1
3400,Bakers Chapel Rd,Aynor,SC,Horry County,29511,US,33.949866,-79.055696,24814030002,Matthew,1
8149,Louisville Rd,Aynor,SC,Horry County,29511,US,33.95155,-79.037582,24900000026,Matthew,1
6950,Hucks Rd,Conway,SC,Horry County,29526,US,33.966035,-78.99259,25006010001,Matthew,1
2600,N Ocean Blvd,Myrtle Beach,SC,Horry County,29577,US,33.705082,-78.864458,25006040001,Matthew,1
2340,Cane Branch Rd,Loris,SC,Horry County,29569,US,33.962899,-78.933064,25200000038,Matthew,1
2781,Dows Rd,Loris,SC,Horry County,29569,US,33.965211,-78.91613,25200000043,Matthew,1
1603,Hwy 139,Conway,SC,Horry County,29526,US,33.949821,-78.922228,25214020002,Matthew,1
2205,Hwy 348,Loris,SC,Horry County,29569,US,33.969698,-78.824187,25503020001,Florence,1
2912,Charlie Ln,Loris,SC,Horry County,29569,US,33.952223,-78.825753,25509040003,Florence,1
956,Tram Rd,Loris,SC,Horry County,29569,US,34.012182,-79.000368,25700000003,Matthew,1
460,Blanton Cir,Longs,SC,Horry County,29568,US,33.950652,-78.721653,25800000035,Florence,1
11349,N Hwy 905,Longs,SC,Horry County,29568,US,33.950632,-78.726527,25800000036,Florence,1
1091,W Hwy 9,Longs,SC,Horry County,29568,US,33.963242,-78.738924,25801030034,Matthew,1
2273,Starduster Ln,Little River,SC,Horry County,29566,US,33.933517,-78.645821,26301040002,Florence,1
340,Rolling Ridge Dr,Longs,SC,Horry County,29568,US,33.935695,-78.724304,26603030005,Florence,1
322,Rolling Ridge Dr,Longs,SC,Horry County,29568,US,33.936204,-78.723577,26603030006,Florence,1
300,Rolling Ridge Dr,Longs,SC,Horry County,29568,US,33.936478,-78.72371,26603030007,Florence,1
296,Rolling Ridge Dr,Longs,SC,Horry County,29568,US,33.93669,-78.724278,26603030009,Florence,1
294,Rolling Ridge Dr,Longs,SC,Horry County,29568,US,33.936806,-78.724579,26603030010,Florence,1
288,Rolling Ridge Dr,Longs,SC,Horry County,29568,US,33.936597,-78.725102,26603030011,Florence,1
327,Rolling Ridge Dr,Longs,SC,Horry County,29568,US,33.935905,-78.722794,26604040002,Florence,1
321,Rolling Ridge Dr,Longs,SC,Horry County,29568,US,33.936172,-78.722969,26604040003,Florence,1
315,Rolling Ridge Dr,Longs,SC,Horry County,29568,US,33.936559,-78.722955,26604040004,Florence,1
599,Bucks Trl,Longs,SC,Horry County,29568,US,33.931119,-78.721315,26605010002,Florence,1
595,Bucks Trl,Longs,SC,Horry County,29568,US,33.931333,-78.721187,26605010003,Florence,1
420,Meadow View Ct,Longs,SC,Horry County,29568,US,33.932027,-78.721002,26605010009,Florence,1
424,Meadow View Ct,Longs,SC,Horry County,29568,US,33.932302,-78.720962,26605010010,"Matthew, Florence",2
432,Meadow View Ct,Longs,SC,Horry County,29568,US,33.93276,-78.721053,26605010012,"Matthew, Florence",2
436,Meadow View Ct,Longs,SC,Horry County,29568,US,33.933023,-78.721209,26605010013,"Matthew, Florence",2
435,Meadow View Ct,Longs,SC,Horry County,29568,US,33.933002,-78.721508,26605010014,"Matthew, Florence",2
431,Meadow View Ct,Longs,SC,Horry County,29568,US,33.932852,-78.72179,26605010015,Florence,1
,,Longs,SC,Horry County,29568,US,33.93851,-78.73307,26605010016,Florence,1
421,Meadow View Ct,Longs,SC,Horry County,29568,US,33.932441,-78.721916,26605010017,Florence,1
411,Meadow View Ct,Longs,SC,Horry County,29568,US,33.932037,-78.722024,26605010019,Florence,1
579,Bucks Trl,Longs,SC,Horry County,29568,US,33.93176,-78.722456,26605010021,Florence,1
575,Bucks Trl,Longs,SC,Horry County,29568,US,33.931618,-78.722693,26605010022,Florence,1
560,Bucks Trl,Longs,SC,Horry County,29568,US,33.930367,-78.722979,26605040001,Florence,1
564,Bucks Trl,Longs,SC,Horry County,29568,US,33.930728,-78.722618,26605040003,Florence,1
610,Bucks Trl,Longs,SC,Horry County,29568,US,33.930561,-78.72202,26605040005,Florence,1
616,Bucks Trl,Longs,SC,Horry County,29568,US,33.930347,-78.722089,26605040006,Florence,1
632,Bucks Trl,Longs,SC,Horry County,29568,US,33.929244,-78.722094,26605040011,Florence,1
636,Bucks Trl,Longs,SC,Horry County,29568,US,33.929027,-78.722094,26605040012,Florence,1
638,Bucks Trl,Longs,SC,Horry County,29568,US,33.928806,-78.722095,26605040013,Florence,1
642,Bucks Trl,Longs,SC,Horry County,29568,US,33.928584,-78.722097,26605040014,Florence,1
646,Bucks Trl,Longs,SC,Horry County,29568,US,33.928339,-78.722088,26605040015,Florence,1
650,Bucks Trl,Longs,SC,Horry County,29568,US,33.927917,-78.721916,26605040017,Florence,1
652,Bucks Trl,Longs,SC,Horry County,29568,US,33.927748,-78.721741,26605040018,Florence,1
654,Bucks Trl,Longs,SC,Horry County,29568,US,33.927626,-78.721496,26605040019,Florence,1
660,Bucks Trl,Longs,SC,Horry County,29568,US,33.927516,-78.721253,26605040020,Florence,1
667,Bucks Trl,Longs,SC,Horry County,29568,US,33.927435,-78.720243,26605040022,Florence,1
,Forest Dr,Conway,SC,Horry County,29526,US,33.822264,-78.995058,26605040023,Florence,1
408,Fawn Ct,Longs,SC,Horry County,29568,US,33.927819,-78.720055,26605040024,Florence,1
412,Fawn Ct,Longs,SC,Horry County,29568,US,33.928079,-78.720039,26605040025,Florence,1
416,Fawn Ct,Longs,SC,Horry County,29568,US,33.92834,-78.720155,26605040026,Florence,1
415,Fawn Ct,Longs,SC,Horry County,29568,US,33.928443,-78.720474,26605040027,Florence,1
411,Fawn Ct,Longs,SC,Horry County,29568,US,33.928461,-78.720756,26605040028,Florence,1
651,Bucks Trl,Longs,SC,Horry County,29568,US,33.928198,-78.721265,26605040031,Florence,1
647,Bucks Trl,Longs,SC,Horry County,29568,US,33.928358,-78.721432,26605040032,Florence,1
410,Staghorn Ln,Longs,SC,Horry County,29568,US,33.929131,-78.720697,26605040038,Florence,1
414,Staghorn Ln,Longs,SC,Horry County,29568,US,33.929375,-78.720725,26605040039,Florence,1
413,Staghorn Ln,Longs,SC,Horry County,29568,US,33.929622,-78.720701,26605040040,Florence,1
409,Staghorn Ln,Longs,SC,Horry County,29568,US,33.929761,-78.720893,26605040041,Florence,1
446,Deer Watch Cir,Longs,SC,Horry County,29568,US,33.931049,-78.725532,26606020004,Florence,1
452,Deer Watch Cir,Longs,SC,Horry County,29568,US,33.931138,-78.726138,26606020006,Florence,1
8553,Cedar Trace Dr,Myrtle Beach,SC,Horry County,29588,US,33.6479,-79.033341,26606020008,Florence,1
458,Deer Watch Cir,Longs,SC,Horry County,29568,US,33.930794,-78.726834,26606030001,Florence,1
460,Deer Watch Cir,Longs,SC,Horry County,29568,US,33.930558,-78.727078,26606030002,Florence,1
476,Deer Watch Cir,Longs,SC,Horry County,29568,US,33.929541,-78.725642,26606030010,Florence,1
478,Deer Watch Cir,Longs,SC,Horry County,29568,US,33.929577,-78.725416,26606030011,Florence,1
706,Bear Lake Dr,Longs,SC,Horry County,29568,US,33.952573,-78.740643,26606030012,Florence,1
439,Deer Watch Cir,Longs,SC,Horry County,29568,US,33.930016,-78.725713,26606030014,Florence,1
473,Deer Watch Cir,Longs,SC,Horry County,29568,US,33.92997,-78.725962,26606030015,Florence,1
457,Deer Watch Cir,Longs,SC,Horry County,29568,US,33.930509,-78.726379,26606030018,Florence,1
451,Deer Watch Cir,Longs,SC,Horry County,29568,US,33.930617,-78.726035,26606030019,Florence,1
443,Deer Watch Cir,Longs,SC,Horry County,29568,US,33.93062,-78.725686,26606030020,Florence,1
444,Deer Watch Cir,Longs,SC,Horry County,29568,US,33.930676,-78.725034,26606030021,Florence,1
442,Deer Watch Cir,Longs,SC,Horry County,29568,US,33.930441,-78.725052,26606030022,Florence,1
549,Bucks Trl,Longs,SC,Horry County,29568,US,33.9299,-78.724805,26606030025,Florence,1
553,Bucks Trl,Longs,SC,Horry County,29568,US,33.930209,-78.724351,26606030027,Florence,1
,,Longs,SC,Horry County,29568,US,33.93851,-78.73307,26606030037,Florence,1
,,Longs,SC,Horry County,29568,US,33.93851,-78.73307,26606030044,Florence,1
549,Canvas Back Ct,Longs,SC,Horry County,29568,US,33.927586,-78.723416,26606030045,Florence,1
630,Linksview Dr,Longs,SC,Horry County,29568,US,33.928423,-78.724163,26606030053,Florence,1
624,Linksview Dr,Longs,SC,Horry County,29568,US,33.928884,-78.724095,26606030055,Florence,1
620,Linksview Dr,Longs,SC,Horry County,29568,US,33.929209,-78.724182,26606030056,Florence,1
548,Bucks Trl,Longs,SC,Horry County,29568,US,33.929463,-78.72436,26606030057,Florence,1
546,Canvas Back Ct,Longs,SC,Horry County,29568,US,33.927269,-78.724013,26611020002,Florence,1
548,Canvas Back Ct,Longs,SC,Horry County,29568,US,33.927808,-78.724135,26611020003,Florence,1
,,Longs,SC,Horry County,29568,US,33.93851,-78.73307,26611020004,Florence,1
,,Longs,SC,Horry County,29568,US,33.93851,-78.73307,26611020005,Florence,1
687,Buck Creek Dr,Longs,SC,Horry County,29568,US,33.954395,-78.735372,26612010001,Florence,1
679,Bucks Trl,Longs,SC,Horry County,29568,US,33.926792,-78.720093,26612010003,Florence,1
675,Bucks Trl,Longs,SC,Horry County,29568,US,33.927035,-78.720147,26612010004,Florence,1
671,Bucks Trl,Longs,SC,Horry County,29568,US,33.927244,-78.72019,26612010005,Florence,1
668,Bucks Trl,Longs,SC,Horry County,29568,US,33.927286,-78.72082,26612010006,Florence,1
674,Bucks Trl,Longs,SC,Horry County,29568,US,33.927002,-78.720758,26612010007,Florence,1
682,Bucks Trl,Longs,SC,Horry County,29568,US,33.926471,-78.720619,26612010009,Florence,1
554,Canvas Back Ct,Longs,SC,Horry County,29568,US,33.926956,-78.722956,26612010175,Florence,1
136,Sellers Rd,Conway,SC,Horry County,29526,US,33.848732,-79.022325,26713040001,Florence,1
10085,S Hwy 905,Longs,SC,Horry County,29568,US,33.923262,-78.757305,26714040022,Florence,1
121,Chestnut Estates Rd,Longs,SC,Horry County,29568,US,33.915591,-78.776855,26716030004,Florence,1
9360,S Hwy 905,Longs,SC,Horry County,29568,US,33.924455,-78.784938,26812030010,Florence,1
812,Trey Ct,Longs,SC,Horry County,29568,US,33.918781,-78.811289,26816010009,Florence,1
244,Heath Dr,Longs,SC,Horry County,29568,US,33.918779,-78.810903,26816010010,Florence,1
240,Heath Dr,Longs,SC,Horry County,29568,US,33.918985,-78.811018,26816010011,Florence,1
5420,Pheasant Dr,North Myrtle Beach,SC,Horry County,29582,US,33.810436,-78.764147,26816010012,Florence,1
232,Heath Dr,Longs,SC,Horry County,29568,US,33.919404,-78.811096,26816010013,Florence,1
224,Heath Dr,Longs,SC,Horry County,29568,US,33.919587,-78.811128,26816010014,Florence,1
151,Pinnacle Pl,Little River,SC,Horry County,29566,US,33.861374,-78.648122,26816010019,Florence,1
196,Heath Dr,Longs,SC,Horry County,29568,US,33.919734,-78.812511,26816010020,Florence,1
192,Heath Dr,Longs,SC,Horry County,29568,US,33.91975,-78.81272,26816010021,Florence,1
188,Heath Dr,Longs,SC,Horry County,29568,US,33.919698,-78.812956,26816010022,Florence,1
178,Heath Dr,Longs,SC,Horry County,29568,US,33.919491,-78.813044,26816010023,Florence,1
160,Heath Dr,Longs,SC,Horry County,29568,US,33.918848,-78.813102,26816010026,Florence,1
163,Heath Dr,Longs,SC,Horry County,29568,US,33.918801,-78.81362,26816010027,Florence,1
167,Heath Dr,Longs,SC,Horry County,29568,US,33.919037,-78.813713,26816010028,Florence,1
171,Heath Dr,Longs,SC,Horry County,29568,US,33.919258,-78.813634,26816010029,Florence,1
179,Heath Dr,Longs,SC,Horry County,29568,US,33.919664,-78.813489,26816010031,Florence,1
618,Chestnut Rd,Myrtle Beach,SC,Horry County,29572,US,33.77901,-78.786873,26816010033,Florence,1
199,Heath Dr,Longs,SC,Horry County,29568,US,33.920164,-78.812292,26816010034,Florence,1
235,Heath Dr,Longs,SC,Horry County,29568,US,33.919334,-78.810571,26816010043,Florence,1
239,Heath Dr,Longs,SC,Horry County,29568,US,33.919129,-78.810524,26816010044,Florence,1
251,Heath Dr,Longs,SC,Horry County,29568,US,33.918766,-78.810321,26816010046,Florence,1
444,Iree's Way,Longs,SC,Horry County,29568,US,33.919077,-78.810045,26816010047,Florence,1
193,Heath Dr,Longs,SC,Horry County,29568,US,33.920131,-78.812733,26816010050,Florence,1
191,Heath Dr,Longs,SC,Horry County,29568,US,33.920108,-78.812985,26816010051,Florence,1
187,Heath Dr,Longs,SC,Horry County,29568,US,33.920007,-78.813212,26816010052,Florence,1
183,Heath Dr,Longs,SC,Horry County,29568,US,33.919833,-78.813358,26816010053,Florence,1
546,Iree's Way,Longs,SC,Horry County,29568,US,33.918756,-78.813997,26816010054,Florence,1
560,Iree's Way,Longs,SC,Horry County,29568,US,33.919164,-78.814093,26816010055,Florence,1
564,Iree's Way,Longs,SC,Horry County,29568,US,33.919356,-78.814199,26816010056,Florence,1
8435,S Hwy 905,Longs,SC,Horry County,29568,US,33.918428,-78.806646,26816030001,Florence,1
8433,S Hwy 905,Longs,SC,Horry County,29568,US,33.918283,-78.806988,26816030002,Florence,1
8429,S Hwy 905,Longs,SC,Horry County,29568,US,33.918019,-78.807314,26816030003,Florence,1
412,Iree's Way,Longs,SC,Horry County,29568,US,33.918099,-78.80842,26816030008,Florence,1
439,Iree's Way,Longs,SC,Horry County,29568,US,33.918619,-78.809734,26816030012,Florence,1
449,Iree's Way,Longs,SC,Horry County,29568,US,33.91847,-78.809904,26816030013,Florence,1
753,Alexis Dr,Longs,SC,Horry County,29568,US,33.91819,-78.809598,26816030015,Florence,1
760,Alexis Dr,Longs,SC,Horry County,29568,US,33.91808,-78.809029,26816030017,Florence,1
752,Alexis Dr,Longs,SC,Horry County,29568,US,33.917923,-78.809229,26816030018,Florence,1
746,Alexis Dr,Longs,SC,Horry County,29568,US,33.917786,-78.809457,26816030019,Florence,1
740,Alexis Dr,Longs,SC,Horry County,29568,US,33.917619,-78.809635,26816030020,Florence,1
736,Alexis Dr,Longs,SC,Horry County,29568,US,33.91748,-78.809843,26816030021,Florence,1
637,Seth Ln,Longs,SC,Horry County,29568,US,33.917347,-78.809352,26816030024,Florence,1
643,Seth Ln,Longs,SC,Horry County,29568,US,33.917443,-78.809094,26816030025,Florence,1
655,Seth Ln,Longs,SC,Horry County,29568,US,33.917742,-78.808678,26816030027,Florence,1
656,Seth Ln,Longs,SC,Horry County,29568,US,33.917519,-78.8085,26816030028,Florence,1
644,Seth Ln,Longs,SC,Horry County,29568,US,33.917212,-78.808892,26816030030,Florence,1
638,Seth Ln,Longs,SC,Horry County,29568,US,33.917093,-78.809099,26816030031,Florence,1
632,Seth Ln,Longs,SC,Horry County,29568,US,33.916977,-78.809338,26816030032,Florence,1
626,Seth Ln,Longs,SC,Horry County,29568,US,33.916857,-78.809569,26816030033,Florence,1
620,Seth Ln,Longs,SC,Horry County,29568,US,33.916761,-78.809767,26816030034,Florence,1
616,Seth Ln,Longs,SC,Horry County,29568,US,33.916638,-78.809998,26816030035,Florence,1
600,Seth Ln,Longs,SC,Horry County,29568,US,33.916324,-78.810894,26816040001,Florence,1
606,Seth Ln,Longs,SC,Horry County,29568,US,33.916431,-78.810519,26816040002,Florence,1
612,Seth Ln,Longs,SC,Horry County,29568,US,33.916529,-78.810253,26816040003,Florence,1
619,Seth Ln,Longs,SC,Horry County,29568,US,33.916942,-78.810026,26816040004,Florence,1
615,Seth Ln,Longs,SC,Horry County,29568,US,33.916845,-78.810209,26816040005,Florence,1
605,Seth Ln,Longs,SC,Horry County,29568,US,33.916681,-78.810721,26816040007,Florence,1
601,Seth Ln,Longs,SC,Horry County,29568,US,33.916593,-78.811011,26816040008,Florence,1
700,Alexis Dr,Longs,SC,Horry County,29568,US,33.917038,-78.811307,26816040009,Florence,1
708,Alexis Dr,Longs,SC,Horry County,29568,US,33.917033,-78.811108,26816040010,Florence,1
714,Alexis Dr,Longs,SC,Horry County,29568,US,33.917089,-78.810856,26816040011,Florence,1
718,Alexis Dr,Longs,SC,Horry County,29568,US,33.917159,-78.810596,26816040012,Florence,1
724,Alexis Dr,Longs,SC,Horry County,29568,US,33.917239,-78.810331,26816040013,Florence,1
730,Alexis Dr,Longs,SC,Horry County,29568,US,33.917354,-78.81006,26816040014,Florence,1
733,Alexis Dr,Longs,SC,Horry County,29568,US,33.917734,-78.810228,26816040016,Florence,1
727,Alexis Dr,Longs,SC,Horry County,29568,US,33.917626,-78.810428,26816040017,Florence,1
721,Alexis Dr,Longs,SC,Horry County,29568,US,33.917546,-78.81065,26816040018,Florence,1
715,Alexis Dr,Longs,SC,Horry County,29568,US,33.917476,-78.810881,26816040019,Florence,1
707,Alexis Dr,Longs,SC,Horry County,29568,US,33.91738,-78.811145,26816040020,Florence,1
701,Alexis Dr,Longs,SC,Horry County,29568,US,33.917279,-78.811418,26816040021,Florence,1
495,Iree's Way,Longs,SC,Horry County,29568,US,33.917524,-78.811723,26816040022,Florence,1
491,Iree's Way,Longs,SC,Horry County,29568,US,33.917633,-78.811516,26816040023,Florence,1
487,Irees Way,Longs,SC,Horry County,29568,US,33.917547,-78.811862,26816040024,Florence,1
481,Iree's Way,Longs,SC,Horry County,29568,US,33.917782,-78.811085,26816040025,Florence,1
475,Iree's Way,Longs,SC,Horry County,29568,US,33.917856,-78.810822,26816040026,Florence,1
463,Iree's Way,Longs,SC,Horry County,29568,US,33.918092,-78.810404,26816040028,Florence,1
457,Iree's Way,Longs,SC,Horry County,29568,US,33.918211,-78.81024,26816040029,Florence,1
453,Iree's Way,Longs,SC,Horry County,29568,US,33.918342,-78.810069,26816040030,Florence,1
248,Heath Dr,Longs,SC,Horry County,29568,US,33.918628,-78.810709,26816040031,Florence,1
252,Heath Dr,Longs,SC,Horry County,29568,US,33.918578,-78.810533,26816040032,Florence,1
800,Trey Ct,Longs,SC,Horry County,29568,US,33.918331,-78.810935,26816040033,Florence,1
804,Trey Ct,Longs,SC,Horry County,29568,US,33.918454,-78.810974,26816040034,Florence,1
808,Trey Ct,Longs,SC,Horry County,29568,US,33.918609,-78.811127,26816040035,Florence,1
813,Trey Ct,Longs,SC,Horry County,29568,US,33.918629,-78.811773,26816040037,Florence,1
805,Trey Ct,Longs,SC,Horry County,29568,US,33.918316,-78.811499,26816040038,Florence,1
801,Trey Ct,Longs,SC,Horry County,29568,US,33.918238,-78.81127,26816040039,Florence,1
488,Iree's Way,Longs,SC,Horry County,29568,US,33.918074,-78.811604,26816040040,Florence,1
492,Iree's Way,Longs,SC,Horry County,29568,US,33.917982,-78.81182,26816040041,Florence,1
130,Heath Dr,Longs,SC,Horry County,29568,US,33.917833,-78.812002,26816040042,Florence,1
,,Longs,SC,Horry County,29568,US,33.93851,-78.73307,26816040043,Florence,1
138,Heath Dr,Longs,SC,Horry County,29568,US,33.918134,-78.812323,26816040044,Florence,1
142,Heath Dr,Longs,SC,Horry County,29568,US,33.918264,-78.812497,26816040045,Florence,1
146,Heath Dr,Longs,SC,Horry County,29568,US,33.918418,-78.812639,26816040046,Florence,1
150,Heath Dr,Longs,SC,Horry County,29568,US,33.918543,-78.812802,26816040047,Florence,1
154,Heath Dr,Longs,SC,Horry County,29568,US,33.918702,-78.81296,26816040048,Florence,1
159,Heath Dr,Longs,SC,Horry County,29568,US,33.920064,-78.811465,26816040049,Florence,1
155,Heath Dr,Longs,SC,Horry County,29568,US,33.918511,-78.813323,26816040050,Florence,1
151,Heath Dr,Longs,SC,Horry County,29568,US,33.918285,-78.813205,26816040051,Florence,1
147,Heath Dr,Longs,SC,Horry County,29568,US,33.918147,-78.813042,26816040052,Florence,1
143,Heath Dr,Longs,SC,Horry County,29568,US,33.918009,-78.812873,26816040053,Florence,1
139,Heath Dr,Longs,SC,Horry County,29568,US,33.91788,-78.812715,26816040054,Florence,1
131,Heath Dr,Longs,SC,Horry County,29568,US,33.917703,-78.812396,26816040056,Florence,1
505,Iree's Way,Longs,SC,Horry County,29568,US,33.91717,-78.812454,26816040059,Florence,1
901,Lakeside Dr,Conway,SC,Horry County,29526,US,33.843754,-79.048226,26816040060,Florence,1
121,Heath Dr,Longs,SC,Horry County,29568,US,33.917094,-78.812009,26816040061,Florence,1
117,Heath Dr,Longs,SC,Horry County,29568,US,33.916878,-78.811888,26816040062,Florence,1
113,Heath Dr,Longs,SC,Horry County,29568,US,33.916542,-78.811528,26816040063,Florence,1
109,Heath Dr,Longs,SC,Horry County,29568,US,33.916694,-78.811609,26816040064,Florence,1
105,Heath Dr,Longs,SC,Horry County,29568,US,33.916846,-78.81169,26816040065,Florence,1
514,Iree's Way,Longs,SC,Horry County,29568,US,33.917499,-78.812749,26816040067,Florence,1
518,Iree's Way,Longs,SC,Horry County,29568,US,33.917681,-78.812976,26816040068,Florence,1
522,Iree's Way,Longs,SC,Horry County,29568,US,33.917823,-78.813132,26816040069,Florence,1
526,Iree's Way,Longs,SC,Horry County,29568,US,33.91797,-78.813293,26816040070,Florence,1
534,Iree's Way,Longs,SC,Horry County,29568,US,33.918249,-78.813599,26816040072,Florence,1
538,Iree's Way,Longs,SC,Horry County,29568,US,33.918412,-78.813755,26816040073,Florence,1
542,Iree's Way,Longs,SC,Horry County,29568,US,33.918592,-78.813881,26816040074,Florence,1
537,Iree's Way,Longs,SC,Horry County,29568,US,33.918094,-78.814051,26816040075,Florence,1
533,Iree's Way,Longs,SC,Horry County,29568,US,33.917944,-78.81389,26816040076,Florence,1
529,Iree's Way,Longs,SC,Horry County,29568,US,33.9178,-78.813732,26816040077,Florence,1
525,Iree's Way,Longs,SC,Horry County,29568,US,33.917654,-78.813572,26816040078,Florence,1
517,Iree's Way,Longs,SC,Horry County,29568,US,33.917369,-78.81326,26816040080,Florence,1
513,Iree's Way,Longs,SC,Horry County,29568,US,33.917221,-78.813086,26816040081,Florence,1
554,Iree's Way,Longs,SC,Horry County,29568,US,33.918931,-78.81412,26913020001,Florence,1
568,Iree's Way,Longs,SC,Horry County,29568,US,33.91942,-78.814435,26913020002,Florence,1
565,Iree's Way,Longs,SC,Horry County,29568,US,33.919337,-78.814636,26913020003,Florence,1
561,Iree's Way,Longs,SC,Horry County,29568,US,33.919156,-78.814719,26913020004,Florence,1
557,Iree's Way,Longs,SC,Horry County,29568,US,33.918953,-78.814625,26913020005,Florence,1
553,Iree's Way,Longs,SC,Horry County,29568,US,33.918757,-78.814532,26913030001,Florence,1
549,Iree's Way,Longs,SC,Horry County,29568,US,33.91859,-78.814415,26913030002,Florence,1
541,Iree's Way,Longs,SC,Horry County,29568,US,33.91826,-78.814183,26913030004,Florence,1
5895,Red Bluff Rd,Loris,SC,Horry County,29569,US,33.917814,-78.836596,26915010011,Florence,1
5775,Red Bluff Rd,Loris,SC,Horry County,29569,US,33.919681,-78.83595,26915040010,Florence,1
664,Hwy 66,Conway,SC,Horry County,29526,US,33.918738,-78.90944,27100000043,Matthew,1
1280,Hwy 139,Conway,SC,Horry County,29526,US,33.934799,-78.907237,27100000048,Matthew,1
5549,Old Hwy 472,Conway,SC,Horry County,29526,US,33.92253,-78.911662,27116010005,Matthew,1
5525,Old Hwy 472,Conway,SC,Horry County,29526,US,33.922564,-78.91271,27116010006,Florence,1
2010,Princess St,Loris,SC,Horry County,29569,US,34.019221,-78.936264,27201030001,Matthew,1
5256,Hwy 472,Conway,SC,Horry County,29526,US,33.920062,-78.921585,27214030002,Matthew,1
5020,Hwy 19,Conway,SC,Horry County,29526,US,33.934093,-78.949547,27300000019,Matthew,1
5996,Hwy 65,Conway,SC,Horry County,29526,US,33.933644,-78.972577,27308030004,Matthew,1
5600,Adrian Hwy,Conway,SC,Horry County,29526,US,33.9404,-78.984996,27404040001,Matthew,1
5850,Red Bluff Rd,Loris,SC,Horry County,29569,US,33.918102,-78.840845,27406020005,Matthew,1
5463,Carroll Todd Rd,Conway,SC,Horry County,29526,US,33.92465,-78.983471,27413010008,Matthew,1
3688,Paradise Estates Dr,Conway,SC,Horry County,29526,US,33.930609,-79.038558,27508030001,Matthew,1
4565,Boggy Rd,Conway,SC,Horry County,29526,US,33.92058,-79.01181,27513030001,Matthew,1
2455,Ole King St,Conway,SC,Horry County,29526,US,33.923272,-79.063394,27614010013,Florence,1
4597,Plum Tree Ln,Conway,SC,Horry County,29526,US,33.921489,-79.062578,27615030008,Matthew,1
2431,Ole King St,Conway,SC,Horry County,29526,US,33.922551,-79.064085,27615030012,Matthew,1
5648,Hwy 319,Conway,SC,Horry County,29526,US,33.93909,-79.090631,27700000013,Matthew,1
5772,Hwy 319,Conway,SC,Horry County,29526,US,33.940741,-79.096732,27706010003,Matthew,1
1400,Horry Rd,Aynor,SC,Horry County,29511,US,33.936451,-79.115721,27800000013,Matthew,1
4192,Enoch Rd,Aynor,SC,Horry County,29511,US,33.947588,-79.133964,27802010001,Matthew,1
174,Rabon Rd,Aynor,SC,Horry County,29511,US,33.933489,-79.160149,27900000029,Matthew,1
1359,White Oak Ln,Galivants Ferry,SC,Horry County,29544,US,33.942425,-79.185279,28000000019,Matthew,1
1304,4th Ave,Conway,SC,Horry County,29526,US,33.834687,-79.051039,28000000037,Matthew,1
1577,Betsy Ln,Galivants Ferry,SC,Horry County,29544,US,33.934068,-79.196033,28000000048,Matthew,1
1256,Dog Bluff Rd,Galivants Ferry,SC,Horry County,29544,US,33.936813,-79.18224,28006010002,Matthew,1
12341,Pee Dee Rd S,Galivants Ferry,SC,Horry County,29544,US,33.948851,-79.241496,28101010002,Matthew,1
12020,Pee Dee Rd S,Galivants Ferry,SC,Horry County,29544,US,33.94044,-79.241523,28108010002,Matthew,1
2165,Mill Swamp Rd,Galivants Ferry,SC,Horry County,29544,US,33.924026,-79.218426,28114030002,Matthew,1
601,Pine Oaks Farm Rd,Aynor,SC,Horry County,29511,US,33.960092,-79.174877,28200000021,Matthew,1
7093,W Brownway Cir,Conway,SC,Horry County,29527,US,33.789167,-79.197671,28200000022,"Matthew, Florence",2
3959,Gunters Island Rd,Galivants Ferry,SC,Horry County,29544,US,33.932192,-79.273311,28200000023,"Matthew, Florence",2
4011,Gunters Island Rd,Galivants Ferry,SC,Horry County,29544,US,33.933329,-79.273275,28209010010,"Matthew, Florence",2
4035,Gunters Island Rd,Galivants Ferry,SC,Horry County,29544,US,33.933744,-79.273292,28209010011,"Matthew, Florence",2
3942,Gunters Island Rd,Galivants Ferry,SC,Horry County,29544,US,33.933748,-79.26921,28209020004,"Matthew, Florence",2
3455,Gunters Island Rd,Galivants Ferry,SC,Horry County,29544,US,33.929775,-79.25514,28211040001,Florence,1
4105,Gunters Island Rd,Galivants Ferry,SC,Horry County,29544,US,33.934447,-79.275639,28312020002,Florence,1
5410,W Hwy 501,Conway,SC,Horry County,29526,US,33.91368,-79.147628,28400000003,Matthew,1
1859,Johnson Shortcut Rd,Galivants Ferry,SC,Horry County,29544,US,33.958045,-79.236151,28405020001,Florence,1
962,Rabon Rd,Aynor,SC,Horry County,29511,US,33.936123,-79.135801,28405020005,Florence,1
5100,Amber Ln,Galivants Ferry,SC,Horry County,29544,US,34.068785,-79.169364,28405020009,Florence,1
4305,Enoch Rd,Aynor,SC,Horry County,29511,US,33.944773,-79.132197,28405020011,Florence,1
4225,Black Island Rd,Galivants Ferry,SC,Horry County,29544,US,33.942171,-79.31104,28405020016,"Matthew, Florence",2
4201,Black Island Rd,Galivants Ferry,SC,Horry County,29544,US,33.943112,-79.309873,28405020020,Matthew,1
1449,Brunson Spring Rd,Galivants Ferry,SC,Horry County,29544,US,33.91857,-79.197669,28902010001,Matthew,1
1521,16th Ave,Conway,SC,Horry County,29527,US,33.842846,-79.064271,28902020001,Matthew,1
1501,Knotty Branch Rd,Conway,SC,Horry County,29527,US,33.905416,-79.190498,28912030008,Matthew,1
1011,Woodfield Cir,Conway,SC,Horry County,29526,US,33.758942,-79.02101,29004040003,Matthew,1
1614,Oak Lawn Dr,Aynor,SC,Horry County,29511,US,33.964603,-79.172536,29004040004,Matthew,1
711,Busy Corner Rd,Conway,SC,Horry County,29527,US,33.90367,-79.162577,29007030006,Matthew,1
870,Spring Garden Rd,Conway,SC,Horry County,29527,US,33.907916,-79.172427,29008030001,Matthew,1
242,Hardwick Rd,Conway,SC,Horry County,29526,US,33.894921,-79.120714,29114030003,Matthew,1
935,Willard Rd,Conway,SC,Horry County,29526,US,33.904092,-79.098071,29210010004,Matthew,1
4400,Shanlee Dr,Conway,SC,Horry County,29526,US,33.904719,-79.054794,29300000034,Matthew,1
4273,Sunset Dr,Conway,SC,Horry County,29526,US,33.910457,-79.067073,29307020019,Matthew,1
120,Stonehinge Ct,Conway,SC,Horry County,29526,US,33.898731,-79.061917,29314010001,Matthew,1
3620,Stillpond Rd,Conway,SC,Horry County,29526,US,33.894479,-79.073217,29316030002,Matthew,1
6680,N Hwy 701,Conway,SC,Horry County,29526,US,33.975511,-79.013663,29400000033,Matthew,1
4004,Byrd Rd,Conway,SC,Horry County,29526,US,33.917224,-79.033056,29402010003,Matthew,1
146,Grier Crossing Dr,Conway,SC,Horry County,29526,US,33.914897,-79.017992,29404040013,"Joaquin, Florence",2
142,Grier Crossing Rd,Conway,SC,Horry County,29526,US,33.914823,-79.018775,29404040014,"Joaquin, Florence",2
4330,Hwy 65,Conway,SC,Horry County,29526,US,33.908908,-79.018801,29405010004,Matthew,1
3957,Long Ave Ext,Conway,SC,Horry County,29526,US,33.894551,-79.013394,29413030026,Matthew,1
4662,Hwy 65,Conway,SC,Horry County,29526,US,33.918254,-79.007906,29501020001,Matthew,1
3655,Hwy 19,Conway,SC,Horry County,29526,US,33.899632,-78.966997,29600000011,Matthew,1
3787,Hwy 905,Conway,SC,Horry County,29526,US,33.891867,-78.949001,29600000027,Matthew,1
3847,Hwy 472,Conway,SC,Horry County,29526,US,33.899947,-78.957012,29611030003,Florence,1
208,Haley Brooke Dr,Conway,SC,Horry County,29526,US,33.921359,-78.912184,29611030005,Florence,1
3850,Hwy 472,Conway,SC,Horry County,29526,US,33.899254,-78.956169,29611030006,Florence,1
4147,Hwy 472,Conway,SC,Horry County,29526,US,33.902518,-78.949914,29612020004,Florence,1
3546,Hwy 472,Conway,SC,Horry County,29526,US,33.896515,-78.96483,29612020005,Florence,1
4626,Hwy 472,Conway,SC,Horry County,29526,US,33.911058,-78.937111,29702040006,Matthew,1
184,Missouria Ln,Conway,SC,Horry County,29526,US,33.90399,-78.923743,29706030007,Matthew,1
4472,Hwy 905,Conway,SC,Horry County,29526,US,33.897979,-78.928219,29711040008,Matthew,1
4724,Shell Rd,Conway,SC,Horry County,29526,US,33.901418,-78.915595,29712020006,Florence,1
296,Hwy 66,Conway,SC,Horry County,29526,US,33.90839,-78.909366,29808020006,Florence,1
526,McNeil Chapel Rd,Longs,SC,Horry County,29568,US,33.917984,-78.82809,29812040004,Joaquin,1
5658,Hwy 905,Conway,SC,Horry County,29526,US,33.901749,-78.887758,29812040007,Joaquin,1
123,Prather Park Dr,Myrtle Beach,SC,Horry County,29588,US,33.69168,-79.003839,29813010002,Florence,1
843,Caines Landing Rd,Conway,SC,Horry County,29526,US,33.889843,-78.90206,29815040009,Florence,1
851,Council Bluff Rd,Longs,SC,Horry County,29568,US,33.898592,-78.825198,30000000023,Florence,1
282,Old Wilson Rd,Longs,SC,Horry County,29568,US,33.9137,-78.82621,30003020002,Florence,1
288,Old Wilson Rd,Longs,SC,Horry County,29568,US,33.914771,-78.82647,30003020004,Florence,1
276,Old Wilson Rd,Longs,SC,Horry County,29568,US,33.913381,-78.82544,30003020005,Florence,1
270,Old Wilson Rd,Longs,SC,Horry County,29568,US,33.912665,-78.825127,30003020007,Florence,1
1001,Meher Ln,Little River,SC,Horry County,29566,US,33.915941,-78.636621,30003020008,Florence,1
262,Old Wilson Rd,Longs,SC,Horry County,29568,US,33.912254,-78.824186,30003020009,Florence,1
250,Old Wilson Rd,Longs,SC,Horry County,29568,US,33.912088,-78.823311,30003020011,Florence,1
2950,Monaca Dr,Longs,SC,Horry County,29568,US,33.842103,-78.803595,30003020012,Florence,1
4098,Tillmond Dr,Conway,SC,Horry County,29526,US,33.917041,-79.031958,30003030001,Florence,1
6468,Hwy 905,Conway,SC,Horry County,29526,US,33.90152,-78.870501,30003030002,Florence,1
506,Jefferson Rd,Longs,SC,Horry County,29568,US,33.910702,-78.827852,30003040006,Florence,1
516,Jefferson Rd,Longs,SC,Horry County,29568,US,33.910946,-78.826686,30003040007,Florence,1
178,Old Wilson Rd,Longs,SC,Horry County,29568,US,33.912572,-78.82083,30004010003,Florence,1
8126,S Hwy 905,Longs,SC,Horry County,29568,US,33.911538,-78.817369,30004030001,Florence,1
,,Conway,SC,Horry County,29527,US,33.785195,-79.145938,30004040001,Florence,1
8094,S Hwy 905,Longs,SC,Horry County,29568,US,33.910679,-78.819327,30004040003,Florence,1
1376,Old Todd Ferry Rd,Longs,SC,Horry County,29568,US,33.902074,-78.836938,30007040007,Florence,1
730,Burcale Rd,Myrtle Beach,SC,Horry County,29579,US,33.718999,-78.94802,30008030004,Matthew,1
97,Hwy 31,Longs,SC,Horry County,29568,US,33.904126,-78.840168,30011040001,Florence,1
1019,Anne St,North Myrtle Beach,SC,Horry County,29582,US,33.826167,-78.696713,30101010001,"Joaquin, Matthew, Florence",3
3310,Sunset St,North Myrtle Beach,SC,Horry County,29582,US,33.802162,-78.721256,30200000004,Florence,1
1473,Dusty Ln,Longs,SC,Horry County,29568,US,33.911664,-78.768436,30202020001,Florence,1
1431,Dusty Ln,Longs,SC,Horry County,29568,US,33.91202,-78.76616,30202020002,Florence,1
1448,Dusty Ln,Longs,SC,Horry County,29568,US,33.912469,-78.767017,30202020008,Florence,1
610,Loop Cir,Longs,SC,Horry County,29568,US,33.908904,-78.771219,30202040007,Florence,1
605,Loop Cir,Longs,SC,Horry County,29568,US,33.909291,-78.77031,30202040009,Florence,1
542,E Bear Grass Rd,Longs,SC,Horry County,29568,US,33.911025,-78.761689,30203010005,Florence,1
512,E Bear Grass Rd,Longs,SC,Horry County,29568,US,33.911504,-78.761551,30203010006,Florence,1
504,E Bear Grass Rd,Longs,SC,Horry County,29568,US,33.911824,-78.761437,30203010007,Florence,1
462,E Bear Grass Rd,Longs,SC,Horry County,29568,US,33.912263,-78.761405,30203010008,Florence,1
1406,Dusty Ln,Longs,SC,Horry County,29568,US,33.910909,-78.762913,30203010015,Florence,1
591,E Bear Grass Rd,Longs,SC,Horry County,29568,US,33.909823,-78.760899,30203030002,Florence,1
570,E Bear Grass Rd,Longs,SC,Horry County,29568,US,33.910292,-78.761602,30203040002,Florence,1
1415,Dusty Ln,Longs,SC,Horry County,29568,US,33.910316,-78.762546,30203040003,Florence,1
576,E Bear Grass Rd,Longs,SC,Horry County,29568,US,33.909483,-78.761402,30203040004,Florence,1
600,E Bear Grass Rd,Longs,SC,Horry County,29568,US,33.908785,-78.761446,30203040005,Florence,1
1534,Canipe Cir,Longs,SC,Horry County,29568,US,33.90197,-78.705895,30400000005,Florence,1
1155,E Hwy 9,Longs,SC,Horry County,29568,US,33.911165,-78.712504,30401010005,Florence,1
1465,Goggle Eye Dr,Longs,SC,Horry County,29568,US,33.906498,-78.69654,30403040008,Florence,1
309,Oak Lake Cir,North Myrtle Beach,SC,Horry County,29582,US,33.818695,-78.677138,30407010003,Florence,1
1151,Loop Cir,Longs,SC,Horry County,29568,US,33.913336,-78.779358,30407010007,Florence,1
3750,Rice Hope Ct,Myrtle Beach,SC,Horry County,29577,US,33.731248,-78.876493,30407030005,Florence,1
2912,S Hwy 17,North Myrtle Beach,SC,Horry County,29582,US,33.806088,-78.718717,30407030006,Florence,1
,,Little River,SC,Horry County,29566,US,33.87853,-78.63938,30407040001,Florence,1
1550,Canipe Cir,Longs,SC,Horry County,29568,US,33.900615,-78.704824,30407040002,Florence,1
1541,Canipe Cir,Longs,SC,Horry County,29568,US,33.901534,-78.704599,30407040003,Florence,1
419,Charter Dr,Longs,SC,Horry County,29568,US,33.896104,-78.683122,30412020022,Joaquin,1
384,Charter Dr,Longs,SC,Horry County,29568,US,33.895071,-78.683083,30412030004,Joaquin,1
2132,Wedgewood Dr,Longs,SC,Horry County,29568,US,33.891558,-78.689392,30413010068,Joaquin,1
248,Eagle Run,Longs,SC,Horry County,29568,US,33.889266,-78.687478,30413010088,Joaquin,1
252,Eagle Run,Longs,SC,Horry County,29568,US,33.889145,-78.68738,30413010089,Joaquin,1
256,Eagle Run,Longs,SC,Horry County,29568,US,33.889046,-78.687237,30413010090,Joaquin,1
2181,Goodson Dr,Longs,SC,Horry County,29568,US,33.889489,-78.687075,30413010091,Joaquin,1
2341,Brick Dr,Longs,SC,Horry County,29568,US,33.891507,-78.683751,30413020006,Joaquin,1
125,Edwards Ln,Longs,SC,Horry County,29568,US,33.89009,-78.685085,30413020048,Joaquin,1
2177,Goodson Dr,Longs,SC,Horry County,29568,US,33.889625,-78.686759,30413020059,Joaquin,1
260,Eagle Run,Longs,SC,Horry County,29568,US,33.888922,-78.687111,30413040021,Joaquin,1
259,Crystal Ln,Longs,SC,Horry County,29568,US,33.886154,-78.716061,30416040001,Florence,1
289,Crystal Ln,Longs,SC,Horry County,29568,US,33.885872,-78.714707,30416040002,Florence,1
297,Crystal Ln,Longs,SC,Horry County,29568,US,33.88614,-78.714418,30416040003,Florence,1
375,Reno Cir,Longs,SC,Horry County,29568,US,33.930066,-78.754322,30506020002,Florence,1
2151,Seaford Dr,Longs,SC,Horry County,29568,US,33.896634,-78.680481,30509010009,Joaquin,1
476,Charter Dr,Longs,SC,Horry County,29568,US,33.898108,-78.682484,30509010044,Florence,1
426,Cordgrass Ln,Little River,SC,Horry County,29566,US,33.885375,-78.679306,30516040003,Joaquin,1
436,Cordgrass Ln,Little River,SC,Horry County,29566,US,33.885564,-78.679818,30516040005,Joaquin,1
444,Cordgrass Ln,Little River,SC,Horry County,29566,US,33.885697,-78.680172,30516040007,Joaquin,1
448,Cordgrass Ln,Little River,SC,Horry County,29566,US,33.885761,-78.680347,30516040008,Joaquin,1
452,Cordgrass Ln,Little River,SC,Horry County,29566,US,33.885789,-78.680519,30516040009,Joaquin,1
623,Charter Dr,Longs,SC,Horry County,29568,US,33.902495,-78.683668,30516040010,Joaquin,1
460,Cordgrass Ln,Little River,SC,Horry County,29566,US,33.885728,-78.680883,30516040011,Joaquin,1
104,Retreat Pl,Little River,SC,Horry County,29566,US,33.886555,-78.680942,30516040012,Joaquin,1
3839,Woodridge Cir,Little River,SC,Horry County,29566,US,33.890652,-78.623103,30613010021,Matthew,1
1009,Sunnymeadow Pl,Little River,SC,Horry County,29566,US,33.890748,-78.636513,30615020026,Florence,1
1004,Sunnymeadow Pl,Little River,SC,Horry County,29566,US,33.89031,-78.636156,30615020029,Florence,1
2212,Jackson Cir,Little River,SC,Horry County,29566,US,33.883914,-78.592042,30713040022,Matthew,1
2172,Plantation Cir,Little River,SC,Horry County,29566,US,33.878671,-78.589034,31104040011,Matthew,1
2228,Vereen Cir,Little River,SC,Horry County,29566,US,33.879728,-78.589347,31104040023,Matthew,1
2116,Lexington Cir,Little River,SC,Horry County,29566,US,33.878909,-78.589989,31104040063,Matthew,1
1663,Wildwood Dr,Little River,SC,Horry County,29566,US,33.874583,-78.610079,31108020062,Matthew,1
1558,Platt Dr,Little River,SC,Horry County,29566,US,33.873014,-78.612912,31108030011,Matthew,1
3208,Hermitage Dr,Little River,SC,Horry County,29566,US,33.881863,-78.648402,31201010020,Matthew,1
586,Vermillion Dr,Little River,SC,Horry County,29566,US,33.88194,-78.635174,31202020051,Florence,1
2366,Island Way,Little River,SC,Horry County,29566,US,33.879072,-78.585117,31206020034,Joaquin,1
2236,Jackson Cir,Little River,SC,Horry County,29566,US,33.883896,-78.590896,31206020043,Joaquin,1
4103,Mica Ave,Little River,SC,Horry County,29566,US,33.876789,-78.628638,31206020044,Joaquin,1
413,2nd Ave S,North Myrtle Beach,SC,Horry County,29582,US,33.82189,-78.677808,31206020045,Joaquin,1
3920,Mallard Way,Little River,SC,Horry County,29566,US,33.871475,-78.629779,31206030001,Joaquin,1
3930,Greenhead Rd,Little River,SC,Horry County,29566,US,33.871128,-78.629786,31206030002,Joaquin,1
3969,Greenhead Rd,Little River,SC,Horry County,29566,US,33.871786,-78.629276,31206030017,Joaquin,1
3899,Mallard Way,Little River,SC,Horry County,29566,US,33.872223,-78.629473,31206030019,Joaquin,1
3910,Mallard Way,Little River,SC,Horry County,29566,US,33.871702,-78.629898,31206040081,Joaquin,1
4047,Sandtrap Ave,Little River,SC,Horry County,29566,US,33.869974,-78.646864,31209010080,Joaquin,1
4046,Fairway Dr,Little River,SC,Horry County,29566,US,33.869785,-78.648414,31209010111,Joaquin,1
3555,Rose Cir,Longs,SC,Horry County,29568,US,33.847929,-78.766535,31210010027,Matthew,1
4451,Barcelona Ln,Little River,SC,Horry County,29566,US,33.867851,-78.621885,31212010033,Joaquin,1
4414,Barcelona Ln,Little River,SC,Horry County,29566,US,33.868673,-78.622962,31212010047,Joaquin,1
4450,Barcelona Ln,Little River,SC,Horry County,29566,US,33.867679,-78.622222,31212010055,Joaquin,1
463,Cordgrass Ln,Little River,SC,Horry County,29566,US,33.885385,-78.680797,31301010008,Joaquin,1
3098,Kings Ct,Little River,SC,Horry County,29566,US,33.878772,-78.646774,31301010012,Joaquin,1
505,Cordgrass Ln,Little River,SC,Horry County,29566,US,33.884588,-78.680142,31301010013,Joaquin,1
511,Cordgrass Ln,Little River,SC,Horry County,29566,US,33.884693,-78.679954,31301010014,Joaquin,1
496,Cordgrass Ln,Little River,SC,Horry County,29566,US,33.884246,-78.680492,31301010021,Joaquin,1
488,Cordgrass Ln,Little River,SC,Horry County,29566,US,33.884486,-78.680822,31301010023,Joaquin,1
484,Cordgrass Ln,Little River,SC,Horry County,29566,US,33.884638,-78.680895,31301010024,Joaquin,1
1619,Eastover Ln,North Myrtle Beach,SC,Horry County,29582,US,33.847619,-78.658401,31301010025,Joaquin,1
476,Cordgrass Ln,Little River,SC,Horry County,29566,US,33.884947,-78.681025,31301010026,Joaquin,1
472,Cordgrass Ln,Little River,SC,Horry County,29566,US,33.885096,-78.681107,31301010027,Joaquin,1
468,Cordgrass Ln,Little River,SC,Horry County,29566,US,33.885262,-78.68115,31301010028,Joaquin,1
3610,Golf Ave,Little River,SC,Horry County,29566,US,33.876685,-78.653857,31305020003,Matthew,1
1025,W Plantation Dr,Little River,SC,Horry County,29566,US,33.872993,-78.665733,31306040014,Joaquin,1
1095,W Plantation Dr,Little River,SC,Horry County,29566,US,33.872041,-78.665935,31306040123,Joaquin,1
450,Nature Trl,Little River,SC,Horry County,29566,US,33.877665,-78.671038,31307010007,Matthew,1
416,Nature Trl,Little River,SC,Horry County,29566,US,33.876571,-78.670469,31307020006,Joaquin,1
133,Kenya Cir,Little River,SC,Horry County,29566,US,33.874234,-78.675019,31307040045,Matthew,1
219,Sienna Dr,Little River,SC,Horry County,29566,US,33.893297,-78.676132,31310030003,Joaquin,1
142,Williamsburg Rd,Little River,SC,Horry County,29566,US,33.867644,-78.669294,31310030008,Joaquin,1
3805,Lee Pl,Little River,SC,Horry County,29566,US,33.867286,-78.668734,31310030011,Joaquin,1
3812,Kathyrn Pl,Little River,SC,Horry County,29566,US,33.86783,-78.668013,31310030020,Joaquin,1
3809,Kathryn Pl,Little River,SC,Horry County,29566,US,33.868046,-78.668469,31310030021,Joaquin,1
3970,Pinebrook Cir,Little River,SC,Horry County,29566,US,33.868774,-78.652527,31312020044,Florence,1
238,Robinhood Cir,Little River,SC,Horry County,29566,US,33.863196,-78.659203,31314020035,Joaquin,1
120,Red Tip Blvd,Little River,SC,Horry County,29566,US,33.862266,-78.663017,31314020074,Joaquin,1
1900,Tallwood Rd,Longs,SC,Horry County,29568,US,33.882405,-78.711944,31400000003,Matthew,1
279,Crystal Ln,Longs,SC,Horry County,29568,US,33.885549,-78.715132,31401010001,Florence,1
273,Crystal Ln,Longs,SC,Horry County,29568,US,33.885325,-78.715419,31401010002,Florence,1
3909,Thomas Rd,Little River,SC,Horry County,29566,US,33.898209,-78.612254,31401010005,Florence,1
298,Crystal Ln,Longs,SC,Horry County,29568,US,33.885533,-78.714213,31401010006,Florence,1
402,Pine Cir,Myrtle Beach,SC,Horry County,29572,US,33.759518,-78.804855,31401010007,Florence,1
312,Crystal Ln,Longs,SC,Horry County,29568,US,33.884373,-78.713456,31401010008,Florence,1
314,Crystal Ln,Longs,SC,Horry County,29568,US,33.884077,-78.713246,31401010010,Florence,1
1895,Tallwood Rd,Longs,SC,Horry County,29568,US,33.883578,-78.71289,31401010013,Florence,1
1878,Tallwood Rd,Longs,SC,Horry County,29568,US,33.882691,-78.712418,31401010015,Florence,1
3325,Timothy Dr,Longs,SC,Horry County,29568,US,33.83966,-78.782042,31403030003,Florence,1
1002,Snowberry Dr,Longs,SC,Horry County,29568,US,33.877231,-78.707248,31407010016,Matthew,1
2040,Jones Rd,Longs,SC,Horry County,29568,US,33.866305,-78.735053,31500000035,Florence,1
1767,Living Stones Ln,Longs,SC,Horry County,29568,US,33.873487,-78.748501,31508040001,Florence,1
1773,Living Stones Ln,Longs,SC,Horry County,29568,US,33.874462,-78.748621,31508040002,Florence,1
3973,Hwy 90,Conway,SC,Horry County,29526,US,33.822987,-78.902964,31514010013,Matthew,1
,,Longs,SC,Horry County,29568,US,33.93851,-78.73307,31514040003,Joaquin,1
1546,Star Bluff Rd,Longs,SC,Horry County,29568,US,33.878003,-78.75771,31605010003,Florence,1
1575,Star Bluff Rd,Longs,SC,Horry County,29568,US,33.877801,-78.756237,31605010008,Florence,1
1680,Star Bluff Rd,Longs,SC,Horry County,29568,US,33.873977,-78.756954,31605040004,Florence,1
1684,Star Bluff Rd,Longs,SC,Horry County,29568,US,33.874445,-78.757106,31605040006,Florence,1
523,Parish Ln,Little River,SC,Horry County,29566,US,33.855228,-78.677702,31605040008,Florence,1
1661,Star Bluff Rd,Longs,SC,Horry County,29568,US,33.874958,-78.756103,31605040011,Matthew,1
2830,Sandy Branch Rd,Longs,SC,Horry County,29568,US,33.873408,-78.753681,31605040019,Florence,1
1755,Star Bluff Rd,Longs,SC,Horry County,29568,US,33.87133,-78.7553,31605040020,"Matthew, Florence",2
1630,Star Bluff Rd,Longs,SC,Horry County,29568,US,33.875659,-78.757981,31606030001,Florence,1
1650,Vera Rd,Longs,SC,Horry County,29568,US,33.873659,-78.761635,31606040001,Florence,1
2891,Waccamaw Cv,Longs,SC,Horry County,29568,US,33.872566,-78.773577,31610010015,Florence,1
1737,Pint Cir,Longs,SC,Horry County,29568,US,33.868106,-78.766425,31610030002,Florence,1
3150,Sweet Bay Rd,Longs,SC,Horry County,29568,US,33.872056,-78.761897,31611010001,Florence,1
1660,Vera Rd,Longs,SC,Horry County,29568,US,33.872428,-78.760856,31611020005,Florence,1
2990,Sweet Bay Rd,Longs,SC,Horry County,29568,US,33.870154,-78.756619,31612010005,Florence,1
2945,Victor Rd,Longs,SC,Horry County,29568,US,33.871091,-78.757201,31612010006,Florence,1
2959,Victor Rd,Longs,SC,Horry County,29568,US,33.871595,-78.757025,31612010007,Florence,1
1694,Duke Rd,Longs,SC,Horry County,29568,US,33.873045,-78.757069,31612010010,Florence,1
1704,Duke Rd,Longs,SC,Horry County,29568,US,33.872647,-78.756876,31612010011,Florence,1
1718,Duke Rd,Longs,SC,Horry County,29568,US,33.87232,-78.756845,31612010012,Florence,1
1730,Duke Rd,Longs,SC,Horry County,29568,US,33.872014,-78.756752,31612010013,Florence,1
1750,Duke Rd,Longs,SC,Horry County,29568,US,33.871564,-78.756676,31612010014,Florence,1
1754,Duke Rd,Longs,SC,Horry County,29568,US,33.871325,-78.756516,31612010015,Florence,1
1764,Duke Rd,Longs,SC,Horry County,29568,US,33.871014,-78.756092,31612010017,Florence,1
1749,Duke Rd,Longs,SC,Horry County,29568,US,33.871781,-78.755999,31612010020,Florence,1
1717,Duke Rd,Longs,SC,Horry County,29568,US,33.872334,-78.756263,31612010022,Florence,1
1705,Duke Rd,Longs,SC,Horry County,29568,US,33.872697,-78.756392,31612010023,Florence,1
1695,Duke Rd,Longs,SC,Horry County,29568,US,33.872989,-78.756461,31612010024,Florence,1
1980,Star Bluff Rd,Longs,SC,Horry County,29568,US,33.865465,-78.753906,31613020013,Florence,1
3316,Della Rd,Longs,SC,Horry County,29568,US,33.860199,-78.766813,31615030009,Matthew,1
1838,Holly Ridge Dr,Longs,SC,Horry County,29568,US,33.867639,-78.803288,31710030001,"Matthew, Florence",2
1799,Meadowood Ln,Longs,SC,Horry County,29568,US,33.867105,-78.804736,31710040001,Florence,1
1841,Holly Ridge Dr,Longs,SC,Horry County,29568,US,33.868166,-78.803834,31710040003,Florence,1
167,US Hwy 17,Little River,SC,Horry County,29566,US,33.853595,-78.654205,31710040008,Florence,1
1868,Meadowood Ln,Longs,SC,Horry County,29568,US,33.864968,-78.804044,31715010007,Florence,1
,,Longs,SC,Horry County,29568,US,33.93851,-78.73307,31715010020,Florence,1
1887,Meadowood Ln,Longs,SC,Horry County,29568,US,33.865432,-78.802992,31715020013,Florence,1
,,Longs,SC,Horry County,29568,US,33.93851,-78.73307,31715020014,"Matthew, Florence",2
1859,Hickory Ln,Longs,SC,Horry County,29568,US,33.864099,-78.806828,31715040042,Florence,1
1741,Holly Ridge Dr,Longs,SC,Horry County,29568,US,33.865941,-78.806858,31716020001,Florence,1
1731,Holly Ridge Dr,Longs,SC,Horry County,29568,US,33.865338,-78.806697,31716020002,Florence,1
4772,Southland Dr,Longs,SC,Horry County,29568,US,33.86201,-78.813646,31716040006,Florence,1
6721,Thomas Rd,Conway,SC,Horry County,29526,US,33.86386,-78.871457,31915040005,Florence,1
5246,Alligator Ct,Conway,SC,Horry County,29526,US,33.88911,-78.902103,32002010003,Florence,1
5240,Alligator Ct,Conway,SC,Horry County,29526,US,33.888839,-78.901961,32002010004,Florence,1
939,Caines Landing Rd,Conway,SC,Horry County,29526,US,33.887876,-78.903495,32002010009,Florence,1
5205,Caines Ct,Conway,SC,Horry County,29526,US,33.887501,-78.903105,32002010012,Florence,1
333,Cypress Flat Ct,Conway,SC,Horry County,29526,US,33.883396,-78.899455,32002030005,Florence,1
1628,Caines Landing Rd,Conway,SC,Horry County,29526,US,33.877688,-78.898279,32007030004,Florence,1
1520,Caines Landing Rd,Conway,SC,Horry County,29526,US,33.87429,-78.897849,32010020010,Florence,1
1520,Waccamaw Cir,Conway,SC,Horry County,29526,US,33.874127,-78.896683,32011010004,Florence,1
2719,Hwy 905,Conway,SC,Horry County,29526,US,33.875727,-78.976026,32011010007,"Joaquin, Florence",2
2140,Winburn Rd,Galivants Ferry,SC,Horry County,29544,US,34.026974,-79.170598,32011010009,Florence,1
1596,Waccamaw Cir,Conway,SC,Horry County,29526,US,33.872556,-78.89518,32011010010,Florence,1
4841,Hwy 65,Conway,SC,Horry County,29526,US,33.918091,-79.001203,32011010017,"Joaquin, Florence",2
1565,Waccamaw Cir,Conway,SC,Horry County,29526,US,33.873621,-78.89504,32011010019,Florence,1
1543,Waccamaw Cir,Conway,SC,Horry County,29526,US,33.874139,-78.895537,32011010022,Florence,1
3505,Hwy 66,Loris,SC,Horry County,29569,US,33.987728,-78.872196,32011010023,Florence,1
1507,Waccamaw Cir,Conway,SC,Horry County,29526,US,33.87497,-78.896245,32011010027,Florence,1
6194,Bear Bluff Rd,Conway,SC,Horry County,29526,US,33.863368,-78.883111,32013030003,Florence,1
215,Christian Rd,Conway,SC,Horry County,29526,US,33.886361,-78.973055,32201030006,Matthew,1
3454,Hwy 905,Conway,SC,Horry County,29526,US,33.88604,-78.960079,32203040003,Matthew,1
1981,Hwy 905,Conway,SC,Horry County,29526,US,33.863092,-78.99199,32300000010,"Matthew, Florence",2
2493,Hwy 905,Conway,SC,Horry County,29526,US,33.871677,-78.982461,32306020002,Matthew,1
1219,Four Mile Rd,Conway,SC,Horry County,29526,US,33.889839,-79.072284,32504010002,Matthew,1
3951,Hwy 319,Aynor,SC,Horry County,29511,US,33.955884,-79.128293,32504030006,Matthew,1
2793,Oak St,Conway,SC,Horry County,29526,US,33.873563,-79.069644,32510040019,Matthew,1
141,Iris St,Conway,SC,Horry County,29526,US,33.872657,-79.070423,32510040029,Matthew,1
3108,Cultra Rd,Conway,SC,Horry County,29526,US,33.867019,-79.088694,32614030022,Matthew,1
2242,Honey Brook Dr,Galivants Ferry,SC,Horry County,29544,US,33.93059,-79.21193,32700000010,Matthew,1
3834,Kelly Rd,Conway,SC,Horry County,29526,US,33.942701,-79.02381,32703020002,Matthew,1
6585,Shady Grove Rd,Conway,SC,Horry County,29527,US,33.870523,-79.221449,32900000043,Matthew,1
1350,Dunn Shortcut Rd,Conway,SC,Horry County,29527,US,33.851983,-79.127678,32912020008,Matthew,1
9300,Pee Dee Hwy,Conway,SC,Horry County,29527,US,33.891408,-79.235912,33001020002,Matthew,1
4738,N Pawley Rd,Conway,SC,Horry County,29527,US,33.810428,-79.134738,33002040001,Matthew,1
9198,Pee Dee Hwy,Conway,SC,Horry County,29527,US,33.888722,-79.234894,33002040003,Matthew,1
6703,High Point Church Rd,Conway,SC,Horry County,29527,US,33.877478,-79.212568,33012020005,Matthew,1
1754,Register Dr,Conway,SC,Horry County,29527,US,33.869088,-79.231168,33015030010,Matthew,1
8565,Jordan Lake Rd,Conway,SC,Horry County,29527,US,33.867272,-79.248769,33113040001,Florence,1
242,D St,Conway,SC,Horry County,29527,US,33.885804,-79.123428,33113040004,Florence,1
167,Willie James Rd,Conway,SC,Horry County,29526,US,33.889529,-79.114776,33113040006,Florence,1
1720,Brunson Spring Rd,Galivants Ferry,SC,Horry County,29544,US,33.917596,-79.20665,33204010001,Florence,1
1365,Alford Rd,Conway,SC,Horry County,29526,US,33.908761,-79.087555,33204010009,Florence,1
6712,Hwy 981,Conway,SC,Horry County,29527,US,33.883402,-79.208291,33204010010,Florence,1
6308,Enterprise Rd,Myrtle Beach,SC,Horry County,29588,US,33.675651,-79.014414,33204010012,Florence,1
6160,Hampton Rd,Conway,SC,Horry County,29527,US,33.851189,-79.186559,33411020001,Matthew,1
3001,Drywall Dr,Myrtle Beach,SC,Horry County,29577,US,33.705434,-78.928218,33411040007,Matthew,1
6510,Hampton Rd,Conway,SC,Horry County,29527,US,33.84411,-79.193871,33414010002,Matthew,1
426,Briarwood Ln,Conway,SC,Horry County,29526,US,33.881876,-79.023828,33414010005,Matthew,1
4815,Jeffords Dr,Conway,SC,Horry County,29527,US,33.859637,-79.157489,33500000030,Matthew,1
4541,Juniper Bay Rd,Conway,SC,Horry County,29527,US,33.85932,-79.154202,33500000032,Matthew,1
4481,Juniper Bay Rd,Conway,SC,Horry County,29527,US,33.857647,-79.150491,33505010005,Matthew,1
5075,Marigold Rd,Conway,SC,Horry County,29527,US,33.840185,-79.171686,33516030007,Matthew,1
1595,Singing Pines Dr,Conway,SC,Horry County,29527,US,33.858783,-79.131929,33600000111,Matthew,1
1338,Singing Pines Dr,Conway,SC,Horry County,29527,US,33.854559,-79.124586,33606030016,Matthew,1
1390,Dunn Shortcut Rd,Conway,SC,Horry County,29527,US,33.850996,-79.129042,33610020002,Matthew,1
3820,Juniper Bay Rd,Conway,SC,Horry County,29527,US,33.844947,-79.134351,33610040008,Matthew,1
4990,Old Reaves Ferry Rd,Conway,SC,Horry County,29526,US,33.857087,-78.928487,33905010005,Florence,1
4010,W Hwy 501,Conway,SC,Horry County,29526,US,33.886771,-79.115904,33905030016,Florence,1
150,Starview Dr,Conway,SC,Horry County,29526,US,33.84824,-79.020035,33912010028,Florence,1
422,Padgett Ln,Conway,SC,Horry County,29526,US,33.865213,-79.010461,34001030021,Florence,1
214,Padgett Ln,Conway,SC,Horry County,29526,US,33.85877,-79.007465,34001030025,Florence,1
26,Plantation Rd,Myrtle Beach,SC,Horry County,29588,US,33.682409,-78.994213,34005030001,Florence,1
756,Embassy Ln,Conway,SC,Horry County,29526,US,33.850244,-78.981059,34005030002,Florence,1
758,Embassy Ln,Conway,SC,Horry County,29526,US,33.850444,-78.981337,34005030003,Florence,1
760,Embassy Ln,Conway,SC,Horry County,29526,US,33.850656,-78.981591,34005030004,Florence,1
2537,Stonesedge Blvd,Little River,SC,Horry County,29566,US,33.897174,-78.674829,34005030005,Florence,1
764,Embassy Ln,Conway,SC,Horry County,29526,US,33.85103,-78.982187,34005030006,Florence,1
2571,Old Clearpond Rd,Conway,SC,Horry County,29526,US,33.805937,-78.945718,34005030007,Florence,1
768,Embassy Ln,Conway,SC,Horry County,29526,US,33.851198,-78.982912,34005030008,"Matthew, Florence",2
3553,Grisset Rd,Conway,SC,Horry County,29526,US,33.862538,-78.932841,34005030011,Florence,1
200,Wahee Pl,Conway,SC,Horry County,29527,US,33.760624,-79.067992,34005030019,Florence,1
1083,Rowe Pond Rd,Conway,SC,Horry County,29526,US,33.851592,-78.983412,34005030020,"Matthew, Florence",2
1085,Rowe Pond Rd,Conway,SC,Horry County,29526,US,33.851838,-78.983129,34005030021,"Matthew, Florence",2
3810,Palmetto Dr,Myrtle Beach,SC,Horry County,29577,US,33.730898,-78.873302,34005040002,Florence,1
1005,Rowe Pond Rd,Conway,SC,Horry County,29526,US,33.852304,-78.986428,34005040008,Florence,1
555,Hardees Ferry Rd,Conway,SC,Horry County,29526,US,33.850862,-78.997129,34007030002,Florence,1
1580,Hwy 905,Conway,SC,Horry County,29526,US,33.855455,-79.005885,34008020010,Florence,1
404,Bryants Landing Rd,Conway,SC,Horry County,29526,US,33.84842,-79.01149,34009010013,Florence,1
316,Waterside Dr,Myrtle Beach,SC,Horry County,29577,US,33.709782,-78.926832,34011020006,"Matthew, Florence",2
2039,Lees Landing Cir,Conway,SC,Horry County,29526,US,33.847724,-78.989025,34011020007,"Matthew, Florence",2
316,Fairwood Ter,Myrtle Beach,SC,Horry County,29588,US,33.688346,-78.957549,34011020008,"Matthew, Florence",2
1002,Dublin Dr,Conway,SC,Horry County,29526,US,33.886993,-79.010161,34011020011,"Matthew, Florence",2
799,Redmond Ct,Conway,SC,Horry County,29526,US,33.849548,-78.98469,34012010001,Florence,1
2057,Lees Landing Cir,Conway,SC,Horry County,29526,US,33.847267,-78.980957,34012010003,Florence,1
2507,Forestbrook Rd,Myrtle Beach,SC,Horry County,29588,US,33.707986,-78.982465,34012010004,Florence,1
2050,Lees Landing Cir,Conway,SC,Horry County,29526,US,33.848429,-78.986705,34012010005,Matthew,1
2062,Lees Landing Cir,Conway,SC,Horry County,29526,US,33.848036,-78.985184,34012010006,Florence,1
749,Embassy Ln,Conway,SC,Horry County,29526,US,33.849107,-78.980628,34012020001,Florence,1
787,Redmond Ct,Conway,SC,Horry County,29526,US,33.849159,-78.983643,34012020007,Florence,1
2071,Lees Landing Cir,Conway,SC,Horry County,29526,US,33.847924,-78.981953,34012020010,"Matthew, Florence",2
2079,Lees Landing Cir,Conway,SC,Horry County,29526,US,33.847545,-78.981269,34012020012,Matthew,1
2080,Lees Landing Cir,Conway,SC,Horry County,29526,US,33.847329,-78.982531,34012020014,"Matthew, Florence",2
2076,Lees Landing Cir,Conway,SC,Horry County,29526,US,33.847594,-78.983285,34012020015,Florence,1
2068,Lees Landing Cir,Conway,SC,Horry County,29526,US,33.847921,-78.984571,34012020017,"Matthew, Florence",2
2088,Lees Landing Cir,Conway,SC,Horry County,29526,US,33.846429,-78.980795,34012030001,Florence,1
1995,Lees Landing Cir,Conway,SC,Horry County,29526,US,33.842831,-78.988992,34012040001,Florence,1
2007,Lees Landing Cir,Conway,SC,Horry County,29526,US,33.844303,-78.98904,34012040006,Florence,1
3648,Eagle Trace Dr,Myrtle Beach,SC,Horry County,29579,US,33.712361,-78.95438,34013010003,"Joaquin, Matthew, Florence",3
1347,Enterprise Ave,Myrtle Beach,SC,Horry County,29577,US,33.70514,-78.902858,34013010004,Florence,1
1973,Lees Landing Cir,Conway,SC,Horry County,29526,US,33.840343,-78.988963,34013010005,"Matthew, Florence",2
1977,Lees Landing Cir,Conway,SC,Horry County,29526,US,33.840839,-78.989016,34013010007,Florence,1
1993,Lees Landing Cir,Conway,SC,Horry County,29526,US,33.842619,-78.989057,34013010013,Florence,1
1988,Lees Landing Cir,Conway,SC,Horry County,29526,US,33.841208,-78.988383,34013010014,Florence,1
203,Stonebridge Dr,Myrtle Beach,SC,Horry County,29588,US,33.679684,-78.968884,34013010016,Florence,1
1976,Lees Landing Cir,Conway,SC,Horry County,29526,US,33.840497,-78.988068,34013010017,Florence,1
1972,Lees Landing Cir,Conway,SC,Horry County,29526,US,33.840022,-78.988019,34013010018,Florence,1
1964,Lees Landing Cir,Conway,SC,Horry County,29526,US,33.839528,-78.987995,34013010019,Florence,1
1955,Lees Landing Cir,Conway,SC,Horry County,29526,US,33.838932,-78.989158,34013040001,Florence,1
1943,Mecca Ct,Conway,SC,Horry County,29526,US,33.8688,-78.992221,34013040003,Florence,1
1950,Lees Landing Cir,Conway,SC,Horry County,29526,US,33.838335,-78.987882,34013040005,"Joaquin, Matthew, Florence",3
1948,Lees Landing Cir,Conway,SC,Horry County,29526,US,33.838135,-78.988074,34013040006,"Joaquin, Matthew, Florence",3
1936,Lees Landing Cir,Conway,SC,Horry County,29526,US,33.836752,-78.9894,34014030001,Florence,1
1927,Lees Landing Cir,Conway,SC,Horry County,29526,US,33.835911,-78.991166,34014030002,Florence,1
1933,Lees Landing Cir,Conway,SC,Horry County,29526,US,33.836796,-78.990566,34014030005,Florence,1
413,37th Ave N,Myrtle Beach,SC,Horry County,29577,US,33.71406,-78.856947,34014030006,"Joaquin, Matthew, Florence",3
5132,Bottle Branch Rd,Conway,SC,Horry County,29527,US,33.873807,-79.178734,34014030007,Florence,1
1941,Lees Landing Cir,Conway,SC,Horry County,29526,US,33.837817,-78.989618,34014030010,Florence,1
1945,Lees Landing Cir,Conway,SC,Horry County,29526,US,33.838239,-78.989286,34014030012,Florence,1
4664,Dock Rd,Conway,SC,Horry County,29526,US,33.921665,-79.015502,34014030014,Florence,1
201,Waccamaw River Dr,Conway,SC,Horry County,29526,US,33.85161,-78.976252,34108030001,Florence,1
211,Waccamaw River Dr,Conway,SC,Horry County,29526,US,33.851254,-78.975965,34108030002,Florence,1
1306,Yacht Dr,Myrtle Beach,SC,Horry County,29577,US,33.691331,-78.954767,34108030006,"Matthew, Florence",2
748,Embassy Ln,Conway,SC,Horry County,29526,US,33.849468,-78.97992,34108040003,Florence,1
170,Waccamaw River Dr,Conway,SC,Horry County,29526,US,33.848793,-78.978808,34108040007,Florence,1
5320,Bottle Branch Rd,Conway,SC,Horry County,29527,US,33.877295,-79.176536,34108040009,Florence,1
2565,E US Hwy 501,Conway,SC,Horry County,29526,US,33.785319,-78.991699,34108040011,Florence,1
2976,Everette St,Conway,SC,Horry County,29526,US,33.865992,-79.091022,34108040012,Florence,1
390,Waccamaw River Dr,Conway,SC,Horry County,29526,US,33.847559,-78.980239,34109010003,Florence,1
372,Waccamaw River Dr,Conway,SC,Horry County,29526,US,33.848148,-78.980045,34109010004,Florence,1
3900,Loblolly Ave,Little River,SC,Horry County,29566,US,33.904793,-78.616053,34109010005,Florence,1
745,Embassy Ln,Conway,SC,Horry County,29526,US,33.848745,-78.980085,34109010006,Florence,1
747,Embassy Ln,Conway,SC,Horry County,29526,US,33.848912,-78.980361,34109010007,Florence,1
746,Embassy Ln,Conway,SC,Horry County,29526,US,33.849288,-78.979662,34109010008,Florence,1
3500,Carter Rd,Loris,SC,Horry County,29569,US,33.980093,-78.850053,34109010009,Florence,1
742,Embassy Ln,Conway,SC,Horry County,29526,US,33.848826,-78.97905,34109010010,Florence,1
365,River Rd,Conway,SC,Horry County,29526,US,33.847942,-78.978327,34109010017,Florence,1
375,River Rd,Conway,SC,Horry County,29526,US,33.847589,-78.978433,34109010018,Florence,1
3265,Hwy 905,Conway,SC,Horry County,29526,US,33.882702,-78.966239,34109010019,Florence,1
395,River Rd,Conway,SC,Horry County,29526,US,33.847072,-78.978348,34109010020,"Joaquin, Florence",2
405,River Rd,Conway,SC,Horry County,29526,US,33.846851,-78.978254,34109010021,"Joaquin, Matthew, Florence",3
415,River Rd,Conway,SC,Horry County,29526,US,33.846634,-78.978101,34109010022,"Joaquin, Matthew, Florence",3
1601,Dick Pond Rd,Myrtle Beach,SC,Horry County,29575,US,33.636328,-78.967234,34109010025,Florence,1
515,River Rd,Conway,SC,Horry County,29526,US,33.844713,-78.976511,34109030001,Florence,1
535,River Rd,Conway,SC,Horry County,29526,US,33.844383,-78.976062,34109030003,Florence,1
555,River Rd,Conway,SC,Horry County,29526,US,33.844118,-78.975616,34109030005,"Joaquin, Matthew, Florence",3
603,Stableford Ct,Myrtle Beach,SC,Horry County,29577,US,33.738958,-78.836933,34109030006,"Joaquin, Matthew, Florence",3
505,River Rd,Conway,SC,Horry County,29526,US,33.844915,-78.97674,34109040001,Florence,1
465,River Rd,Conway,SC,Horry County,29526,US,33.845576,-78.977361,34109040004,Florence,1
455,River Rd,Conway,SC,Horry County,29526,US,33.845745,-78.97755,34109040005,Florence,1
455,Sunnehanna Dr,Myrtle Beach,SC,Horry County,29588,US,33.641528,-79.054824,34109040006,Florence,1
2104,Lees Landing Cir,Conway,SC,Horry County,29526,US,33.84559,-78.979781,34109040008,Florence,1
2096,Lees Landing Cir,Conway,SC,Horry County,29526,US,33.845682,-78.980622,34109040009,Florence,1
3075,Grahamville Rd,Conway,SC,Horry County,29526,US,33.848751,-78.934544,34210020001,Florence,1
6201,Inman Cir,Conway,SC,Horry County,29526,US,33.85309,-78.894406,34303030002,Florence,1
6161,Inman Cir,Conway,SC,Horry County,29526,US,33.856573,-78.89149,34303030003,Florence,1
6147,Inman Cir,Conway,SC,Horry County,29526,US,33.856339,-78.891788,34303030004,Florence,1
1307,Elm St,Conway,SC,Horry County,29526,US,33.846065,-79.057709,34303030005,Florence,1
6430,Old Reaves Ferry Rd,Conway,SC,Horry County,29526,US,33.848806,-78.894666,34306040001,Florence,1
6086,Inman Cir,Conway,SC,Horry County,29526,US,33.854332,-78.892797,34306040002,Florence,1
1730,Gray Oaks Dr,Conway,SC,Horry County,29526,US,33.848075,-78.899805,34307030001,Florence,1
1710,Gray Oaks Dr,Conway,SC,Horry County,29526,US,33.848927,-78.898469,34307030004,Florence,1
1870,Gray Oaks Dr,Conway,SC,Horry County,29526,US,33.844944,-78.902368,34310020001,Florence,1
1860,Gray Oaks Dr,Conway,SC,Horry County,29526,US,33.845188,-78.902225,34310020002,"Matthew, Florence",2
1840,Gray Oaks Dr,Conway,SC,Horry County,29526,US,33.845639,-78.901888,34310020004,Florence,1
1790,Gray Oaks Dr,Conway,SC,Horry County,29526,US,33.846596,-78.900779,34310020009,Florence,1
1770,Gray Oaks Dr,Conway,SC,Horry County,29526,US,33.847263,-78.900647,34310020011,"Matthew, Florence",2
1750,Gray Oaks Dr,Conway,SC,Horry County,29526,US,33.847695,-78.900236,34310020013,"Matthew, Florence",2
1940,Gray Oaks Dr,Conway,SC,Horry County,29526,US,33.843256,-78.903397,34310040006,Florence,1
1970,Gray Oaks Dr,Conway,SC,Horry County,29526,US,33.842537,-78.903898,34310040009,"Matthew, Florence",2
1980,Gray Oaks Dr,Conway,SC,Horry County,29526,US,33.842234,-78.904059,34310040010,Florence,1
2000,Gray Oaks Dr,Conway,SC,Horry County,29526,US,33.841732,-78.904408,34310040012,Florence,1
2020,Gray Oaks Dr,Conway,SC,Horry County,29526,US,33.841303,-78.904675,34310040013,Florence,1
415,Trestle Way,Conway,SC,Horry County,29526,US,33.836922,-78.896707,34314040029,Florence,1
4513,Southland Dr,Longs,SC,Horry County,29568,US,33.858517,-78.808132,34601020006,Matthew,1
4563,Southland Dr,Longs,SC,Horry County,29568,US,33.858745,-78.809856,34601020010,Matthew,1
163,Bluebird Loop,Conway,SC,Horry County,29526,US,33.911003,-78.912607,34610010003,Matthew,1
2731,Dogwood Rd,Longs,SC,Horry County,29568,US,33.843664,-78.793733,34611020008,Florence,1
2737,Dogwood Rd,Longs,SC,Horry County,29568,US,33.843352,-78.793775,34611020009,Florence,1
3250,Bombing Range Rd,Longs,SC,Horry County,29568,US,33.853616,-78.760804,34701020017,Matthew,1
250,Victory Ln,Conway,SC,Horry County,29526,US,33.792883,-79.00302,34903030037,Joaquin,1
408,San Benito Ct,Longs,SC,Horry County,29568,US,33.832188,-78.707306,34915040013,Matthew,1
11193,Hwy 90,Little River,SC,Horry County,29566,US,33.85344,-78.682445,35001040009,Florence,1
2200,N Ocean Blvd,North Myrtle Beach,SC,Horry County,29582,US,33.827491,-78.644131,35002030022,Joaquin,1
457,Copenhagen Dr,Little River,SC,Horry County,29566,US,33.851164,-78.667892,35002030023,Joaquin,1
461,Copenhagen Dr,Little River,SC,Horry County,29566,US,33.851324,-78.667589,35002030024,Joaquin,1
2200,N Ocean Blvd,North Myrtle Beach,SC,Horry County,29582,US,33.827491,-78.644131,35003040046,Joaquin,1
465,Copenhagen Dr,Little River,SC,Horry County,29566,US,33.85147,-78.66727,35003040064,Joaquin,1
3370,Truluck Johnson Rd,Aynor,SC,Horry County,29511,US,34.011401,-79.130613,35113010032,Joaquin,1
213,Laurel St,Conway,SC,Horry County,29526,US,33.83473,-79.047156,35113010037,Joaquin,1
306,44th Ave N,North Myrtle Beach,SC,Horry County,29582,US,33.834928,-78.624995,35113010042,Joaquin,1
304,44th Ave N,North Myrtle Beach,SC,Horry County,29582,US,33.834802,-78.624933,35113010043,Joaquin,1
,,Conway,SC,Horry County,29526,US,33.868775,-78.948287,35113010058,Joaquin,1
3405,Duffy St,North Myrtle Beach,SC,Horry County,29582,US,33.833422,-78.634245,35114010007,Joaquin,1
2003,Nixon St,North Myrtle Beach,SC,Horry County,29582,US,33.828771,-78.646443,35501020033,Joaquin,1
206,Rivers Edge Dr,Conway,SC,Horry County,29526,US,33.827907,-78.902626,36302030002,Florence,1
3109,Wildhorse Dr,Conway,SC,Horry County,29526,US,33.827964,-78.917413,36404030006,Florence,1
3101,Wildhorse Dr,Conway,SC,Horry County,29526,US,33.828016,-78.917844,36404030007,Florence,1
974,Chelsey Cir,Conway,SC,Horry County,29526,US,33.826115,-78.928444,36406010005,Florence,1
1143,Windy Hill Dr,Conway,SC,Horry County,29526,US,33.824804,-78.931883,36406010013,Florence,1
1305,3rd Ave,Conway,SC,Horry County,29526,US,33.833212,-79.049919,36407010009,Florence,1
1533,Murrells Landing Rd,Conway,SC,Horry County,29526,US,33.833868,-78.956309,36503020005,Florence,1
1545,Murrells Landing Rd,Conway,SC,Horry County,29526,US,33.833616,-78.956063,36504010006,Florence,1
2080,Hwy 90,Conway,SC,Horry County,29526,US,33.821714,-78.963097,36506040001,Florence,1
2900,Lees Landing Cir,Conway,SC,Horry County,29526,US,33.82302,-78.962336,36506040013,Florence,1
1367,Burriss Rd,Conway,SC,Horry County,29526,US,33.826327,-78.966088,36507020004,Matthew,1
1971,Steritt Swamp Rd,Conway,SC,Horry County,29526,US,33.822907,-78.968165,36507030006,Florence,1
1960,Steritt Swamp Rd,Conway,SC,Horry County,29526,US,33.822247,-78.966725,36510020001,Florence,1
1383,Riverside Dr,Conway,SC,Horry County,29526,US,33.829478,-79.009194,36601030001,Florence,1
1343,Riverside Dr,Conway,SC,Horry County,29526,US,33.829437,-79.010337,36601040001,Florence,1
1333,Riverside Dr,Conway,SC,Horry County,29526,US,33.82945,-79.010842,36601040002,Florence,1
1319,Riverside Dr,Conway,SC,Horry County,29526,US,33.829462,-79.011301,36601040003,Florence,1
5131,Hwy 19,Conway,SC,Horry County,29526,US,33.937568,-78.950546,36601040004,"Joaquin, Florence",2
1249,Riverside Dr,Conway,SC,Horry County,29526,US,33.829664,-79.012806,36601040006,Florence,1
1243,Riverside Dr,Conway,SC,Horry County,29526,US,33.829689,-79.013765,36601040007,Florence,1
1735,Bridgewater Dr,Conway,SC,Horry County,29526,US,33.829047,-78.994229,36603040001,Florence,1
1731,Bridgewater Dr,Conway,SC,Horry County,29526,US,33.829492,-78.994263,36603040003,Florence,1
1729,Bridgewater Dr,Conway,SC,Horry County,29526,US,33.829736,-78.994297,36603040004,Florence,1
1727,Bridgewater Dr,Conway,SC,Horry County,29526,US,33.829954,-78.994496,36603040005,Florence,1
4054,Ridgewood Dr,Conway,SC,Horry County,29526,US,33.890908,-78.995874,36603040006,Florence,1
1855,Bellamy Rd,Conway,SC,Horry County,29526,US,33.820504,-78.992874,36603040007,"Matthew, Florence",2
1730,Bridgewater Dr,Conway,SC,Horry County,29526,US,33.829368,-78.995041,36603040009,Florence,1
1737,Bridgewater Dr,Conway,SC,Horry County,29526,US,33.828845,-78.994179,36606010022,Florence,1
1903,Riverside Dr,Conway,SC,Horry County,29526,US,33.828706,-79.004698,36607010001,Florence,1
1930,Riverside Dr,Conway,SC,Horry County,29526,US,33.826126,-79.008532,36608020001,Florence,1
1910,Riverside Dr,Conway,SC,Horry County,29526,US,33.826955,-79.008098,36608020003,Florence,1
1800,Riverside Dr,Conway,SC,Horry County,29526,US,33.828068,-79.008173,36608020005,Florence,1
1404,Riverside Dr,Conway,SC,Horry County,29526,US,33.827953,-79.009016,36608020006,Florence,1
1384,Riverside Dr,Conway,SC,Horry County,29526,US,33.828149,-79.009538,36608020007,Florence,1
1895,Riverside Dr,Conway,SC,Horry County,29526,US,33.827764,-79.007067,36608020011,Florence,1
1849,Riverside Dr,Conway,SC,Horry County,29526,US,33.829058,-79.005695,36608020012,Florence,1
1324,Waccamaw Lake Dr,Conway,SC,Horry County,29526,US,33.810451,-79.038282,36700000022,"Joaquin, Matthew, Florence",3
1030,Waccamaw Lake Dr,Conway,SC,Horry County,29526,US,33.810576,-79.038274,36700000023,"Joaquin, Matthew, Florence",3
1100,Riverside Dr,Conway,SC,Horry County,29527,US,33.829775,-79.017961,36704040001,Florence,1
1206,Riverside Dr,Conway,SC,Horry County,29526,US,33.828447,-79.014841,36705020001,"Joaquin, Florence",2
731,E US Hwy 501,Conway,SC,Horry County,29526,US,33.813705,-79.034215,36710040007,Florence,1
767,E Hwy 501,Conway,SC,Horry County,29526,US,33.815084,-79.036144,36714040026,Matthew,1
1016,Brown Dr,Conway,SC,Horry County,29526,US,33.809337,-79.033873,36715030006,Florence,1
1013,Waccamaw Dr,Conway,SC,Horry County,29526,US,33.809459,-79.049793,36716010006,Joaquin,1
5852,Crestwood Dr,Myrtle Beach,SC,Horry County,29588,US,33.688211,-79.036497,36716010008,Matthew,1
1022,Waccamaw Dr,Conway,SC,Horry County,29526,US,33.814843,-79.044614,36716010014,Florence,1
1024,Waccamaw Dr,Conway,SC,Horry County,29526,US,33.814696,-79.044759,36716010015,Florence,1
2221,Buttercup Ln,Conway,SC,Horry County,29526,US,33.865642,-79.048846,36716010016,"Joaquin, Matthew, Florence",3
1034,Waccamaw Dr,Conway,SC,Horry County,29526,US,33.813697,-79.045523,36716010019,Florence,1
1300,US Hwy 501,Conway,SC,Horry County,29526,US,33.842246,-79.060327,36716010023,"Joaquin, Florence",2
1046,Waccamaw Dr,Conway,SC,Horry County,29526,US,33.812942,-79.046813,36716010024,Florence,1
4321,Summit Trl,Myrtle Beach,SC,Horry County,29579,US,33.730541,-78.956456,36716020007,Florence,1
1004,Waccamaw Dr,Conway,SC,Horry County,29526,US,33.816131,-79.041403,36716020009,"Joaquin, Matthew, Florence",3
1007,Waccamaw Lake Dr,Conway,SC,Horry County,29526,US,33.814732,-79.042087,36716020013,Florence,1
1324,Waccamaw Lake Dr,Conway,SC,Horry County,29526,US,33.810451,-79.038282,36716030001,Florence,1
1530,Gilbert Rd,Conway,SC,Horry County,29527,US,33.740766,-79.110187,36716040001,"Joaquin, Florence",2
1052,Waccamaw Dr,Conway,SC,Horry County,29526,US,33.812675,-79.046931,36716040004,Florence,1
904,Hwy 15,Myrtle Beach,SC,Horry County,29577,US,33.690156,-78.904894,36716040008,"Joaquin, Matthew, Florence",3
1063,Waccamaw Dr,Conway,SC,Horry County,29526,US,33.811434,-79.047243,36716040011,Florence,1
100,Elm St,Conway,SC,Horry County,29527,US,33.835503,-79.07495,36800000008,Florence,1
203,Jessamine St,Conway,SC,Horry County,29526,US,33.850087,-79.041152,36804020010,Joaquin,1
1806,New Rd,Conway,SC,Horry County,29526,US,33.826854,-79.059928,36806010001,Florence,1
1808,New Rd,Conway,SC,Horry County,29527,US,33.826778,-79.060637,36806010003,Florence,1
4951,Cates Bay Hwy,Conway,SC,Horry County,29527,US,33.802497,-79.135847,36813030004,"Joaquin, Matthew, Florence",3
1084,Waccamaw Dr,Conway,SC,Horry County,29526,US,33.810106,-79.049708,36813030005,Florence,1
1085,Waccamaw Dr,Conway,SC,Horry County,29526,US,33.809644,-79.04948,36813030010,"Joaquin, Matthew, Florence",3
1092,Waccamaw Dr,Conway,SC,Horry County,29526,US,33.809381,-79.050274,36813030012,"Joaquin, Florence",2
163,Glass Hill Dr,Conway,SC,Horry County,29526,US,33.84404,-79.030494,36813030013,"Joaquin, Matthew, Florence",3
1086,Waccamaw Dr,Conway,SC,Horry County,29526,US,33.809968,-79.049944,36813030014,"Joaquin, Florence",2
1082,Waccamaw Dr,Conway,SC,Horry County,29526,US,33.810333,-79.049494,36813030016,"Joaquin, Matthew, Florence",3
1080,Waccamaw Dr,Conway,SC,Horry County,29526,US,33.810598,-79.049171,36813030017,"Matthew, Florence",2
1094,E Hwy 501,Conway,SC,Horry County,29526,US,33.809722,-79.027531,36813030019,Florence,1
1072,Waccamaw Dr,Conway,SC,Horry County,29526,US,33.81114,-79.048485,36813030020,"Joaquin, Matthew, Florence",3
1609,4th Ave,Conway,SC,Horry County,29526,US,33.831103,-79.057597,36813030023,Florence,1
1060,Waccamaw Dr,Conway,SC,Horry County,29526,US,33.811901,-79.047453,36813030025,"Matthew, Florence",2
5727,Downybrook Rd,Myrtle Beach,SC,Horry County,29588,US,33.673786,-79.009531,36816040025,Matthew,1
3411,Longwood Ln,Conway,SC,Horry County,29527,US,33.812138,-79.077114,36816040026,Matthew,1
4051,Hwy 378,Conway,SC,Horry County,29527,US,33.834479,-79.145332,37001010001,Matthew,1
4525,Old Tram Rd,Conway,SC,Horry County,29527,US,33.81494,-79.160528,37114010002,Matthew,1
5510,Hwy 378,Conway,SC,Horry County,29527,US,33.836004,-79.193391,37203010003,Matthew,1
5470,Hendricks Shortcut Rd,Conway,SC,Horry County,29527,US,33.826107,-79.179709,37205030005,Matthew,1
1292,Hwy 90,Conway,SC,Horry County,29526,US,33.819498,-78.987262,37715030002,Florence,1
3960,Wind Ridge Rd,Conway,SC,Horry County,29526,US,33.886782,-79.002493,37809020003,Matthew,1
2546,Allen Dew Rd,Conway,SC,Horry County,29527,US,33.796784,-79.121343,37905040002,"Matthew, Florence",2
2661,Allen Dew Rd,Conway,SC,Horry County,29527,US,33.799389,-79.125637,37906040001,Matthew,1
2445,Allen Dew Rd,Conway,SC,Horry County,29527,US,33.794647,-79.119089,37912010003,"Matthew, Florence",2
213,Georgia Mae Lp,Conway,SC,Horry County,29527,US,33.791221,-79.113115,38009040004,Matthew,1
370,Pitch Landing Rd,Conway,SC,Horry County,29527,US,33.807387,-79.062766,38100000007,Florence,1
3700,Palmetto Pointe Blvd,Myrtle Beach,SC,Horry County,29588,US,33.678588,-78.971422,38100000008,Florence,1
3498,S Hwy 701,Conway,SC,Horry County,29527,US,33.804883,-79.078838,38101040020,Florence,1
3490,S Hwy 701,Conway,SC,Horry County,29527,US,33.806193,-79.078326,38101040021,Florence,1
3564,Steamer Trace Rd,Conway,SC,Horry County,29527,US,33.806332,-79.06812,38102010021,Florence,1
3563,Steamer Trace Rd,Conway,SC,Horry County,29527,US,33.806127,-79.067203,38102020001,Florence,1
3559,Steamer Trace Rd,Conway,SC,Horry County,29527,US,33.806694,-79.066981,38102020002,Florence,1
3565,Steamer Trace Rd,Conway,SC,Horry County,29527,US,33.804467,-79.067945,38102020003,Florence,1
3597,Steamer Trace Rd,Conway,SC,Horry County,29527,US,33.803264,-79.067089,38102030002,"Matthew, Florence",2
3593,Steamer Trace Rd,Conway,SC,Horry County,29527,US,33.803745,-79.067402,38102030004,Florence,1
3585,Steamer Trace Rd,Conway,SC,Horry County,29527,US,33.804316,-79.067473,38102030005,Florence,1
3583,Steamer Trace Rd,Conway,SC,Horry County,29527,US,33.80457,-79.067411,38102030006,Florence,1
3579,Steamer Trace Rd,Conway,SC,Horry County,29527,US,33.804834,-79.067285,38102030007,Florence,1
3577,Steamer Trace Rd,Conway,SC,Horry County,29527,US,33.805187,-79.067255,38102030008,Florence,1
3571,Steamer Trace Rd,Conway,SC,Horry County,29527,US,33.805503,-79.067123,38102030009,Florence,1
1610,4th Ave,Conway,SC,Horry County,29526,US,33.831481,-79.057878,38102040001,"Matthew, Florence",2
3586,Steamer Trace Rd,Conway,SC,Horry County,29527,US,33.804032,-79.068169,38102040002,Florence,1
3582,Steamer Trace Rd,Conway,SC,Horry County,29527,US,33.804336,-79.068023,38102040003,"Matthew, Florence",2
3578,Steamer Trace Rd,Conway,SC,Horry County,29527,US,33.804915,-79.06809,38102040005,Florence,1
3574,Steamer Trace Rd,Conway,SC,Horry County,29527,US,33.805511,-79.068273,38102040007,Florence,1
366,Pitch Landing Rd,Conway,SC,Horry County,29527,US,33.807283,-79.062254,38103010002,Florence,1
1106,Waccamaw Dr,Conway,SC,Horry County,29526,US,33.808692,-79.052189,38104010002,"Matthew, Florence",2
1312,Colony Rd,Conway,SC,Horry County,29526,US,33.850872,-79.061828,38104010003,Florence,1
3485,Sidewheeler Rd,Conway,SC,Horry County,29527,US,33.807761,-79.054117,38104010004,Florence,1
1096,Waccamaw Dr,Conway,SC,Horry County,29526,US,33.80903,-79.050525,38104020002,Florence,1
4550,Adrian Hwy,Conway,SC,Horry County,29526,US,33.946466,-79.018458,38104020004,Florence,1
5030,Pitch Landing Dr,Conway,SC,Horry County,29527,US,33.799518,-79.055591,38105010003,"Matthew, Florence",2
3952,Long Ave Ext,Conway,SC,Horry County,29526,US,33.893895,-79.01187,38105010004,"Matthew, Florence",2
1800,Winburn St,Conway,SC,Horry County,29527,US,33.729651,-79.098517,38105010007,"Matthew, Florence",2
4102,Joyner Swamp Rd,Galivants Ferry,SC,Horry County,29544,US,34.030591,-79.116356,38105010009,Florence,1
4099,Hwy 813,Conway,SC,Horry County,29526,US,33.89245,-79.018055,38105010010,Florence,1
926,Cox Ferry Cir,Conway,SC,Horry County,29526,US,33.796165,-79.0479,38105030001,Florence,1
905,Church St,Conway,SC,Horry County,29527,US,33.838565,-79.06035,38105040001,Florence,1
2800,Minnick Rd,Aynor,SC,Horry County,29511,US,33.998599,-79.117117,38105040002,Florence,1
5093,Pitch Landing Dr,Conway,SC,Horry County,29527,US,33.79817,-79.054428,38105040005,Florence,1
5081,Pitch Landing Dr,Conway,SC,Horry County,29527,US,33.798251,-79.053753,38105040006,Florence,1
5101,Pitch Landing Dr,Conway,SC,Horry County,29527,US,33.797737,-79.054293,38105040008,Florence,1
2071,Lexus Ln,Conway,SC,Horry County,29526,US,33.871417,-79.089379,38105040009,Joaquin,1
945,Knotty Branch Rd,Conway,SC,Horry County,29527,US,33.903292,-79.174945,38105040011,Florence,1
7242,Hwy 134,Conway,SC,Horry County,29527,US,33.832871,-79.145826,38105040012,Florence,1
5141,Pitch Landing Dr,Conway,SC,Horry County,29527,US,33.796637,-79.054436,38105040014,Florence,1
5149,Pitch Landing Dr,Conway,SC,Horry County,29527,US,33.796421,-79.054431,38105040015,Florence,1
5155,Pitch Landing Dr,Conway,SC,Horry County,29527,US,33.796194,-79.054422,38105040016,"Matthew, Florence",2
111,White Oak Forest Pl,Conway,SC,Horry County,29527,US,33.800293,-79.080286,38105040017,"Joaquin, Florence",2
5900,Reba Rd,Conway,SC,Horry County,29527,US,33.746366,-79.093312,38105040018,Florence,1
5148,Pitch Landing Dr,Conway,SC,Horry County,29527,US,33.796415,-79.055008,38105040019,Florence,1
5078,Pitch Landing Dr,Conway,SC,Horry County,29527,US,33.798241,-79.055044,38105040027,Florence,1
3258,Hughes Gasque Rd,Aynor,SC,Horry County,29511,US,33.961326,-79.080316,38105040028,Florence,1
2707,Us Hwy 701,Conway,SC,Horry County,29526,US,33.872857,-79.051176,38106020001,Florence,1
5181,Pitch Landing Dr,Conway,SC,Horry County,29527,US,33.795399,-79.05439,38112010001,Florence,1
938,Cox Ferry Cir,Conway,SC,Horry County,29526,US,33.79438,-79.049638,38112020003,"Matthew, Florence",2
1415,3rd Ave,Conway,SC,Horry County,29526,US,33.831835,-79.052269,38112020004,Florence,1
623,Rusty Rd,Conway,SC,Horry County,29526,US,33.795883,-79.023277,38206030002,Matthew,1
637,Rusty Rd,Conway,SC,Horry County,29526,US,33.796424,-79.025151,38206030082,Matthew,1
923,Cox Ferry Cir,Conway,SC,Horry County,29526,US,33.796187,-79.045395,38208040006,Matthew,1
912,Cox Ferry Cir,Conway,SC,Horry County,29526,US,33.797797,-79.044548,38208040010,Matthew,1
5106,Converse Dr,Conway,SC,Horry County,29526,US,33.798793,-79.009772,38308020058,Matthew,1
1000,S Kings Hwy,Myrtle Beach,SC,Horry County,29577,US,33.679613,-78.89965,38913010001,Florence,1
12803,N Hwy 905,Longs,SC,Horry County,29568,US,33.965233,-78.685737,38913040014,Florence,1
150,Cabana Rd,Myrtle Beach,SC,Horry County,29572,US,33.790008,-78.745144,39109020006,Florence,1
105,Bellegrove Dr,Myrtle Beach,SC,Horry County,29579,US,33.760083,-78.862066,39611030012,Joaquin,1
708,Coffee Tree Ct,Myrtle Beach,SC,Horry County,29579,US,33.760923,-78.863461,39611040040,Joaquin,1
705,Coffee Tree Ct,Myrtle Beach,SC,Horry County,29579,US,33.760519,-78.863979,39611040045,Joaquin,1
8250,Forest Lake Dr,Conway,SC,Horry County,29526,US,33.770837,-78.998217,40006010003,Matthew,1
713,Helms Way,Conway,SC,Horry County,29526,US,33.771654,-79.006579,40007010031,Florence,1
1054,Savannah Bluff Rd,Conway,SC,Horry County,29526,US,33.809694,-79.025262,40113030032,Matthew,1
884,Jackson Bluff Rd,Conway,SC,Horry County,29526,US,33.782596,-79.031981,40204010007,"Joaquin, Matthew, Florence",3
880,Jackson Cir,Conway,SC,Horry County,29526,US,33.780138,-79.054001,40204010008,"Joaquin, Matthew, Florence",3
7722,Lamplighter Rd,Myrtle Beach,SC,Horry County,29588,US,33.667554,-79.052938,40204010012,"Joaquin, Matthew, Florence",3
3534,Enoch Rd,Aynor,SC,Horry County,29511,US,33.965813,-79.134829,40204040001,Florence,1
964,Jackson Bluff Rd,Conway,SC,Horry County,29526,US,33.775273,-79.053185,40204040002,Florence,1
,,Conway,SC,Horry County,29526,US,33.868775,-78.948287,40204040003,Florence,1
521,Holly Dr,Myrtle Beach,SC,Horry County,29577,US,33.694063,-78.903761,40204040004,"Joaquin, Matthew",2
952,Jackson Bluff Rd,Conway,SC,Horry County,29526,US,33.775888,-79.053376,40204040005,Florence,1
932,Jackson Bluff Rd,Conway,SC,Horry County,29526,US,33.777016,-79.053913,40204040010,Florence,1
3225,Shetland Ln,Myrtle Beach,SC,Horry County,29577,US,33.695073,-78.940298,40204040012,Florence,1
920,Jackson Bluff Rd,Conway,SC,Horry County,29526,US,33.77777,-79.053988,40204040013,"Joaquin, Florence",2
916,Jackson Bluff Rd,Conway,SC,Horry County,29526,US,33.778012,-79.053998,40204040014,"Joaquin, Florence",2
972,Jackson Bluff Rd,Conway,SC,Horry County,29526,US,33.774727,-79.053246,40205010001,"Joaquin, Florence",2
4845,S Hwy 701,Conway,SC,Horry County,29527,US,33.767821,-79.071992,40210040062,Florence,1
179,Waccamaw Bend Rd,Conway,SC,Horry County,29527,US,33.756133,-79.071236,40215040017,Florence,1
2575,Society Dr,Conway,SC,Horry County,29527,US,33.769701,-79.148783,40500000031,Matthew,1
5590,Daffodil Dr,Conway,SC,Horry County,29527,US,33.772974,-79.150022,40505030007,Matthew,1
2584,Society Dr,Conway,SC,Horry County,29527,US,33.770688,-79.148419,40505030013,Matthew,1
2620,Society Dr,Conway,SC,Horry County,29527,US,33.770643,-79.149441,40505030014,Matthew,1
5161,Marigold Rd,Conway,SC,Horry County,29527,US,33.842096,-79.17163,40602020001,Florence,1
5020,Pee Dee Hwy,Conway,SC,Horry County,29527,US,33.773525,-79.188569,40606020001,Matthew,1
4260,Pee Dee Hwy,Conway,SC,Horry County,29527,US,33.750337,-79.181266,41100000002,Florence,1
3748,Pee Dee Hwy,Conway,SC,Horry County,29527,US,33.736385,-79.172337,41110040002,Florence,1
1208,Gilbert Rd,Conway,SC,Horry County,29527,US,33.739054,-79.103475,41300000037,Matthew,1
1543,Gilbert Rd,Conway,SC,Horry County,29527,US,33.737569,-79.113104,41300000045,Matthew,1
2142,Winburn St,Conway,SC,Horry County,29527,US,33.73383,-79.115791,41316010002,"Matthew, Florence",2
5650,Old Bucksville Rd,Conway,SC,Horry County,29527,US,33.748,-79.074711,41400000006,Florence,1
105,Upper Mill Rd,Conway,SC,Horry County,29527,US,33.738236,-79.062473,41400000023,Florence,1
409,Sasser Ln,Conway,SC,Horry County,29527,US,33.742289,-79.065283,41406040001,Florence,1
411,Sasser Ln,Conway,SC,Horry County,29527,US,33.741837,-79.065087,41406040002,Florence,1
417,Sasser Ln,Conway,SC,Horry County,29527,US,33.741203,-79.064727,41406040003,Florence,1
409,Keysfield Cir,Conway,SC,Horry County,29527,US,33.744997,-79.066853,41407020031,Florence,1
419,Keysfield Cir,Conway,SC,Horry County,29527,US,33.744587,-79.066572,41407020033,Florence,1
439,Keysfield Cir,Conway,SC,Horry County,29527,US,33.743643,-79.066079,41407030013,"Matthew, Florence",2
1300,6th Ave,Conway,SC,Horry County,29526,US,33.836854,-79.053261,41407030015,Florence,1
412,Sasser Ln,Conway,SC,Horry County,29527,US,33.741254,-79.065314,41407030016,Florence,1
484,N River Front,Conway,SC,Horry County,29527,US,33.730352,-79.053695,41413010001,Florence,1
486,N River Front,Conway,SC,Horry County,29527,US,33.730603,-79.053907,41413010002,Florence,1
2251,Wilderness Rd,Conway,SC,Horry County,29526,US,33.817272,-79.00051,41413010003,"Matthew, Florence",2
3853,Hwy 931,Conway,SC,Horry County,29526,US,33.892386,-79.096597,41413010005,Matthew,1
2681,Hwy 319,Aynor,SC,Horry County,29511,US,33.984969,-79.151343,41413010008,"Joaquin, Matthew, Florence",3
2920,Oak St,Conway,SC,Horry County,29526,US,33.879334,-79.07171,41413010012,Florence,1
5664,New Dawn Ln,Conway,SC,Horry County,29526,US,33.946441,-78.948706,41413030001,Florence,1
,,Conway,SC,Horry County,29526,US,33.868775,-78.948287,41413030002,"Joaquin, Matthew, Florence",3
3796,Long Ave Ext,Conway,SC,Horry County,29526,US,33.886427,-79.008958,41413030004,"Joaquin, Matthew, Florence",3
4051,Hwy 378,Conway,SC,Horry County,29527,US,33.834479,-79.145332,41413030007,Florence,1
462,S River Front,Conway,SC,Horry County,29527,US,33.728531,-79.051784,41413030008,Florence,1
460,S River Front,Conway,SC,Horry County,29527,US,33.728402,-79.051583,41413030009,Florence,1
458,S River Front,Conway,SC,Horry County,29527,US,33.728176,-79.051508,41413030010,Florence,1
452,S River Front,Conway,SC,Horry County,29527,US,33.727872,-79.051171,41413030012,Florence,1
2402,Brunson Spring Rd,Galivants Ferry,SC,Horry County,29544,US,33.913264,-79.227836,41413030013,Florence,1
2075,Lexus Ln,Conway,SC,Horry County,29526,US,33.872339,-79.088309,41413030014,"Matthew, Florence",2
413,Paul St,Conway,SC,Horry County,29527,US,33.820808,-79.079743,41413030015,"Joaquin, Florence",2
1275,Prescott Cir,Myrtle Beach,SC,Horry County,29577,US,33.662674,-78.962256,41413030017,Florence,1
11975,Pee Dee Rd S,Galivants Ferry,SC,Horry County,29544,US,33.940052,-79.243162,41413030018,"Matthew, Florence",2
6135,Juniper Bay Rd,Conway,SC,Horry County,29527,US,33.88596,-79.192375,41413030020,"Joaquin, Matthew, Florence",3
1402,4th Ave,Conway,SC,Horry County,29526,US,33.833805,-79.052611,41413040001,"Joaquin, Matthew",2
,,Conway,SC,Horry County,29526,US,33.868775,-78.948287,41505010024,Matthew,1
4286,Bradford Cir,Myrtle Beach,SC,Horry County,29588,US,33.743442,-79.023973,41505040045,Florence,1
4401,Bradford Cir,Myrtle Beach,SC,Horry County,29588,US,33.740604,-79.024959,41506030009,Florence,1
4391,Bradford Cir,Myrtle Beach,SC,Horry County,29588,US,33.740824,-79.024927,41506030010,Florence,1
4383,Bradford Cir,Myrtle Beach,SC,Horry County,29588,US,33.741026,-79.024887,41506030011,Florence,1
4377,Bradford Cir,Myrtle Beach,SC,Horry County,29588,US,33.741237,-79.024855,41506030012,Florence,1
4311,Bradford Cir,Myrtle Beach,SC,Horry County,29588,US,33.74251,-79.024604,41506030019,Florence,1
4294,Bradford Cir,Myrtle Beach,SC,Horry County,29588,US,33.743418,-79.024248,41506030021,Florence,1
4300,Bradford Cir,Myrtle Beach,SC,Horry County,29588,US,33.743374,-79.024582,41506030022,Florence,1
4314,Bradford Cir,Myrtle Beach,SC,Horry County,29588,US,33.743193,-79.025231,41506030024,Florence,1
4322,Bradford Cir,Myrtle Beach,SC,Horry County,29588,US,33.743026,-79.02563,41506030026,Florence,1
4330,Bradford Cir,Myrtle Beach,SC,Horry County,29588,US,33.742853,-79.0259,41506030027,Florence,1
4338,Bradford Cir,Myrtle Beach,SC,Horry County,29588,US,33.742608,-79.025957,41506030028,Florence,1
4346,Bradford Cir,Myrtle Beach,SC,Horry County,29588,US,33.742251,-79.025841,41506030029,Florence,1
4358,Bradford Cir,Myrtle Beach,SC,Horry County,29588,US,33.741718,-79.025698,41506030031,Florence,1
4366,Bradford Cir,Myrtle Beach,SC,Horry County,29588,US,33.741502,-79.025645,41506030032,Florence,1
4374,Bradford Cir,Myrtle Beach,SC,Horry County,29588,US,33.741309,-79.025594,41506030033,Florence,1
4390,Bradford Cir,Myrtle Beach,SC,Horry County,29588,US,33.740897,-79.025655,41506030035,Florence,1
4400,Bradford Cir,Myrtle Beach,SC,Horry County,29588,US,33.74068,-79.02571,41506030036,Florence,1
4408,Bradford Cir,Myrtle Beach,SC,Horry County,29588,US,33.740465,-79.025762,41506030037,Florence,1
4414,Bradford Cir,Myrtle Beach,SC,Horry County,29588,US,33.740252,-79.025783,41506030038,Florence,1
229,Cabots Creek Dr,Myrtle Beach,SC,Horry County,29588,US,33.737215,-79.027955,41511020028,Florence,1
231,Cabots Creek Dr,Myrtle Beach,SC,Horry County,29588,US,33.737566,-79.02797,41511020029,Florence,1
233,Cabots Creek Dr,Myrtle Beach,SC,Horry County,29588,US,33.738076,-79.027581,41511020030,Florence,1
4428,Bradford Cir,Myrtle Beach,SC,Horry County,29588,US,33.73956,-79.026155,41511020048,Florence,1
124,Blackjack Ln,Myrtle Beach,SC,Horry County,29588,US,33.738993,-79.024269,41512010015,Florence,1
1011,Emerald Ct,Conway,SC,Horry County,29526,US,33.752674,-79.014922,41601010023,Matthew,1
403,Overcrest St,Myrtle Beach,SC,Horry County,29579,US,33.752055,-78.969417,41702020028,Joaquin,1
473,Ronald Mcnair Blvd,Myrtle Beach,SC,Horry County,29579,US,33.741411,-78.939677,41807040005,Matthew,1
1640,Portwest Dr,Myrtle Beach,SC,Horry County,29579,US,33.736375,-78.891858,41912010010,Matthew,1
3949,Lark Hill Dr,Myrtle Beach,SC,Horry County,29577,US,33.727187,-78.893303,41914030002,Matthew,1
1578,Landing Rd,Myrtle Beach,SC,Horry County,29577,US,33.728678,-78.877316,42016020027,Matthew,1
135,Partridgeberry Rd,Myrtle Beach,SC,Horry County,29579,US,33.724438,-78.968688,42702020038,Matthew,1
1006,Forestbrook Rd,Myrtle Beach,SC,Horry County,29579,US,33.722218,-78.959756,42703020059,Joaquin,1
2426,Hunters Trl,Myrtle Beach,SC,Horry County,29588,US,33.724299,-78.979414,42703020065,Joaquin,1
4731,Tarpon Bay Rd,Myrtle Beach,SC,Horry County,29579,US,33.724585,-78.959311,42703020114,Matthew,1
436,Villa Woods Dr,Myrtle Beach,SC,Horry County,29579,US,33.721444,-78.960336,42703030004,Joaquin,1
157,Brookgate Dr,Myrtle Beach,SC,Horry County,29579,US,33.715568,-78.958501,42705010009,Joaquin,1
153,Brookgate Dr,Myrtle Beach,SC,Horry County,29579,US,33.715114,-78.958479,42705010011,Joaquin,1
151,Brookgate Dr,Myrtle Beach,SC,Horry County,29579,US,33.714884,-78.958485,42705040002,Joaquin,1
150,Hummingbird Ct,Myrtle Beach,SC,Horry County,29579,US,33.714595,-78.957425,42705040040,Matthew,1
107,Quail Hollow Rd,Myrtle Beach,SC,Horry County,29579,US,33.717441,-78.965071,42706010008,Joaquin,1
803,Doe Ct,Myrtle Beach,SC,Horry County,29579,US,33.717631,-78.965292,42706010009,Joaquin,1
801,Doe Ct,Myrtle Beach,SC,Horry County,29579,US,33.718008,-78.964854,42706010011,Joaquin,1
111,Quail Hollow Rd,Myrtle Beach,SC,Horry County,29579,US,33.718154,-78.96468,42706010012,Joaquin,1
113,Quail Hollow Rd,Myrtle Beach,SC,Horry County,29579,US,33.718294,-78.964415,42706010013,Joaquin,1
150,Brookgate Dr,Myrtle Beach,SC,Horry County,29579,US,33.714955,-78.959075,42706030017,Joaquin,1
1717,Perdiz Covey,Myrtle Beach,SC,Horry County,29588,US,33.72467,-78.982784,42712010044,Matthew,1
1016,Beauboir Ln,Murrells Inlet,SC,Horry County,29576,US,33.60321,-79.054861,42712040021,Matthew,1
1228,Ambling Way Dr,Myrtle Beach,SC,Horry County,29579,US,33.704062,-78.955993,42713010039,Florence,1
191,Coldwater Cir,Myrtle Beach,SC,Horry County,29588,US,33.66921,-78.973643,42714040012,Florence,1
,,Myrtle Beach,SC,Horry County,29577,US,33.698784,-78.902869,42714040013,Florence,1
2600,Riverside Dr,Myrtle Beach,SC,Horry County,29579,US,33.698299,-78.965846,42714040015,Florence,1
2598,Riverside Dr,Myrtle Beach,SC,Horry County,29579,US,33.698377,-78.966097,42714040016,Florence,1
2596,Riverside Dr,Myrtle Beach,SC,Horry County,29579,US,33.698453,-78.966326,42714040017,Florence,1
2594,Riverside Dr,Myrtle Beach,SC,Horry County,29579,US,33.69854,-78.96655,42714040018,Matthew,1
413,Hospitality Ln,Myrtle Beach,SC,Horry County,29579,US,33.746025,-78.955546,42715010016,Florence,1
297,Encore Cir,Myrtle Beach,SC,Horry County,29579,US,33.70183,-78.9673,42715010017,"Matthew, Florence",2
906,Folly Rd,Myrtle Beach,SC,Horry County,29588,US,33.69804,-78.968486,42715030001,"Joaquin, Matthew, Florence",3
914,Folly Rd,Myrtle Beach,SC,Horry County,29588,US,33.698133,-78.968765,42715030002,"Joaquin, Florence",2
922,Folly Rd,Myrtle Beach,SC,Horry County,29588,US,33.69824,-78.969092,42715030003,"Joaquin, Matthew, Florence",3
928,Folly Rd,Myrtle Beach,SC,Horry County,29588,US,33.698358,-78.969428,42715030004,"Joaquin, Matthew, Florence",3
936,Folly Rd,Myrtle Beach,SC,Horry County,29588,US,33.698464,-78.969745,42715030005,"Joaquin, Matthew, Florence",3
938,Folly Rd,Myrtle Beach,SC,Horry County,29588,US,33.698321,-78.970121,42715030006,"Joaquin, Matthew, Florence",3
942,Folly Rd,Myrtle Beach,SC,Horry County,29588,US,33.698392,-78.970327,42715030007,"Joaquin, Matthew, Florence",3
946,Folly Rd,Myrtle Beach,SC,Horry County,29588,US,33.698467,-78.970541,42715030008,"Joaquin, Matthew, Florence",3
950,Folly Rd,Myrtle Beach,SC,Horry County,29588,US,33.698645,-78.971004,42715030009,Florence,1
2300,John Henry Ln,Myrtle Beach,SC,Horry County,29579,US,33.700975,-78.974714,42715040012,"Matthew, Florence",2
1082,Folly Rd,Myrtle Beach,SC,Horry County,29588,US,33.699809,-78.975625,42715040016,"Joaquin, Florence",2
1076,Folly Rd,Myrtle Beach,SC,Horry County,29588,US,33.699674,-78.975175,42715040018,Florence,1
1074,Folly Rd,Myrtle Beach,SC,Horry County,29588,US,33.699677,-78.974906,42715040019,Florence,1
994,Folly Rd,Myrtle Beach,SC,Horry County,29588,US,33.699409,-78.973444,42715040022,"Joaquin, Matthew, Florence",3
986,Folly Rd,Myrtle Beach,SC,Horry County,29588,US,33.699322,-78.973102,42715040023,"Joaquin, Matthew, Florence",3
851,Folly Ranch Ln,Myrtle Beach,SC,Horry County,29588,US,33.696488,-78.971834,42715040024,"Joaquin, Matthew, Florence",3
972,Folly Rd,Myrtle Beach,SC,Horry County,29588,US,33.699135,-78.972505,42715040025,"Joaquin, Florence",2
961,Folly Rd,Myrtle Beach,SC,Horry County,29588,US,33.698391,-78.972078,42715040027,Florence,1
101,Folly Rd,Myrtle Beach,SC,Horry County,29588,US,33.687675,-78.9766,42715040033,Florence,1
1086,Folly Rd,Myrtle Beach,SC,Horry County,29588,US,33.699782,-78.975906,42716030001,"Joaquin, Florence",2
736,Smith Blvd,Myrtle Beach,SC,Horry County,29588,US,33.69941,-78.976834,42716030004,Florence,1
734,Smith Blvd,Myrtle Beach,SC,Horry County,29588,US,33.699379,-78.977062,42716030005,Florence,1
730,Smith Blvd,Myrtle Beach,SC,Horry County,29588,US,33.699305,-78.977377,42716030007,Florence,1
4651,Pee Dee Hwy,Conway,SC,Horry County,29527,US,33.761047,-79.188374,42716030009,Florence,1
743,River Cliff Dr,Myrtle Beach,SC,Horry County,29588,US,33.699063,-78.977177,42716030010,Florence,1
745,River Cliff Dr,Myrtle Beach,SC,Horry County,29588,US,33.699117,-78.976943,42716030011,Florence,1
749,River Cliff Dr,Myrtle Beach,SC,Horry County,29588,US,33.699284,-78.976494,42716030013,Florence,1
,,Myrtle Beach,SC,Florence County,29588,US,33.671137,-79.02427,42716030014,Florence,1
656,River Bend Rd,Myrtle Beach,SC,Horry County,29588,US,33.698919,-78.976206,42716030015,Florence,1
,Riverbend Rd,Loris,SC,Horry County,29569,US,34.10807,-78.865739,42716030016,Florence,1
,Riverbend Rd,Loris,SC,Horry County,29569,US,34.10807,-78.865739,42716030017,Florence,1
650,River Bend Rd,Myrtle Beach,SC,Horry County,29588,US,33.698329,-78.976017,42716030018,Florence,1
648,River Bend Rd,Myrtle Beach,SC,Horry County,29588,US,33.69813,-78.975953,42716030019,Florence,1
,Riverbend Rd,Loris,SC,Horry County,29569,US,34.10807,-78.865739,42716030020,Florence,1
733,Islander Dr,Myrtle Beach,SC,Horry County,29588,US,33.698414,-78.977044,42716030022,Florence,1
715,Reef Rd,Myrtle Beach,SC,Horry County,29588,US,33.698617,-78.977346,42716030024,Florence,1
742,River Cliff Dr,Myrtle Beach,SC,Horry County,29588,US,33.698671,-78.977112,42716030025,Florence,1
3306,Gaither Ct,Myrtle Beach,SC,Horry County,29588,US,33.643282,-78.994732,42716030026,Florence,1
655,River Bend Rd,Myrtle Beach,SC,Horry County,29588,US,33.698776,-78.976628,42716030027,Florence,1
2611,US Hwy 17,Myrtle Beach,SC,Horry County,29577,US,33.695088,-78.943728,42716030028,Florence,1
716,Reef Rd,Myrtle Beach,SC,Horry County,29588,US,33.698451,-78.977755,42716030029,Florence,1
1414,Crooked Pine Dr,Myrtle Beach,SC,Horry County,29575,US,33.62809,-78.975124,42716030031,Florence,1
702,Reef Rd,Myrtle Beach,SC,Horry County,29588,US,33.697065,-78.977295,42716030032,Florence,1
724,Reef Rd,Myrtle Beach,SC,Horry County,29588,US,33.69922,-78.977829,42716030033,Florence,1
4732,National Dr,Myrtle Beach,SC,Horry County,29579,US,33.785433,-78.967989,42716030034,Florence,1
67,Smith Blvd,Myrtle Beach,SC,Horry County,29588,US,33.699226,-78.979842,42716030037,Florence,1
695,Smith Blvd,Myrtle Beach,SC,Horry County,29588,US,33.699325,-78.979494,42716030038,Florence,1
703,Smith Blvd,Myrtle Beach,SC,Horry County,29588,US,33.699479,-78.979098,42716030040,Florence,1
707,Smith Blvd,Myrtle Beach,SC,Horry County,29588,US,33.699541,-78.978871,42716030041,Florence,1
711,Smith Blvd,Myrtle Beach,SC,Horry County,29588,US,33.699568,-78.978634,42716030042,Florence,1
715,Smith Blvd,Myrtle Beach,SC,Horry County,29588,US,33.699589,-78.978439,42716030043,"Joaquin, Florence",2
719,Smith Blvd,Myrtle Beach,SC,Horry County,29588,US,33.699611,-78.978316,42716030044,Florence,1
721,Smith Blvd,Myrtle Beach,SC,Horry County,29588,US,33.699462,-78.978181,42716030046,Florence,1
735,Smith Blvd,Myrtle Beach,SC,Horry County,29588,US,33.69984,-78.97709,42716030051,Joaquin,1
62,Smith Blvd,Myrtle Beach,SC,Horry County,29588,US,33.698313,-78.979993,42716040001,Florence,1
65,Smith Blvd,Myrtle Beach,SC,Horry County,29588,US,33.699061,-78.980137,42716040002,Florence,1
63,Smith Blvd,Myrtle Beach,SC,Horry County,29588,US,33.698925,-78.980421,42716040003,Florence,1
61,Smith Blvd,Myrtle Beach,SC,Horry County,29588,US,33.698789,-78.980701,42716040004,Florence,1
57,Smith Blvd,Myrtle Beach,SC,Horry County,29588,US,33.698507,-78.981259,42716040006,Florence,1
55,Smith Blvd,Myrtle Beach,SC,Horry County,29588,US,33.698363,-78.981538,42716040007,Florence,1
5200,Pauley Swamp Rd,Conway,SC,Horry County,29527,US,33.780794,-79.12426,42901010001,"Joaquin, Florence",2
736,Charlotte Rd,Myrtle Beach,SC,Horry County,29577,US,33.689446,-78.89793,42901010002,"Matthew, Florence",2
13685,Pee Dee Rd S,Galivants Ferry,SC,Horry County,29544,US,33.982294,-79.251858,42901010004,"Matthew, Florence",2
6400,Dongola Hwy,Conway,SC,Horry County,29527,US,33.77382,-79.163408,42901010005,"Matthew, Florence",2
1559,Betsy Ln,Galivants Ferry,SC,Horry County,29544,US,33.935076,-79.194672,42901010006,Florence,1
4581,US Hwy 501,Conway,SC,Horry County,29526,US,33.897719,-79.130035,42901010008,"Matthew, Florence",2
6871,Cates Bay Hwy,Conway,SC,Horry County,29527,US,33.785372,-79.194321,42901010009,"Matthew, Florence",2
8431,Hwy 814,Myrtle Beach,SC,Horry County,29588,US,33.725549,-79.033383,42902020022,"Matthew, Florence",2
4559,Thompkins Rd,Myrtle Beach,SC,Horry County,29588,US,33.720043,-79.034661,42902030004,"Matthew, Florence",2
5518,Hwy 65,Conway,SC,Horry County,29526,US,33.927716,-78.985967,43004020001,Matthew,1
7140,Horseshoe Cir,Conway,SC,Horry County,29527,US,33.701474,-79.114904,43116040020,Florence,1
2260,Little Lamb Rd,Conway,SC,Horry County,29527,US,33.703597,-79.121945,43213040001,Matthew,1
3309,Pee Dee Hwy,Conway,SC,Horry County,29527,US,33.723342,-79.169754,43300000005,Florence,1
3029,Lucas Bay Rd,Conway,SC,Horry County,29527,US,33.715356,-79.168412,43307030005,Florence,1
1500,Pee Dee Hwy,Conway,SC,Horry County,29527,US,33.687742,-79.12635,43600000016,Florence,1
8328,Bucksport Heights Ct,Conway,SC,Horry County,29527,US,33.692993,-79.123798,43605010008,Florence,1
8332,Bucksport Heights Ct,Conway,SC,Horry County,29527,US,33.692683,-79.123811,43605010009,Florence,1
410,34th Ave N,Myrtle Beach,SC,Horry County,29577,US,33.711529,-78.858211,43605010025,Florence,1
451,Blackberry Ln,Myrtle Beach,SC,Horry County,29579,US,33.764936,-78.953918,43605010026,Florence,1
,,Myrtle Beach,SC,Horry County,29577,US,33.698784,-78.902869,43605020003,Matthew,1
1663,Bucksport Rd,Conway,SC,Horry County,29527,US,33.688423,-79.117392,43605030023,Matthew,1
1227,16th Ave,Conway,SC,Horry County,29526,US,33.848179,-79.059666,43616010005,Florence,1
9150,Didapper Dr,Conway,SC,Horry County,29527,US,33.677575,-79.146813,43616010006,Florence,1
9211,Little Hill Dr,Conway,SC,Horry County,29527,US,33.66951,-79.139164,43616030002,Florence,1
8969,Track Hoe Dr,Conway,SC,Horry County,29527,US,33.674284,-79.143849,43616030004,Florence,1
8951,Track Hoe Dr,Conway,SC,Horry County,29527,US,33.674472,-79.143449,43616030005,Florence,1
9125,Didapper Dr,Conway,SC,Horry County,29527,US,33.676328,-79.146317,43616040002,Florence,1
9111,Didapper Dr,Conway,SC,Horry County,29527,US,33.675557,-79.145318,43616040003,Florence,1
3926,Wesley St,Myrtle Beach,SC,Horry County,29579,US,33.719293,-78.940238,43701010010,Matthew,1
7989,Mishoe Rd,Conway,SC,Horry County,29527,US,33.680636,-79.103794,43710040012,Florence,1
1270,Bucksport Rd,Conway,SC,Horry County,29527,US,33.677729,-79.10998,43715010006,Matthew,1
,Bellamy Rd,Conway,SC,Horry County,29526,US,33.81429,-78.996412,43715010018,Florence,1
1227,Parkhill Dr,Conway,SC,Horry County,29526,US,33.849913,-79.062665,43715010022,Matthew,1
1198,Railroad Dr,Conway,SC,Horry County,29527,US,33.677384,-79.101025,43715020005,Matthew,1
8149,Ole Bellamy Dr,Conway,SC,Horry County,29527,US,33.675945,-79.107502,43715040002,Florence,1
8180,Ole Bellamy Dr,Conway,SC,Horry County,29527,US,33.676331,-79.108689,43716020003,Matthew,1
1200,Bucksport Rd,Conway,SC,Horry County,29527,US,33.676353,-79.109392,43716020004,Florence,1
8101,Mishoe Rd,Conway,SC,Horry County,29527,US,33.678016,-79.108457,43716020007,Florence,1
1450,Bucksport Rd,Conway,SC,Horry County,29527,US,33.682352,-79.112674,43716020009,Florence,1
8165,Ole Bellamy Dr,Conway,SC,Horry County,29527,US,33.675949,-79.107848,43716030001,"Matthew, Florence",2
1120,Bucksport Rd,Conway,SC,Horry County,29527,US,33.675173,-79.108767,43716030007,Matthew,1
1070,Bucksport Rd,Conway,SC,Horry County,29527,US,33.673509,-79.108208,43716030011,"Matthew, Florence",2
8226,Martin Luther Dr,Conway,SC,Horry County,29527,US,33.672782,-79.108771,43716030013,"Matthew, Florence",2
819,Bucksport Rd,Conway,SC,Horry County,29527,US,33.666563,-79.106348,43716030015,"Matthew, Florence",2
8390,Martin Luther Dr,Conway,SC,Horry County,29527,US,33.673211,-79.114157,43716040001,Florence,1
4253,Estate Dr,Conway,SC,Horry County,29526,US,33.91195,-79.065826,43716040004,Florence,1
6643,Peachtree Rd,Myrtle Beach,SC,Horry County,29588,US,33.693045,-79.047978,43901040001,Florence,1
6653,Peachtree Rd,Myrtle Beach,SC,Horry County,29588,US,33.693882,-79.049464,43901040006,Florence,1
2340,Hwy 1115,Galivants Ferry,SC,Horry County,29544,US,34.014862,-79.161041,43908010004,Florence,1
6033,Renata Ln,Myrtle Beach,SC,Horry County,29588,US,33.683575,-79.022089,43912010002,Matthew,1
6046,Renata Ln,Myrtle Beach,SC,Horry County,29588,US,33.683844,-79.023232,43912010007,Matthew,1
6058,Renata Ln,Myrtle Beach,SC,Horry County,29588,US,33.683991,-79.024059,43912010009,Matthew,1
8048,Mill Creek Rd,Myrtle Beach,SC,Horry County,29588,US,33.682077,-79.021967,43912010012,Matthew,1
8000,Mill Creek Rd,Myrtle Beach,SC,Horry County,29588,US,33.68189,-79.02043,43912020001,"Matthew, Florence",2
8010,Mill Creek Rd,Myrtle Beach,SC,Horry County,29588,US,33.681925,-79.020991,43912020002,"Matthew, Florence",2
8030,Mill Creek Rd,Myrtle Beach,SC,Horry County,29588,US,33.681983,-79.021326,43912020003,"Matthew, Florence",2
3565,Forestbrook Rd,Myrtle Beach,SC,Horry County,29588,US,33.695108,-79.000613,44000000008,"Matthew, Florence",2
3827,El Duce Pl,Myrtle Beach,SC,Horry County,29588,US,33.691724,-79.001891,44002030015,Florence,1
3681,Earls Rd,Myrtle Beach,SC,Horry County,29588,US,33.6922,-79.001366,44002030017,"Matthew, Florence",2
3675,Earls Rd,Myrtle Beach,SC,Horry County,29588,US,33.69231,-79.001102,44002030018,"Matthew, Florence",2
3670,Earls Rd,Myrtle Beach,SC,Horry County,29588,US,33.693128,-79.000611,44002030021,Florence,1
5811,Rosewood Dr,Myrtle Beach,SC,Horry County,29588,US,33.691655,-78.993226,44003030002,"Joaquin, Matthew, Florence",3
5812,Rosewood Dr,Myrtle Beach,SC,Horry County,29588,US,33.692318,-78.993109,44003030005,Florence,1
5816,Rosewood Dr,Myrtle Beach,SC,Horry County,29588,US,33.692272,-78.993367,44003030007,"Joaquin, Matthew, Florence",3
601,Hillside Dr N,North Myrtle Beach,SC,Horry County,29582,US,33.826467,-78.67209,44003030008,"Joaquin, Matthew, Florence",3
5824,Rosewood Dr,Myrtle Beach,SC,Horry County,29588,US,33.692075,-78.993741,44003030009,"Joaquin, Matthew, Florence",3
5830,Rosewood Dr,Myrtle Beach,SC,Horry County,29588,US,33.691979,-78.993897,44003030010,"Joaquin, Matthew, Florence",3
5842,Rosewood Dr,Myrtle Beach,SC,Horry County,29588,US,33.691794,-78.994223,44003030012,"Joaquin, Matthew, Florence",3
5848,Rosewood Dr,Myrtle Beach,SC,Horry County,29588,US,33.691678,-78.994356,44003030013,"Joaquin, Matthew, Florence",3
5854,Rosewood Dr,Myrtle Beach,SC,Horry County,29588,US,33.691619,-78.99456,44003030014,"Joaquin, Matthew, Florence",3
3737,Ed Smith Ave,Myrtle Beach,SC,Horry County,29588,US,33.692151,-78.996359,44003030015,"Matthew, Florence",2
975,Cayman Ct,Myrtle Beach,SC,Horry County,29577,US,33.727789,-78.858743,44003030016,"Matthew, Florence",2
3721,Ed Smith Ave,Myrtle Beach,SC,Horry County,29588,US,33.692458,-78.995765,44003030017,"Matthew, Florence",2
3705,Ed Smith Ave,Myrtle Beach,SC,Horry County,29588,US,33.693213,-78.994317,44003030021,"Matthew, Florence",2
3700,Ed Smith Ave,Myrtle Beach,SC,Horry County,29588,US,33.693658,-78.994046,44003030022,"Matthew, Florence",2
3720,Ed Smith Ave,Myrtle Beach,SC,Horry County,29588,US,33.692964,-78.99598,44003030023,"Matthew, Florence",2
3751,Ed Smith Ave,Myrtle Beach,SC,Horry County,29588,US,33.69171,-78.997196,44003040001,"Matthew, Florence",2
,Dutchman Dr,Conway,SC,Horry County,29527,US,33.757481,-79.139139,44003040003,"Matthew, Florence",2
3660,Earls Rd,Myrtle Beach,SC,Horry County,29588,US,33.693197,-79.000339,44003040007,Florence,1
3650,Earls Rd,Myrtle Beach,SC,Horry County,29588,US,33.693584,-78.99975,44003040009,Florence,1
3704,Roberta Ln,Myrtle Beach,SC,Horry County,29588,US,33.696394,-78.989937,44004010004,"Matthew, Florence",2
3788,Roberta Ln,Myrtle Beach,SC,Horry County,29588,US,33.6972,-78.990914,44004010016,"Matthew, Florence",2
3792,Roberta Ln,Myrtle Beach,SC,Horry County,29588,US,33.697561,-78.990738,44004010017,"Matthew, Florence",2
3685,Riverwood Farms Rd,Myrtle Beach,SC,Horry County,29588,US,33.702332,-78.983068,44004010020,Florence,1
3698,Chapel Ln,Myrtle Beach,SC,Horry County,29588,US,33.696801,-78.989356,44004010022,Florence,1
3702,Chapel Ln,Myrtle Beach,SC,Horry County,29588,US,33.696845,-78.989598,44004010023,Florence,1
3784,Roberta Ln,Myrtle Beach,SC,Horry County,29588,US,33.6969,-78.990444,44004010030,"Matthew, Florence",2
596,W Oak Circle Dr,Myrtle Beach,SC,Horry County,29588,US,33.694825,-78.985741,44004020001,Florence,1
1436,Corbett Dr,Conway,SC,Horry County,29526,US,33.746151,-79.022852,44004020006,Florence,1
811,Luttie Rd,Myrtle Beach,SC,Horry County,29588,US,33.694957,-78.98451,44004020009,Matthew,1
30,Smith Blvd,Myrtle Beach,SC,Horry County,29588,US,33.69594,-78.984591,44004020013,Florence,1
37,Smith Blvd,Myrtle Beach,SC,Horry County,29588,US,33.696998,-78.984176,44004020015,Florence,1
35,Smith Blvd,Myrtle Beach,SC,Horry County,29588,US,33.696838,-78.984474,44004020016,Florence,1
33,Smith Blvd,Myrtle Beach,SC,Horry County,29588,US,33.696692,-78.98474,44004020017,Florence,1
31,Smith Blvd,Myrtle Beach,SC,Horry County,29588,US,33.696552,-78.985035,44004020018,Florence,1
29,Smith Blvd,Myrtle Beach,SC,Horry County,29588,US,33.696406,-78.985315,44004020019,Florence,1
27,Smith Blvd,Myrtle Beach,SC,Horry County,29588,US,33.696261,-78.985594,44004020020,"Joaquin, Florence",2
23,Smith Blvd,Myrtle Beach,SC,Horry County,29588,US,33.695962,-78.98615,44004020022,Florence,1
17,Smith Blvd,Myrtle Beach,SC,Horry County,29588,US,33.695697,-78.986713,44004020024,Florence,1
1203,Richardson St,Conway,SC,Horry County,29526,US,33.852768,-79.071151,44004020025,"Joaquin, Matthew, Florence",3
13,Smith Blvd,Myrtle Beach,SC,Horry County,29588,US,33.695377,-78.987261,44004020026,"Joaquin, Matthew, Florence",3
9,Smith Blvd,Myrtle Beach,SC,Horry County,29588,US,33.695103,-78.987842,44004020028,"Joaquin, Matthew, Florence",3
7,Smith Blvd,Myrtle Beach,SC,Horry County,29588,US,33.694956,-78.988121,44004020029,"Joaquin, Matthew",2
3600,Chapel Ln,Myrtle Beach,SC,Horry County,29588,US,33.696821,-78.987739,44004020031,"Matthew, Florence",2
1625,Glenns Bay Rd,Myrtle Beach,SC,Horry County,29575,US,33.618368,-78.988274,44004020032,Florence,1
1440,McMaster Dr,Myrtle Beach,SC,Horry County,29575,US,33.645827,-78.950299,44004020033,Florence,1
1613,Pheasant Pointe Ct,Myrtle Beach,SC,Horry County,29588,US,33.691772,-78.986377,44004030024,Florence,1
1617,Pheasant Pointe Ct,Myrtle Beach,SC,Horry County,29588,US,33.691776,-78.986627,44004030025,Florence,1
1625,Pheasant Pointe Ct,Myrtle Beach,SC,Horry County,29588,US,33.691909,-78.987189,44004030027,Florence,1
1629,Pheasant Pointe Ct,Myrtle Beach,SC,Horry County,29588,US,33.691998,-78.987437,44004030028,Florence,1
1630,Pheasant Pointe Ct,Myrtle Beach,SC,Horry County,29588,US,33.692447,-78.987242,44004030030,Florence,1
1560,Burcale Rd,Myrtle Beach,SC,Horry County,29579,US,33.707233,-78.957062,44004030052,Florence,1
605,W Oak Circle Dr,Myrtle Beach,SC,Horry County,29588,US,33.694292,-78.98639,44004030054,Florence,1
609,W Oak Circle Dr,Myrtle Beach,SC,Horry County,29588,US,33.694203,-78.986581,44004030055,"Matthew, Florence",2
613,W Oak Circle Dr,Myrtle Beach,SC,Horry County,29588,US,33.694097,-78.986765,44004030056,"Matthew, Florence",2
617,W Oak Circle Dr,Myrtle Beach,SC,Horry County,29588,US,33.693965,-78.986963,44004030057,"Matthew, Florence",2
629,W Oak Circle Dr,Myrtle Beach,SC,Horry County,29588,US,33.693618,-78.987647,44004030060,"Matthew, Florence",2
633,W Oak Circle Dr,Myrtle Beach,SC,Horry County,29588,US,33.693523,-78.987857,44004030061,"Matthew, Florence",2
2056,Woodburn Dr,Myrtle Beach,SC,Horry County,29579,US,33.746768,-78.937016,44004030062,"Matthew, Florence",2
6,Smith Blvd,Myrtle Beach,SC,Horry County,29588,US,33.694151,-78.988006,44004030063,"Joaquin, Florence",2
3577,Marion Ln,Murrells Inlet,SC,Georgetown County,29576,US,33.569709,-79.017762,44004030068,"Matthew, Florence",2
16,Smith Blvd,Myrtle Beach,SC,Horry County,29588,US,33.694887,-78.986601,44004030078,"Matthew, Florence",2
644,W Oak Circle Dr,Myrtle Beach,SC,Horry County,29588,US,33.693468,-78.988895,44004040004,"Matthew, Florence",2
1566,Palmina Lp,Myrtle Beach,SC,Horry County,29588,US,33.642964,-79.034017,44004040005,"Matthew, Florence",2
654,W Oak Circle Dr,Myrtle Beach,SC,Horry County,29588,US,33.693216,-78.989398,44004040006,"Matthew, Florence",2
686,W Oak Circle Dr,Myrtle Beach,SC,Horry County,29588,US,33.693454,-78.989608,44004040008,"Matthew, Florence",2
3,Smith Blvd,Myrtle Beach,SC,Horry County,29588,US,33.694681,-78.988686,44004040012,"Joaquin, Matthew, Florence",3
689,W Oak Circle Dr,Myrtle Beach,SC,Horry County,29588,US,33.694022,-78.989711,44004040016,"Matthew, Florence",2
673,W Oak Circle Dr,Myrtle Beach,SC,Horry County,29588,US,33.693067,-78.990099,44004040021,"Matthew, Florence",2
669,W Oak Circle Dr,Myrtle Beach,SC,Horry County,29588,US,33.692898,-78.989951,44004040022,"Matthew, Florence",2
665,W Oak Circle Dr,Myrtle Beach,SC,Horry County,29588,US,33.692784,-78.989764,44004040023,"Matthew, Florence",2
661,W Oak Circle Dr,Myrtle Beach,SC,Horry County,29588,US,33.692764,-78.989522,44004040024,"Matthew, Florence",2
653,W Oak Circle Dr,Myrtle Beach,SC,Horry County,29588,US,33.692881,-78.989144,44004040026,"Matthew, Florence",2
649,W Oak Circle Dr,Myrtle Beach,SC,Horry County,29588,US,33.692989,-78.988956,44004040027,"Matthew, Florence",2
910,Shem Creek Cir,Myrtle Beach,SC,Horry County,29588,US,33.691501,-78.98892,44004040030,"Matthew, Florence",2
1052,Starcreek Cir,Myrtle Beach,SC,Horry County,29588,US,33.691597,-78.990406,44004040032,"Matthew, Florence",2
1048,Starcreek Cir,Myrtle Beach,SC,Horry County,29588,US,33.69171,-78.990847,44004040033,"Joaquin, Matthew, Florence",3
1056,Starcreek Cir,Myrtle Beach,SC,Horry County,29588,US,33.692296,-78.990591,44004040038,"Matthew, Florence",2
1065,Starcreek Cir,Myrtle Beach,SC,Horry County,29588,US,33.692497,-78.990566,44004040039,"Matthew, Florence",2
1068,Starcreek Cir,Myrtle Beach,SC,Horry County,29588,US,33.692702,-78.990591,44004040040,"Matthew, Florence",2
1088,Starcreek Cir,Myrtle Beach,SC,Horry County,29588,US,33.693077,-78.990864,44004040042,"Matthew, Florence",2
2523,Forestbrook Rd,Myrtle Beach,SC,Horry County,29588,US,33.707576,-78.982881,44004040043,Florence,1
,,Myrtle Beach,SC,Florence County,29588,US,33.671137,-79.02427,44004040045,"Matthew, Florence",2
1081,Starcreek Cir,Myrtle Beach,SC,Horry County,29588,US,33.692764,-78.991238,44004040051,"Joaquin, Matthew, Florence",3
1055,Starcreek Cir,Myrtle Beach,SC,Horry County,29588,US,33.692341,-78.991319,44004040052,"Joaquin, Matthew, Florence",3
1105,Rosetta Cir,Conway,SC,Horry County,29526,US,33.86242,-79.058041,44004040054,"Joaquin, Matthew, Florence",3
1063,Starcreek Cir,Myrtle Beach,SC,Horry County,29588,US,33.692151,-78.991835,44004040056,"Joaquin, Matthew, Florence",3
1057,Starcreek Cir,Myrtle Beach,SC,Horry County,29588,US,33.691732,-78.991743,44004040058,"Matthew, Florence",2
1053,Starcreek Cir,Myrtle Beach,SC,Horry County,29588,US,33.691624,-78.991653,44004040059,"Matthew, Florence",2
1049,Starcreek Cir,Myrtle Beach,SC,Horry County,29588,US,33.691618,-78.991329,44004040060,"Matthew, Florence",2
4687,Peachwood Ct,Myrtle Beach,SC,Horry County,29588,US,33.691608,-78.992058,44004040062,"Joaquin, Matthew, Florence",3
3624,Socastee Blvd,Myrtle Beach,SC,Horry County,29588,US,33.685648,-78.965083,44004040063,"Matthew, Florence",2
311,Sherrybrook Dr,Myrtle Beach,SC,Horry County,29588,US,33.674092,-78.982109,44005010001,Florence,1
5720,Rosewood Dr,Myrtle Beach,SC,Horry County,29588,US,33.689189,-78.992425,44005010002,Florence,1
5795,Dogwood Cir,Myrtle Beach,SC,Horry County,29588,US,33.68917,-78.99217,44005010003,Florence,1
940,Nottingham Lakes Rd,Conway,SC,Horry County,29526,US,33.748782,-79.018941,44005010026,Florence,1
5778,Dogwood Cir,Myrtle Beach,SC,Horry County,29588,US,33.689663,-78.991501,44005010027,Florence,1
5782,Dogwood Cir,Myrtle Beach,SC,Horry County,29588,US,33.689773,-78.99159,44005010028,Florence,1
1554,Platt Dr,Little River,SC,Horry County,29566,US,33.872916,-78.613142,44005010029,"Matthew, Florence",2
5790,Dogwood Cir,Myrtle Beach,SC,Horry County,29588,US,33.689749,-78.991918,44005010030,"Matthew, Florence",2
5794,Dogwood Cir,Myrtle Beach,SC,Horry County,29588,US,33.688971,-78.991431,44005010031,"Matthew, Florence",2
5798,Dogwood Cir,Myrtle Beach,SC,Horry County,29588,US,33.689731,-78.992081,44005010032,"Joaquin, Matthew, Florence",3
8037,Wacobee Dr,Myrtle Beach,SC,Horry County,29579,US,33.748385,-78.918154,44005010033,"Joaquin, Matthew, Florence",3
4687,Orangewood Ct,Myrtle Beach,SC,Horry County,29588,US,33.690049,-78.991925,44005010034,"Joaquin, Matthew, Florence",3
605,Collins St,Myrtle Beach,SC,Horry County,29577,US,33.686501,-78.892649,44005010035,Florence,1
4674,Orangewood Ct,Myrtle Beach,SC,Horry County,29588,US,33.690341,-78.991653,44005010036,"Joaquin, Matthew, Florence",3
5544,Creon St,Myrtle Beach,SC,Horry County,29588,US,33.687793,-78.966669,44005010039,"Joaquin, Matthew, Florence",3
2507,Forestbrook Rd,Myrtle Beach,SC,Horry County,29588,US,33.707986,-78.982465,44005010042,"Joaquin, Matthew, Florence",3
109,Dorman Cir,Myrtle Beach,SC,Horry County,29577,US,33.682846,-78.902577,44005010043,"Joaquin, Matthew, Florence",3
4681,Applewood Ct,Myrtle Beach,SC,Horry County,29588,US,33.690972,-78.99194,44005010045,"Joaquin, Matthew, Florence",3
4680,Applewood Ct,Myrtle Beach,SC,Horry County,29588,US,33.691187,-78.991927,44005010046,"Joaquin, Matthew, Florence",3
4688,Applewood Ct,Myrtle Beach,SC,Horry County,29588,US,33.691184,-78.992211,44005010047,"Joaquin, Matthew, Florence",3
5566,Creon St,Myrtle Beach,SC,Horry County,29588,US,33.688533,-78.966948,44005010048,"Matthew, Florence",2
1037,Starcreek Cir,Myrtle Beach,SC,Horry County,29588,US,33.690972,-78.991477,44005010050,Florence,1
1027,Starcreek Cir,Myrtle Beach,SC,Horry County,29588,US,33.690609,-78.991376,44005010052,Florence,1
513,Fox Hollow Rd,Murrells Inlet,SC,Horry County,29576,US,33.576093,-79.04127,44005010056,Florence,1
1940,Kay Ln,Myrtle Beach,SC,Horry County,29575,US,33.633798,-78.980883,44005010057,Florence,1
902,Shem Creek Cir,Myrtle Beach,SC,Horry County,29588,US,33.690724,-78.988556,44005010090,Florence,1
904,Shem Creek Cir,Myrtle Beach,SC,Horry County,29588,US,33.690895,-78.98871,44005010091,Florence,1
906,Shem Creek Cir,Myrtle Beach,SC,Horry County,29588,US,33.691137,-78.988741,44005010092,Florence,1
908,Shem Creek Cir,Myrtle Beach,SC,Horry County,29588,US,33.691353,-78.988729,44005010093,"Matthew, Florence",2
914,Shem Creek Cir,Myrtle Beach,SC,Horry County,29588,US,33.691376,-78.98937,44005010094,"Matthew, Florence",2
916,Shem Creek Cir,Myrtle Beach,SC,Horry County,29588,US,33.691154,-78.989418,44005010095,Florence,1
918,Shem Creek Cir,Myrtle Beach,SC,Horry County,29588,US,33.690907,-78.98946,44005010096,Florence,1
1724,Longleaf Dr,Myrtle Beach,SC,Horry County,29575,US,33.622042,-78.992149,44005010097,Florence,1
922,Shem Creek Cir,Myrtle Beach,SC,Horry County,29588,US,33.690741,-78.989954,44005010098,Florence,1
900,Shem Creek Cir,Myrtle Beach,SC,Horry County,29588,US,33.690612,-78.988371,44005020009,Florence,1
826,Shem Creek Cir,Myrtle Beach,SC,Horry County,29588,US,33.690069,-78.986459,44005020010,Florence,1
4098,Grousewood Dr,Myrtle Beach,SC,Horry County,29588,US,33.660696,-79.000171,44005020013,"Matthew, Florence",2
830,Shem Creek Cir,Myrtle Beach,SC,Horry County,29588,US,33.69045,-78.986875,44005020015,"Matthew, Florence",2
828,Shem Creek Cir,Myrtle Beach,SC,Horry County,29588,US,33.690307,-78.986662,44005020016,"Matthew, Florence",2
6090,Friendship Ln,Myrtle Beach,SC,Horry County,29588,US,33.655343,-79.014382,44005020018,Florence,1
817,Shem Creek Cir,Myrtle Beach,SC,Horry County,29588,US,33.689941,-78.986919,44005020037,Florence,1
819,Shem Creek Cir,Myrtle Beach,SC,Horry County,29588,US,33.690065,-78.987101,44005020038,Florence,1
244,Stonebrook Dr,Myrtle Beach,SC,Horry County,29588,US,33.688832,-78.986107,44005020053,Florence,1
1606,26th Ave N,North Myrtle Beach,SC,Horry County,29582,US,33.851894,-78.6465,44005020055,Florence,1
405,Foxbrook Dr,Myrtle Beach,SC,Horry County,29588,US,33.687574,-78.98499,44005030013,Matthew,1
5612,Dogwood Cir,Myrtle Beach,SC,Horry County,29588,US,33.684798,-78.991921,44005040080,Matthew,1
2401,River Rd,Myrtle Beach,SC,Horry County,29588,US,33.686953,-78.998543,44006010001,Florence,1
2375,River Rd,Myrtle Beach,SC,Horry County,29588,US,33.688494,-78.999869,44006010002,"Matthew, Florence",2
2403,River Rd,Myrtle Beach,SC,Horry County,29588,US,33.688999,-78.99925,44006010005,"Matthew, Florence",2
2407,River Rd,Myrtle Beach,SC,Horry County,29588,US,33.689275,-78.998738,44006010007,"Matthew, Florence",2
2415,River Rd,Myrtle Beach,SC,Horry County,29588,US,33.689861,-78.997572,44006010011,"Matthew, Florence",2
2417,River Rd,Myrtle Beach,SC,Horry County,29588,US,33.690014,-78.99732,44006010012,"Matthew, Florence",2
2419,River Rd,Myrtle Beach,SC,Horry County,29588,US,33.690142,-78.996883,44006010013,"Matthew, Florence",2
225,Prigden Rd,Loris,SC,Horry County,29569,US,34.103783,-79.00161,44006010015,"Matthew, Florence",2
3767,Ed Smith Ave,Myrtle Beach,SC,Horry County,29588,US,33.691303,-78.997972,44006010016,"Matthew, Florence",2
3777,Ed Smith Ave,Myrtle Beach,SC,Horry County,29588,US,33.691079,-78.998405,44006010018,"Matthew, Florence",2
3798,Ed Smith Ave,Myrtle Beach,SC,Horry County,29588,US,33.69144,-78.999002,44006010019,"Matthew, Florence",2
2125,Wilderness Rd,Conway,SC,Horry County,29526,US,33.823201,-79.001122,44006010023,"Matthew, Florence",2
3793,Ed Smith Ave,Myrtle Beach,SC,Horry County,29588,US,33.690665,-78.999209,44006010024,"Matthew, Florence",2
3791,Ed Smith Ave,Myrtle Beach,SC,Horry County,29588,US,33.690582,-78.999361,44006010025,"Matthew, Florence",2
3803,Ed Smith Ave,Myrtle Beach,SC,Horry County,29588,US,33.690531,-78.999574,44006010026,"Matthew, Florence",2
3817,Ed Smith Ave,Myrtle Beach,SC,Horry County,29588,US,33.690305,-79.000237,44006010028,"Matthew, Florence",2
5700,Rosewood Dr,Myrtle Beach,SC,Horry County,29588,US,33.688743,-78.992694,44006020001,Florence,1
5669,Rosewood Dr,Myrtle Beach,SC,Horry County,29588,US,33.688197,-78.993554,44006020005,Florence,1
5679,Rosewood Dr,Myrtle Beach,SC,Horry County,29588,US,33.68841,-78.993477,44006020006,Florence,1
5689,Rosewood Dr,Myrtle Beach,SC,Horry County,29588,US,33.688631,-78.993254,44006020007,Florence,1
4709,Cottonwood Dr,Myrtle Beach,SC,Horry County,29588,US,33.688693,-78.993475,44006020008,"Matthew, Florence",2
4719,Cottonwood Dr,Myrtle Beach,SC,Horry County,29588,US,33.688756,-78.993694,44006020009,"Matthew, Florence",2
4729,Cottonwood Dr,Myrtle Beach,SC,Horry County,29588,US,33.68882,-78.993916,44006020010,"Matthew, Florence",2
4749,Cottonwood Dr,Myrtle Beach,SC,Horry County,29588,US,33.688949,-78.99437,44006020012,"Matthew, Florence",2
4759,Cottonwood Dr,Myrtle Beach,SC,Horry County,29588,US,33.689013,-78.994588,44006020013,Florence,1
1406,Commerce Pl,Myrtle Beach,SC,Horry County,29577,US,33.705895,-78.903826,44006020014,"Matthew, Florence",2
4779,Cottonwood Dr,Myrtle Beach,SC,Horry County,29588,US,33.68914,-78.995036,44006020015,"Matthew, Florence",2
314,Sugar Mill Loop,Myrtle Beach,SC,Horry County,29588,US,33.706833,-78.994816,44006020016,"Matthew, Florence",2
4799,Cottonwood Dr,Myrtle Beach,SC,Horry County,29588,US,33.689264,-78.995475,44006020017,"Matthew, Florence",2
4809,Cottonwood Dr,Myrtle Beach,SC,Horry County,29588,US,33.689318,-78.995648,44006020018,"Matthew, Florence",2
4819,Cottonwood Dr,Myrtle Beach,SC,Horry County,29588,US,33.68934,-78.995884,44006020019,"Matthew, Florence",2
2421,River Rd,Myrtle Beach,SC,Horry County,29588,US,33.690277,-78.996329,44006020020,"Matthew, Florence",2
5930,Rosewood Dr,Myrtle Beach,SC,Horry County,29588,US,33.690053,-78.995791,44006020022,"Matthew, Florence",2
3740,Kingsley Dr,Myrtle Beach,SC,Horry County,29588,US,33.644279,-78.994991,44006020026,"Matthew, Florence",2
14,S Hollywood Dr,Surfside Beach,SC,Horry County,29575,US,33.608492,-78.977692,44006020027,"Matthew, Florence",2
5896,Rosewood Dr,Myrtle Beach,SC,Horry County,29588,US,33.691009,-78.99575,44006020028,"Joaquin, Matthew, Florence",3
5890,Rosewood Dr,Myrtle Beach,SC,Horry County,29588,US,33.691096,-78.995556,44006020029,"Matthew, Florence",2
5884,Rosewood Dr,Myrtle Beach,SC,Horry County,29588,US,33.691184,-78.995397,44006020030,"Matthew, Florence",2
5872,Rosewood Dr,Myrtle Beach,SC,Horry County,29588,US,33.691359,-78.995059,44006020032,"Matthew, Florence",2
5866,Rosewood Dr,Myrtle Beach,SC,Horry County,29588,US,33.691443,-78.99489,44006020033,"Joaquin, Matthew, Florence",3
5831,Rosewood Dr,Myrtle Beach,SC,Horry County,29588,US,33.691505,-78.993596,44006020035,"Joaquin, Matthew, Florence",3
5837,Rosewood Dr,Myrtle Beach,SC,Horry County,29588,US,33.691424,-78.993761,44006020036,"Joaquin, Matthew, Florence",3
5843,Rosewood Dr,Myrtle Beach,SC,Horry County,29588,US,33.691336,-78.993928,44006020037,"Joaquin, Matthew, Florence",3
5849,Rosewood Dr,Myrtle Beach,SC,Horry County,29588,US,33.691246,-78.994099,44006020038,"Joaquin, Florence",2
5855,Rosewood Dr,Myrtle Beach,SC,Horry County,29588,US,33.691154,-78.99427,44006020039,"Joaquin, Matthew, Florence",3
5861,Rosewood Dr,Myrtle Beach,SC,Horry County,29588,US,33.691067,-78.994438,44006020040,"Matthew, Florence",2
5867,Rosewood Dr,Myrtle Beach,SC,Horry County,29588,US,33.690983,-78.994607,44006020041,"Joaquin, Matthew, Florence",3
5873,Rosewood Dr,Myrtle Beach,SC,Horry County,29588,US,33.690897,-78.994774,44006020042,"Matthew, Florence",2
5879,Rosewood Dr,Myrtle Beach,SC,Horry County,29588,US,33.69081,-78.994943,44006020043,"Matthew, Florence",2
5885,Rosewood Dr,Myrtle Beach,SC,Horry County,29588,US,33.690746,-78.99511,44006020044,"Joaquin, Matthew, Florence",3
5895,Rosewood Dr,Myrtle Beach,SC,Horry County,29588,US,33.690669,-78.995331,44006020045,"Matthew, Florence",2
4798,White Pine Dr,Myrtle Beach,SC,Horry County,29588,US,33.690435,-78.99532,44006020046,"Matthew, Florence",2
494,Saluda River Rd,Myrtle Beach,SC,Horry County,29588,US,33.624689,-79.022092,44006020047,"Matthew, Florence",2
4770,Cottonwood Dr,Myrtle Beach,SC,Horry County,29588,US,33.689558,-78.994745,44006020051,"Matthew, Florence",2
4760,Cottonwood Dr,Myrtle Beach,SC,Horry County,29588,US,33.689496,-78.994521,44006020052,"Matthew, Florence",2
4750,Cottonwood Dr,Myrtle Beach,SC,Horry County,29588,US,33.689433,-78.994299,44006020053,"Matthew, Florence",2
4740,Cottonwood Dr,Myrtle Beach,SC,Horry County,29588,US,33.689371,-78.994073,44006020054,"Matthew, Florence",2
4730,Cottonwood Dr,Myrtle Beach,SC,Horry County,29588,US,33.689309,-78.99385,44006020055,"Matthew, Florence",2
4720,Cottonwood Dr,Myrtle Beach,SC,Horry County,29588,US,33.689248,-78.993629,44006020056,"Matthew, Florence",2
3449,Arrowhead Blvd,Myrtle Beach,SC,Horry County,29579,US,33.71407,-78.941613,44006020057,"Matthew, Florence",2
4700,Cottonwood Dr,Myrtle Beach,SC,Horry County,29588,US,33.689056,-78.99315,44006020058,"Matthew, Florence",2
5709,Rosewood Dr,Myrtle Beach,SC,Horry County,29588,US,33.689205,-78.993043,44006020059,"Matthew, Florence",2
5719,Rosewood Dr,Myrtle Beach,SC,Horry County,29588,US,33.689367,-78.992912,44006020060,"Matthew, Florence",2
5729,Rosewood Dr,Myrtle Beach,SC,Horry County,29588,US,33.689502,-78.992774,44006020061,"Matthew, Florence",2
4701,White Pine Dr,Myrtle Beach,SC,Horry County,29588,US,33.689714,-78.992744,44006020062,"Matthew, Florence",2
4715,White Pine Dr,Myrtle Beach,SC,Horry County,29588,US,33.689537,-78.993084,44006020063,"Matthew, Florence",2
4729,White Pine Dr,Myrtle Beach,SC,Horry County,29588,US,33.689588,-78.99357,44006020065,"Matthew, Florence",2
4737,White Pine Dr,Myrtle Beach,SC,Horry County,29588,US,33.689649,-78.993785,44006020066,"Matthew, Florence",2
105,Villa Mar Dr,Myrtle Beach,SC,Horry County,29579,US,33.761529,-78.850246,44006020067,"Matthew, Florence",2
,Commerce Pl,Myrtle Beach,SC,Horry County,29577,US,33.706102,-78.90419,44006020068,"Matthew, Florence",2
4761,White Pine Dr,Myrtle Beach,SC,Horry County,29588,US,33.689833,-78.994445,44006020069,"Matthew, Florence",2
4769,White Pine Dr,Myrtle Beach,SC,Horry County,29588,US,33.689896,-78.994667,44006020070,"Matthew, Florence",2
4779,White Pine Dr,Myrtle Beach,SC,Horry County,29588,US,33.689972,-78.994874,44006020071,"Matthew, Florence",2
3230,Plattmoor Dr,Myrtle Beach,SC,Horry County,29588,US,33.642212,-78.99391,44006020072,"Matthew, Florence",2
4762,White Pine Dr,Myrtle Beach,SC,Horry County,29588,US,33.690311,-78.994341,44006020074,"Matthew, Florence",2
3260,Saddlewood Cir,Myrtle Beach,SC,Horry County,29579,US,33.788943,-78.95366,44006020075,"Matthew, Florence",2
4746,White Pine Dr,Myrtle Beach,SC,Horry County,29588,US,33.690188,-78.9939,44006020076,"Matthew, Florence",2
4738,White Pine Dr,Myrtle Beach,SC,Horry County,29588,US,33.690124,-78.993674,44006020077,"Matthew, Florence",2
4730,White Pine Dr,Myrtle Beach,SC,Horry County,29588,US,33.690069,-78.993458,44006020078,"Matthew, Florence",2
4720,White Pine Dr,Myrtle Beach,SC,Horry County,29588,US,33.690038,-78.99319,44006020079,"Matthew, Florence",2
4700,White Pine Dr,Myrtle Beach,SC,Horry County,29588,US,33.690023,-78.992813,44006020080,"Joaquin, Matthew, Florence",3
1406,Commerce Pl,Myrtle Beach,SC,Horry County,29577,US,33.705895,-78.903826,44006020081,"Joaquin, Matthew, Florence",3
1406,Commerce Pl,Myrtle Beach,SC,Horry County,29577,US,33.705895,-78.903826,44006020082,"Joaquin, Matthew, Florence",3
5777,Rosewood Dr,Myrtle Beach,SC,Horry County,29588,US,33.690791,-78.993007,44006020084,"Joaquin, Matthew, Florence",3
5783,Rosewood Dr,Myrtle Beach,SC,Horry County,29588,US,33.69098,-78.993051,44006020085,"Joaquin, Matthew, Florence",3
5789,Rosewood Dr,Myrtle Beach,SC,Horry County,29588,US,33.691167,-78.993096,44006020086,"Joaquin, Matthew, Florence",3
5799,Rosewood Dr,Myrtle Beach,SC,Horry County,29588,US,33.691383,-78.993132,44006020087,"Joaquin, Matthew, Florence",3
4212,Shipyard Walk,Myrtle Beach,SC,Horry County,29579,US,33.727554,-78.960836,44006020089,"Joaquin, Matthew, Florence",3
5321,Figure 8th Rd,Myrtle Beach,SC,Horry County,29588,US,33.681886,-78.974857,44006020090,"Joaquin, Matthew, Florence",3
5574,Rosewood Dr,Myrtle Beach,SC,Horry County,29588,US,33.68585,-78.99359,44006030010,Florence,1
2523,Forestbrook Rd,Myrtle Beach,SC,Horry County,29588,US,33.707576,-78.982881,44006030011,Florence,1
5590,Rosewood Dr,Myrtle Beach,SC,Horry County,29588,US,33.686302,-78.993535,44006030012,Florence,1
5630,Rosewood Dr,Myrtle Beach,SC,Horry County,29588,US,33.687262,-78.993216,44006030026,Florence,1
5620,Rosewood Dr,Myrtle Beach,SC,Horry County,29588,US,33.687051,-78.993291,44006030027,Florence,1
5610,Rosewood Dr,Myrtle Beach,SC,Horry County,29588,US,33.686849,-78.993364,44006030028,Florence,1
5659,Rosewood Dr,Myrtle Beach,SC,Horry County,29588,US,33.687975,-78.993629,44006030029,Florence,1
5649,Rosewood Dr,Myrtle Beach,SC,Horry County,29588,US,33.687766,-78.993703,44006030030,Florence,1
5639,Rosewood Dr,Myrtle Beach,SC,Horry County,29588,US,33.687554,-78.993776,44006030031,Florence,1
226,Rice Mill Dr,Myrtle Beach,SC,Horry County,29588,US,33.679649,-78.985341,44006030033,Florence,1
5609,Rosewood Dr,Myrtle Beach,SC,Horry County,29588,US,33.686953,-78.994004,44006030034,Florence,1
1185,Bethpage Dr,Myrtle Beach,SC,Horry County,29579,US,33.720516,-78.957479,44006030035,Florence,1
5591,Rosewood Dr,Myrtle Beach,SC,Horry County,29588,US,33.686353,-78.994158,44006030036,Florence,1
5583,Rosewood Dr,Myrtle Beach,SC,Horry County,29588,US,33.686135,-78.994191,44006030037,Florence,1
442,Stone Mill Dr,Myrtle Beach,SC,Horry County,29588,US,33.681213,-78.980016,44006030038,Florence,1
3821,Ed Smith Ave,Myrtle Beach,SC,Horry County,29588,US,33.691139,-79.001054,44007020023,"Matthew, Florence",2
3819,Ed Smith Ave,Myrtle Beach,SC,Horry County,29588,US,33.690954,-79.000969,44007020024,Florence,1
4723,Cornwall Dr,Myrtle Beach,SC,Horry County,29588,US,33.685516,-79.016495,44008040021,"Matthew, Florence",2
4720,Julious Ln,Myrtle Beach,SC,Horry County,29588,US,33.685675,-79.016008,44009010001,"Matthew, Florence",2
4724,Julious Ln,Myrtle Beach,SC,Horry County,29588,US,33.685489,-79.015434,44009010002,Florence,1
5839,Creekside Dr,Myrtle Beach,SC,Horry County,29588,US,33.682894,-79.012034,44009020005,"Joaquin, Matthew, Florence",3
5861,Creekside Dr,Myrtle Beach,SC,Horry County,29588,US,33.683042,-79.011907,44009020006,"Joaquin, Matthew, Florence",3
5865,Creekside Dr,Myrtle Beach,SC,Horry County,29588,US,33.683137,-79.01164,44009020007,Florence,1
5869,Creekside Dr,Myrtle Beach,SC,Horry County,29588,US,33.683121,-79.011388,44009020008,Matthew,1
7705,Memory Ln,Myrtle Beach,SC,Horry County,29588,US,33.644644,-79.010897,44009020009,"Joaquin, Matthew, Florence",3
5876,Creekside Dr,Myrtle Beach,SC,Horry County,29588,US,33.682657,-79.010783,44009020011,Florence,1
5874,Creekside Dr,Myrtle Beach,SC,Horry County,29588,US,33.682426,-79.010723,44009020012,"Matthew, Florence",2
8350,Hwy 544,Myrtle Beach,SC,Horry County,29588,US,33.719594,-79.024577,44009020013,"Matthew, Florence",2
4704,Pine Lake Dr,Myrtle Beach,SC,Horry County,29577,US,33.723674,-78.849616,44009020016,"Matthew, Florence",2
281,Old Buck Creek Rd,Longs,SC,Horry County,29568,US,33.957307,-78.713479,44009020017,"Matthew, Florence",2
5848,Creekside Dr,Myrtle Beach,SC,Horry County,29588,US,33.681912,-79.011635,44009020018,"Matthew, Florence",2
5725,Recreation Rd,Myrtle Beach,SC,Horry County,29588,US,33.681986,-79.009635,44009020023,"Matthew, Florence",2
6924,Bay Rd,Myrtle Beach,SC,Horry County,29588,US,33.662005,-79.053823,44009020025,"Matthew, Florence",2
5745,Recreation Rd,Myrtle Beach,SC,Horry County,29588,US,33.682719,-79.010032,44009020027,"Matthew, Florence",2
5761,Recreation Rd,Myrtle Beach,SC,Horry County,29588,US,33.682895,-79.010136,44009020028,"Joaquin, Matthew, Florence",3
7623,Sandy Pines Ln,Myrtle Beach,SC,Horry County,29588,US,33.707816,-79.021456,44009020029,"Matthew, Florence",2
5741,Creekside Dr,Myrtle Beach,SC,Horry County,29588,US,33.68015,-79.009833,44009030013,Matthew,1
5730,Creekside Dr,Myrtle Beach,SC,Horry County,29588,US,33.680795,-79.009995,44009030015,"Matthew, Florence",2
149,Fox Haven Blvd,Myrtle Beach,SC,Horry County,29588,US,33.679371,-79.011222,44009030018,Matthew,1
5701,Creekside Dr,Myrtle Beach,SC,Horry County,29588,US,33.680811,-79.00895,44010040009,Matthew,1
9,Cheyenne Rd,Myrtle Beach,SC,Horry County,29588,US,33.682719,-78.989085,44012010052,Matthew,1
319,Rice Mill Dr,Myrtle Beach,SC,Horry County,29588,US,33.6812,-78.984998,44012020089,Matthew,1
136,Manor Cir,Myrtle Beach,SC,Horry County,29588,US,33.680902,-78.987062,44012030050,Matthew,1
102,Plantation Rd,Myrtle Beach,SC,Horry County,29588,US,33.678466,-78.988697,44012040001,Matthew,1
61,Plantation Rd,Myrtle Beach,SC,Horry County,29588,US,33.678409,-78.992151,44012040016,Matthew,1
7,Catawba Trl,Myrtle Beach,SC,Horry County,29588,US,33.67957,-78.98923,44012040071,Matthew,1
9,Catawba Trl,Myrtle Beach,SC,Horry County,29588,US,33.679306,-78.989145,44012040072,Matthew,1
408,Palm Frond Dr,Myrtle Beach,SC,Horry County,29588,US,33.672406,-78.985994,44013030055,Matthew,1
153,Powder Springs Loop,Myrtle Beach,SC,Horry County,29588,US,33.674007,-78.988037,44013030103,Matthew,1
165,Powder Springs Loop,Myrtle Beach,SC,Horry County,29588,US,33.671621,-78.988857,44013030106,Matthew,1
223,Gresham Ln,Myrtle Beach,SC,Horry County,29588,US,33.673228,-78.989123,44013040005,Matthew,1
173,Powder Springs Loop,Myrtle Beach,SC,Horry County,29588,US,33.671787,-78.988397,44013040013,Matthew,1
224,Gresham Ln,Myrtle Beach,SC,Horry County,29588,US,33.673339,-78.989442,44013040026,Matthew,1
6308,Kevin Ln,Myrtle Beach,SC,Horry County,29588,US,33.675351,-79.017322,44016010005,Florence,1
5901,Enterprise Rd,Myrtle Beach,SC,Horry County,29588,US,33.675014,-79.010691,44016020002,Florence,1
5861,Enterprise Rd,Myrtle Beach,SC,Horry County,29588,US,33.675017,-79.009892,44016020003,Florence,1
336,Fox Catcher Dr,Myrtle Beach,SC,Horry County,29588,US,33.67617,-79.012932,44016020022,Florence,1
332,Fox Catcher Dr,Myrtle Beach,SC,Horry County,29588,US,33.676304,-79.013042,44016020023,Florence,1
,,Myrtle Beach,SC,Florence County,29588,US,33.671137,-79.02427,44016020024,Florence,1
324,Fox Catcher Dr,Myrtle Beach,SC,Horry County,29588,US,33.676624,-79.01295,44016020025,Florence,1
1315,Hwy 15,Myrtle Beach,SC,Horry County,29577,US,33.689267,-78.911161,44016030003,Florence,1
5236,Nightingale Dr,Myrtle Beach,SC,Horry County,29577,US,33.728111,-78.894534,44100000003,Matthew,1
53,Smith Blvd,Myrtle Beach,SC,Horry County,29588,US,33.698217,-78.981806,44101010001,Florence,1
49,Smith Blvd,Myrtle Beach,SC,Horry County,29588,US,33.697858,-78.982512,44101010002,Florence,1
47,Smith Blvd,Myrtle Beach,SC,Horry County,29588,US,33.697715,-78.98279,44101010004,Florence,1
45,Smith Blvd,Myrtle Beach,SC,Horry County,29588,US,33.697572,-78.983073,44101010005,Florence,1
43,Smith Blvd,Myrtle Beach,SC,Horry County,29588,US,33.697424,-78.983352,44101010006,Florence,1
41,Smith Blvd,Myrtle Beach,SC,Horry County,29588,US,33.69728,-78.983635,44101010007,Florence,1
39,Smith Blvd,Myrtle Beach,SC,Horry County,29588,US,33.697116,-78.983894,44101010008,Florence,1
704,Reef Rd,Myrtle Beach,SC,Horry County,29588,US,33.697265,-78.977362,44101020032,Florence,1
708,Reef Rd,Myrtle Beach,SC,Horry County,29588,US,33.697662,-78.977493,44101020034,Florence,1
712,Reef Rd,Myrtle Beach,SC,Horry County,29588,US,33.698056,-78.977623,44101020036,Florence,1
158,Ranchette Cir,Myrtle Beach,SC,Horry County,29588,US,33.690448,-78.960967,44101020037,Florence,1
732,Islander Dr,Myrtle Beach,SC,Horry County,29588,US,33.697982,-78.976873,44101020038,Florence,1
734,Islander Dr,Myrtle Beach,SC,Horry County,29588,US,33.698041,-78.976655,44101020039,Florence,1
,Riverbend Rd,Loris,SC,Horry County,29569,US,34.10807,-78.865739,44101020040,Florence,1
725,Racewater Dr,Myrtle Beach,SC,Horry County,29588,US,33.697799,-78.976571,44101020042,Florence,1
723,Racewater Dr,Myrtle Beach,SC,Horry County,29588,US,33.697744,-78.976815,44101020043,Florence,1
707,Reef Rd,Myrtle Beach,SC,Horry County,29588,US,33.697688,-78.977059,44101020044,Florence,1
1529,Crooked Pine Dr,Myrtle Beach,SC,Horry County,29575,US,33.631436,-78.97439,44101020046,Florence,1
724,Racewater Dr,Myrtle Beach,SC,Horry County,29588,US,33.6974,-78.976422,44101020047,Florence,1
726,Racewater Dr,Myrtle Beach,SC,Horry County,29588,US,33.697457,-78.976178,44101020048,Florence,1
606,Luttie Rd,Myrtle Beach,SC,Horry County,29588,US,33.69211,-78.979464,44101030031,Matthew,1
807,Luttie Rd,Myrtle Beach,SC,Horry County,29588,US,33.694617,-78.984034,44101040070,Florence,1
805,Luttie Rd,Myrtle Beach,SC,Horry County,29588,US,33.694406,-78.983808,44101040071,Florence,1
801,Luttie Rd,Myrtle Beach,SC,Horry County,29588,US,33.694112,-78.983533,44101040073,Florence,1
,Riverbend Rd,Loris,SC,Horry County,29569,US,34.10807,-78.865739,44102010008,Florence,1
,Riverbend Rd,Loris,SC,Horry County,29569,US,34.10807,-78.865739,44102010010,Florence,1
632,River Bend Rd,Myrtle Beach,SC,Horry County,29588,US,33.696537,-78.975441,44102010011,Florence,1
634,River Bend Rd,Myrtle Beach,SC,Horry County,29588,US,33.696737,-78.975505,44102010012,Florence,1
636,River Bend Rd,Myrtle Beach,SC,Horry County,29588,US,33.696936,-78.975569,44102010013,Florence,1
638,River Bend Rd,Myrtle Beach,SC,Horry County,29588,US,33.697135,-78.975633,44102010014,Florence,1
640,River Bend Rd,Myrtle Beach,SC,Horry County,29588,US,33.697334,-78.975697,44102010015,Florence,1
642,River Bend Rd,Myrtle Beach,SC,Horry County,29588,US,33.697533,-78.975761,44102010016,Florence,1
644,River Bend Rd,Myrtle Beach,SC,Horry County,29588,US,33.697706,-78.975822,44102010017,Florence,1
,Riverbend Rd,Loris,SC,Horry County,29569,US,34.10807,-78.865739,44102010018,Florence,1
893,Folly Rd,Myrtle Beach,SC,Horry County,29588,US,33.697447,-78.968038,44102020007,Florence,1
5808,Canterbury Ln,Myrtle Beach,SC,Horry County,29577,US,33.737301,-78.837419,44102020008,"Matthew, Florence",2
900,Folly Rd,Myrtle Beach,SC,Horry County,29588,US,33.697939,-78.968197,44102020009,"Joaquin, Matthew, Florence",3
905,Folly Rd,Myrtle Beach,SC,Horry County,29588,US,33.697509,-78.96874,44102020011,"Matthew, Florence",2
907,Folly Rd,Myrtle Beach,SC,Horry County,29588,US,33.697658,-78.969049,44102020012,"Matthew, Florence",2
921,Folly Rd,Myrtle Beach,SC,Horry County,29588,US,33.697792,-78.969345,44102020013,"Matthew, Florence",2
927,Folly Rd,Myrtle Beach,SC,Horry County,29588,US,33.697959,-78.96979,44102020014,"Joaquin, Florence",2
4192,John Luther Rd,Myrtle Beach,SC,Horry County,29588,US,33.693634,-78.974026,44102040008,Matthew,1
2610,Riverside Dr,Myrtle Beach,SC,Horry County,29579,US,33.69791,-78.964688,44103010001,Florence,1
2618,Riverside Dr,Myrtle Beach,SC,Horry County,29579,US,33.697786,-78.964378,44103010002,Florence,1
2624,Riverside Dr,Myrtle Beach,SC,Horry County,29579,US,33.697667,-78.963823,44103010004,Florence,1
4603,Little River Rd,Myrtle Beach,SC,Horry County,29577,US,33.725096,-78.853705,44103010007,"Matthew, Florence",2
844,Folly Rd,Myrtle Beach,SC,Horry County,29588,US,33.697184,-78.965918,44103010009,Florence,1
846,Folly Rd,Myrtle Beach,SC,Horry County,29588,US,33.697285,-78.966243,44103010010,Florence,1
864,Folly Rd,Myrtle Beach,SC,Horry County,29588,US,33.69749,-78.966858,44103010012,"Matthew, Florence",2
872,Folly Rd,Myrtle Beach,SC,Horry County,29588,US,33.697593,-78.967169,44103010013,"Matthew, Florence",2
881,Folly Rd,Myrtle Beach,SC,Horry County,29588,US,33.69717,-78.967244,44103010015,Florence,1
851,Folly Rd,Myrtle Beach,SC,Horry County,29588,US,33.696974,-78.96659,44103010017,Florence,1
847,Folly Rd,Myrtle Beach,SC,Horry County,29588,US,33.696826,-78.966126,44103010018,Florence,1
1107,Hart St,Conway,SC,Horry County,29526,US,33.847177,-79.047897,44103010020,Florence,1
227,Wedgewood Ln,Conway,SC,Horry County,29526,US,33.77265,-78.992971,44103010021,Florence,1
2628,Riverside Dr,Myrtle Beach,SC,Horry County,29579,US,33.6975,-78.963331,44103020001,Florence,1
301,Flagstone Dr,Myrtle Beach,SC,Horry County,29588,US,33.680175,-78.968201,44103030016,Florence,1
242,Cabots Creek Dr,Myrtle Beach,SC,Horry County,29588,US,33.737925,-79.02605,44103030017,Florence,1
5059,Watergate Dr,Myrtle Beach,SC,Horry County,29588,US,33.692838,-78.959968,44103030018,Florence,1
3018,Church St,Myrtle Beach,SC,Horry County,29577,US,33.724685,-78.878433,44103030019,Florence,1
5057,Watergate Dr,Myrtle Beach,SC,Horry County,29588,US,33.692686,-78.960132,44103030020,Florence,1
1015,16th Ave Ext N,Myrtle Beach,SC,Horry County,29575,US,33.624315,-78.970233,44104010001,Florence,1
5081,Watergate Dr,Myrtle Beach,SC,Horry County,29588,US,33.694567,-78.95831,44104010002,Florence,1
5083,Watergate Dr,Myrtle Beach,SC,Horry County,29588,US,33.694507,-78.957981,44104010003,Florence,1
1301,Hidden Harbor Rd,Myrtle Beach,SC,Horry County,29588,US,33.694479,-78.957769,44104010005,Florence,1
1280,Malibu Ln,Myrtle Beach,SC,Horry County,29577,US,33.69273,-78.952237,44104030029,Florence,1
1290,Malibu Ln,Myrtle Beach,SC,Horry County,29577,US,33.692939,-78.952323,44104030030,Florence,1
1296,Malibu Ln,Myrtle Beach,SC,Horry County,29577,US,33.693168,-78.952371,44104030031,Florence,1
1300,Malibu Ln,Myrtle Beach,SC,Horry County,29577,US,33.693521,-78.952408,44104030032,Florence,1
1551,Teague Rd,Myrtle Beach,SC,Horry County,29577,US,33.694091,-78.952363,44104030033,Florence,1
1541,Teague Rd,Myrtle Beach,SC,Horry County,29577,US,33.694064,-78.952715,44104030034,Florence,1
1501,Teague Rd,Myrtle Beach,SC,Horry County,29577,US,33.694025,-78.95367,44104030036,"Matthew, Florence",2
1491,Teague Rd,Myrtle Beach,SC,Horry County,29577,US,33.694029,-78.954007,44104030037,Florence,1
647,N Creekside Dr,Murrells Inlet,SC,Horry County,29576,US,33.573343,-79.013202,44104030039,Florence,1
1471,Teague Rd,Myrtle Beach,SC,Horry County,29577,US,33.694032,-78.954633,44104030040,"Matthew, Florence",2
1461,Teague Rd,Myrtle Beach,SC,Horry County,29577,US,33.694044,-78.954958,44104030041,"Matthew, Florence",2
1450,Teague Rd,Myrtle Beach,SC,Horry County,29577,US,33.69337,-78.955322,44104030043,Florence,1
1460,Teague Rd,Myrtle Beach,SC,Horry County,29577,US,33.693372,-78.954969,44104030044,Florence,1
1480,Teague Rd,Myrtle Beach,SC,Horry County,29577,US,33.693362,-78.954289,44104030046,Florence,1
1500,Teague Rd,Myrtle Beach,SC,Horry County,29577,US,33.693358,-78.953796,44104030047,Florence,1
1510,Teague Rd,Myrtle Beach,SC,Horry County,29577,US,33.693358,-78.953148,44104030049,Florence,1
100,Ebb Tide Harbour,Myrtle Beach,SC,Horry County,29577,US,33.691968,-78.956655,44104040033,Florence,1
1381,Harbour Towne Dr,Myrtle Beach,SC,Horry County,29577,US,33.692781,-78.957083,44104040034,Florence,1
105,Schooner Harbour,Myrtle Beach,SC,Horry County,29577,US,33.692981,-78.956873,44104040035,Florence,1
109,Schooner Harbour,Myrtle Beach,SC,Horry County,29577,US,33.692974,-78.956891,44104040036,Florence,1
111,Schooner Harbour,Myrtle Beach,SC,Horry County,29577,US,33.69297,-78.956901,44104040037,Florence,1
113,Schooner Harbour,Myrtle Beach,SC,Horry County,29577,US,33.692966,-78.95691,44104040038,"Matthew, Florence",2
2943,Fred Nash Blvd,Myrtle Beach,SC,Horry County,29577,US,33.695628,-78.941568,44104040039,Florence,1
108,Schooner Harbour,Myrtle Beach,SC,Horry County,29577,US,33.693253,-78.957002,44104040040,Florence,1
104,Schooner Harbour,Myrtle Beach,SC,Horry County,29577,US,33.69326,-78.956983,44104040041,Florence,1
5076,Watergate Dr,Myrtle Beach,SC,Horry County,29588,US,33.693925,-78.958438,44104040049,Florence,1
,,Myrtle Beach,SC,Horry County,29579,US,33.737697,-78.978653,44104040050,Florence,1
5070,Watergate Dr,Myrtle Beach,SC,Horry County,29588,US,33.693455,-78.958769,44104040052,Florence,1
5068,Watergate Dr,Myrtle Beach,SC,Horry County,29588,US,33.693298,-78.958903,44104040053,Florence,1
1406,Commerce Pl,Myrtle Beach,SC,Horry County,29577,US,33.705895,-78.903826,44104040054,Florence,1
5064,Watergate Dr,Myrtle Beach,SC,Horry County,29588,US,33.692978,-78.959167,44104040055,Florence,1
5062,Watergate Dr,Myrtle Beach,SC,Horry County,29588,US,33.692819,-78.959305,44104040056,Florence,1
5033,Dick Pond Rd,Myrtle Beach,SC,Horry County,29588,US,33.676657,-78.999542,44104040058,Florence,1
5069,Watergate Dr,Myrtle Beach,SC,Horry County,29588,US,33.693639,-78.959342,44104040059,Florence,1
5071,Watergate Dr,Myrtle Beach,SC,Horry County,29588,US,33.693797,-78.959213,44104040060,Florence,1
5073,Watergate Dr,Myrtle Beach,SC,Horry County,29588,US,33.694061,-78.95907,44104040061,Florence,1
1323,Hidden Harbor Rd,Myrtle Beach,SC,Horry County,29588,US,33.694317,-78.957219,44104040063,Florence,1
1331,Hidden Harbor Rd,Myrtle Beach,SC,Horry County,29588,US,33.694273,-78.956997,44104040065,Florence,1
1335,Hidden Harbor Rd,Myrtle Beach,SC,Horry County,29588,US,33.694251,-78.95689,44104040066,Florence,1
1440,Teague Rd,Myrtle Beach,SC,Horry County,29577,US,33.693365,-78.955654,44104040121,Florence,1
1430,Teague Rd,Myrtle Beach,SC,Horry County,29577,US,33.693347,-78.956007,44104040122,Florence,1
1420,Teague Rd,Myrtle Beach,SC,Horry County,29577,US,33.693327,-78.956277,44104040123,Florence,1
1400,Harbour Towne Dr,Myrtle Beach,SC,Horry County,29577,US,33.692602,-78.956623,44104040124,Florence,1
1370,Harbour Towne Dr,Myrtle Beach,SC,Horry County,29577,US,33.692587,-78.956557,44104040126,Florence,1
8533,Cedar Trace Dr,Myrtle Beach,SC,Horry County,29588,US,33.648177,-79.032615,44105010053,Matthew,1
806,Geddings Dr,Myrtle Beach,SC,Horry County,29588,US,33.688049,-78.980919,44108010001,Florence,1
804,Geddings Dr,Myrtle Beach,SC,Horry County,29588,US,33.688244,-78.980734,44108010002,Florence,1
707,Connie Ct,Myrtle Beach,SC,Horry County,29588,US,33.688524,-78.981065,44108010008,Florence,1
513,Sims Dr,Myrtle Beach,SC,Horry County,29588,US,33.689461,-78.981631,44108010029,Florence,1
515,Sims Dr,Myrtle Beach,SC,Horry County,29588,US,33.6896,-78.981822,44108010030,Florence,1
803,Beverly St,Myrtle Beach,SC,Horry County,29588,US,33.696242,-78.980835,44108010032,Florence,1
807,Geddings Dr,Myrtle Beach,SC,Horry County,29588,US,33.687886,-78.980857,44108040001,Florence,1
805,Geddings Dr,Myrtle Beach,SC,Horry County,29588,US,33.687722,-78.9806,44108040002,Florence,1
1113,44th Ave N,Myrtle Beach,SC,Horry County,29577,US,33.728094,-78.863742,44108040069,Matthew,1
111,Old Carriage Ct,Myrtle Beach,SC,Horry County,29588,US,33.682797,-78.983903,44109010069,Matthew,1
146,Dry Valley Loop,Myrtle Beach,SC,Horry County,29588,US,33.676671,-78.97555,44115010052,Matthew,1
7573,Foster Ave,Myrtle Beach,SC,Horry County,29588,US,33.659135,-79.016885,44800000008,Matthew,1
349,Palmetto Glen Dr,Myrtle Beach,SC,Horry County,29588,US,33.667886,-78.988022,44804020040,Matthew,1
4009,Grousewood Dr,Myrtle Beach,SC,Horry County,29588,US,33.658729,-78.997225,44806030006,Matthew,1
3896,Stillwood Dr,Myrtle Beach,SC,Horry County,29588,US,33.660405,-78.999317,44806040022,Matthew,1
7460,Springside Dr,Myrtle Beach,SC,Horry County,29588,US,33.661374,-79.008798,44807010035,Matthew,1
7495,Springside Dr,Myrtle Beach,SC,Horry County,29588,US,33.659851,-79.009406,44807040004,Matthew,1
5921,Leonard Lp,Myrtle Beach,SC,Horry County,29588,US,33.661902,-79.021774,44905020002,Matthew,1
8519,Cedar Trace Dr,Myrtle Beach,SC,Horry County,29588,US,33.648276,-79.032066,44914010021,Matthew,1
8527,Cedar Trace Dr,Myrtle Beach,SC,Horry County,29588,US,33.648218,-79.032333,44914010022,Matthew,1
122,Pelican Lake Ct,Myrtle Beach,SC,Horry County,29588,US,33.649017,-79.028962,44914020015,Matthew,1
5641,Tern Hall Dr,Myrtle Beach,SC,Horry County,29588,US,33.645968,-79.028236,44914030023,Matthew,1
8555,Ternberry Dr,Myrtle Beach,SC,Horry County,29588,US,33.645895,-79.031067,44914040106,Matthew,1
306,Trace Run,Myrtle Beach,SC,Horry County,29588,US,33.650408,-79.037664,44915020039,Matthew,1
225,Deer Trace Cir,Myrtle Beach,SC,Horry County,29588,US,33.648185,-79.038094,44915020084,Matthew,1
6474,Royal Pine Dr,Myrtle Beach,SC,Horry County,29588,US,33.645279,-79.044587,44916030037,Matthew,1
7049,Byrnes Ln,Myrtle Beach,SC,Horry County,29588,US,33.65922,-79.065643,45006040014,Matthew,1
616,Chamberlin Rd,Myrtle Beach,SC,Horry County,29588,US,33.65199,-79.061525,45011030038,Florence,1
2128,Timmerman Rd,Myrtle Beach,SC,Horry County,29588,US,33.655788,-79.054702,45012020049,Matthew,1
600,Chamberlin Rd,Myrtle Beach,SC,Horry County,29588,US,33.651228,-79.062517,45014020081,Florence,1
8384,Magnum Dr,Conway,SC,Horry County,29527,US,33.671799,-79.113827,45101010003,Florence,1
8401,Martin Luther Dr,Conway,SC,Horry County,29527,US,33.67292,-79.114466,45101010004,Florence,1
8325,Martin Luther Dr,Conway,SC,Horry County,29527,US,33.672304,-79.112261,45101010005,Florence,1
8327,Magnum Dr,Conway,SC,Horry County,29527,US,33.672201,-79.112089,45101010006,Florence,1
8326,Martin Luther Dr,Conway,SC,Horry County,29527,US,33.672578,-79.112164,45101020001,Florence,1
8238,Martin Luther Dr,Conway,SC,Horry County,29527,US,33.672647,-79.109216,45101020004,Florence,1
8260,Martin Luther Dr,Conway,SC,Horry County,29527,US,33.672521,-79.109796,45101020005,Florence,1
1031,Bucksport Rd,Conway,SC,Horry County,29527,US,33.672372,-79.108122,45101020010,"Matthew, Florence",2
8320,Broadway St,Conway,SC,Horry County,29527,US,33.671096,-79.108171,45101020011,Florence,1
8325,Broadway St,Conway,SC,Horry County,29527,US,33.670539,-79.108494,45101020016,Florence,1
8626,Frazier Rd,Conway,SC,Horry County,29527,US,33.665506,-79.113322,45101040004,Florence,1
995,Bucksport Rd,Conway,SC,Horry County,29527,US,33.671191,-79.107681,45102010005,Florence,1
1236,Railroad Dr,Conway,SC,Horry County,29527,US,33.678614,-79.100244,45102010007,"Matthew, Florence",2
8139,Hickman Dr,Conway,SC,Horry County,29527,US,33.672498,-79.10585,45102010025,Florence,1
831,Bucksport Rd,Conway,SC,Horry County,29527,US,33.666776,-79.106058,45102040004,Matthew,1
780,Bucksport Rd,Conway,SC,Horry County,29527,US,33.666126,-79.105196,45102040006,Florence,1
564,Bucksport Rd,Conway,SC,Horry County,29527,US,33.659862,-79.102583,45107030020,Matthew,1
8620,Frazier Rd,Conway,SC,Horry County,29527,US,33.665592,-79.113272,45108010002,"Matthew, Florence",2
9252,Beaver Run Dr,Conway,SC,Horry County,29527,US,33.67449,-79.142514,45201020002,Florence,1
9131,S Hwy 701,Conway,SC,Horry County,29527,US,33.671341,-79.137227,45202010005,Florence,1
9211,Little Hill Dr,Conway,SC,Horry County,29527,US,33.66951,-79.139164,45202010006,Florence,1
1402,Sunningdale Ln,Myrtle Beach,SC,Horry County,29588,US,33.638956,-79.061959,45603030045,Matthew,1
455,Sunnehanna Dr,Myrtle Beach,SC,Horry County,29588,US,33.641528,-79.054824,45603030048,Matthew,1
455,Sunnehanna Dr,Myrtle Beach,SC,Horry County,29588,US,33.641528,-79.054824,45603030052,Florence,1
455,Sunnehanna Dr,Myrtle Beach,SC,Horry County,29588,US,33.641528,-79.054824,45603030053,Florence,1
285,Terra Vista Dr,Myrtle Beach,SC,Horry County,29588,US,33.649412,-79.041632,45603030054,Florence,1
1509,St George Ln,Myrtle Beach,SC,Horry County,29588,US,33.63867,-79.063203,45603030055,Florence,1
455,Sunnehanna Dr,Myrtle Beach,SC,Horry County,29588,US,33.641528,-79.054824,45603030056,Florence,1
1505,St George Ln,Myrtle Beach,SC,Horry County,29588,US,33.638972,-79.063047,45603030057,Florence,1
455,Sunnehanna Dr,Myrtle Beach,SC,Horry County,29588,US,33.641528,-79.054824,45603030060,Florence,1
455,Sunnehanna Dr,Myrtle Beach,SC,Horry County,29588,US,33.641528,-79.054824,45603040003,Florence,1
455,Sunnehanna Dr,Myrtle Beach,SC,Horry County,29588,US,33.641528,-79.054824,45603040004,Florence,1
455,Sunnehanna Dr,Myrtle Beach,SC,Horry County,29588,US,33.641528,-79.054824,45603040005,Florence,1
455,Sunnehanna Dr,Myrtle Beach,SC,Horry County,29588,US,33.641528,-79.054824,45603040007,Florence,1
455,Sunnehanna Dr,Myrtle Beach,SC,Horry County,29588,US,33.641528,-79.054824,45603040009,Matthew,1
1504,St George Ln,Myrtle Beach,SC,Horry County,29588,US,33.63909,-79.063595,45603040010,Florence,1
455,Sunnehanna Dr,Myrtle Beach,SC,Horry County,29588,US,33.641528,-79.054824,45603040011,"Matthew, Florence",2
455,Sunnehanna Dr,Myrtle Beach,SC,Horry County,29588,US,33.641528,-79.054824,45606010001,Florence,1
8801,Hwy 707,Myrtle Beach,SC,Horry County,29588,US,33.640955,-79.029837,45703020009,Matthew,1
8751,Hwy 707,Myrtle Beach,SC,Horry County,29588,US,33.641738,-79.02878,45703040041,Matthew,1
,,Longs,SC,Horry County,29568,US,33.93851,-78.73307,45703040042,Matthew,1
8977,Hwy 707,Myrtle Beach,SC,Horry County,29588,US,33.638913,-79.031447,45703040043,Matthew,1
9001,Hwy 707,Myrtle Beach,SC,Horry County,29588,US,33.638479,-79.031326,45703040045,Matthew,1
9045,Hwy 707,Myrtle Beach,SC,Horry County,29588,US,33.638253,-79.031995,45703040046,Matthew,1
1416,Daisy Rd,Loris,SC,Horry County,29569,US,33.99897,-78.912715,45704010063,Matthew,1
4545,Holmestown Rd,Myrtle Beach,SC,Horry County,29588,US,33.629434,-79.030091,45711020060,Matthew,1
8018,McLamb Dr,Myrtle Beach,SC,Horry County,29588,US,33.642482,-79.015207,45801010043,Matthew,1
2191,Deerfield Ave,Myrtle Beach,SC,Horry County,29575,US,33.634382,-78.989736,45805010009,Matthew,1
2021,Deerfield Ave,Myrtle Beach,SC,Horry County,29575,US,33.630744,-78.986352,45805030019,Matthew,1
211,Little Pee Dee Rd,Myrtle Beach,SC,Horry County,29588,US,33.622035,-79.016158,45816010039,Matthew,1
1715,Southwood Dr,Myrtle Beach,SC,Horry County,29575,US,33.641667,-78.975481,45902010036,Matthew,1
1460,Basin Tr,Murrells Inlet,SC,Georgetown County,29576,US,33.553731,-79.018958,45902010086,Matthew,1
1805,Bay Tree Ln,Myrtle Beach,SC,Horry County,29575,US,33.636367,-78.969822,45902030001,Matthew,1
1733,Bay Tree Ln,Myrtle Beach,SC,Horry County,29575,US,33.636676,-78.971681,45902030008,Matthew,1
1764,Bay Tree Ln,Myrtle Beach,SC,Horry County,29575,US,33.637817,-78.970627,45902030020,Matthew,1
1821,Gibson Ave,Myrtle Beach,SC,Horry County,29575,US,33.638982,-78.97152,45902030035,Matthew,1
1815,Gibson Ave,Myrtle Beach,SC,Horry County,29575,US,33.638816,-78.971831,45902030036,Matthew,1
1711,Gibson Ave,Myrtle Beach,SC,Horry County,29575,US,33.636536,-78.97462,45902040002,Matthew,1
1725,Gibson Ave,Myrtle Beach,SC,Horry County,29575,US,33.636992,-78.974252,45902040004,Matthew,1
1927,Sandpiper Ln,Myrtle Beach,SC,Horry County,29575,US,33.636686,-78.976229,45902040037,Matthew,1
377,Pilothouse Dr,Myrtle Beach,SC,Horry County,29577,US,33.717612,-78.91618,45903040005,Matthew,1
1853,Bay Tree Ln,Myrtle Beach,SC,Horry County,29575,US,33.635155,-78.968317,45906010019,Matthew,1
1845,Bay Tree Ln,Myrtle Beach,SC,Horry County,29575,US,33.635296,-78.968663,45906010020,Matthew,1
1585,Dick Pond Rd,Myrtle Beach,SC,Horry County,29575,US,33.636124,-78.967037,45906010025,Matthew,1
1877,Bay Tree Ln,Myrtle Beach,SC,Horry County,29575,US,33.634996,-78.967148,45906010027,Matthew,1
1212,Live Oak Ct,Myrtle Beach,SC,Horry County,29575,US,33.631473,-78.964284,45906030007,Matthew,1
1216,Live Oak Ct,Myrtle Beach,SC,Horry County,29575,US,33.631652,-78.964399,45906030008,Matthew,1
2067,Lakeview Cir,Myrtle Beach,SC,Horry County,29575,US,33.631795,-78.967179,45906040014,Matthew,1
2107,Lake View Cir,Myrtle Beach,SC,Horry County,29575,US,33.632167,-78.968365,45906040019,Matthew,1
2072,Lake View Cir,Myrtle Beach,SC,Horry County,29575,US,33.631488,-78.967678,45906040035,Matthew,1
9681,Conifer Ln,Murrells Inlet,SC,Horry County,29576,US,33.61135,-79.042735,45906040043,Matthew,1
1927,Bobwhite Ln,Myrtle Beach,SC,Horry County,29575,US,33.635703,-78.977015,45907010006,Matthew,1
1361,Riverside Dr,Conway,SC,Horry County,29526,US,33.829365,-79.009907,45907010018,Matthew,1
,Cardinal Dr,Conway,SC,Horry County,29526,US,33.809755,-79.009498,45907010020,Matthew,1
1572,Bay Tree Ln,Myrtle Beach,SC,Horry County,29575,US,33.633766,-78.975593,45907010034,Matthew,1
1751,Crooked Pine Dr,Myrtle Beach,SC,Horry County,29575,US,33.633644,-78.969621,45907020011,Matthew,1
1629,Crooked Pine Dr,Myrtle Beach,SC,Horry County,29575,US,33.633698,-78.971988,45907020021,Matthew,1
1621,Crooked Pine Dr,Myrtle Beach,SC,Horry County,29575,US,33.633469,-78.972168,45907020022,Matthew,1
1734,Crooked Pine Dr,Myrtle Beach,SC,Horry County,29575,US,33.634287,-78.969671,45907020040,Matthew,1
1813,Bay Tree Ln,Myrtle Beach,SC,Horry County,29575,US,33.636163,-78.969602,45907020044,Matthew,1
1401,Bay Tree Ln,Myrtle Beach,SC,Horry County,29575,US,33.629582,-78.976261,45907040024,Matthew,1
1443,Bay Tree Ln,Myrtle Beach,SC,Horry County,29575,US,33.630837,-78.977096,45907040029,Matthew,1
1839,Platt Blvd,Myrtle Beach,SC,Horry County,29575,US,33.630316,-78.980378,45908030019,Matthew,1
1333,Gibson Ave,Myrtle Beach,SC,Horry County,29575,US,33.629883,-78.981615,45908040017,Matthew,1
1924,Tree Cir,Myrtle Beach,SC,Horry County,29575,US,33.630156,-78.982779,45908040022,Matthew,1
1952,Tree Cir,Myrtle Beach,SC,Horry County,29575,US,33.631018,-78.982968,45908040029,Matthew,1
203,Marbella Dr,Murrells Inlet,SC,Horry County,29576,US,33.602065,-79.049871,45908040052,Matthew,1
1957,Tree Cir,Myrtle Beach,SC,Horry County,29575,US,33.630593,-78.984077,45908040065,Matthew,1
1947,Tree Cir,Myrtle Beach,SC,Horry County,29575,US,33.630578,-78.983113,45908040070,Matthew,1
1925,Tree Cir,Myrtle Beach,SC,Horry County,29575,US,33.62983,-78.983483,45908040080,Matthew,1
1766,Platt Blvd,Myrtle Beach,SC,Horry County,29575,US,33.628843,-78.978105,45909020003,Matthew,1
1831,Fairway Ridge Dr,Myrtle Beach,SC,Horry County,29575,US,33.628902,-78.982674,45909020053,Matthew,1
1112,Plantation Dr,Myrtle Beach,SC,Horry County,29575,US,33.62257,-78.978297,45909030001,Matthew,1
1114,Plantation Dr,Myrtle Beach,SC,Horry County,29575,US,33.622671,-78.978078,45909030002,Matthew,1
1119,Plantation Dr,Myrtle Beach,SC,Horry County,29575,US,33.623297,-78.977874,45909030004,Joaquin,1
1113,Plantation Dr,Myrtle Beach,SC,Horry County,29575,US,33.622983,-78.978567,45909030007,Joaquin,1
1101,Plantation Dr,Myrtle Beach,SC,Horry County,29575,US,33.622829,-78.980063,45909030012,Joaquin,1
1250,Hwy 17,Little River,SC,Horry County,29566,US,33.8705,-78.624165,45909040156,Matthew,1
1470,Avalon Dr,Myrtle Beach,SC,Horry County,29575,US,33.6237,-78.984494,45909040208,Matthew,1
1375,Bay Tree Ln,Myrtle Beach,SC,Horry County,29575,US,33.628342,-78.976413,45910010003,Matthew,1
1445,Crooked Pine Dr,Myrtle Beach,SC,Horry County,29575,US,33.628722,-78.973884,45910010020,Matthew,1
1100,Deer Creek Rd,Myrtle Beach,SC,Horry County,29575,US,33.626309,-78.974017,45910010065,Matthew,1
1123,Plantation Dr,Myrtle Beach,SC,Horry County,29575,US,33.623506,-78.977412,45910040008,"Joaquin, Matthew",2
1110,Plantation Dr,Myrtle Beach,SC,Horry County,29575,US,33.622461,-78.978527,45916020002,Matthew,1
1104,Plantation Dr,Myrtle Beach,SC,Horry County,29575,US,33.62233,-78.979339,45916020005,Matthew,1
1211,Pinewood Cir,Conway,SC,Horry County,29526,US,33.846094,-79.059799,45916020019,Matthew,1
384,Oak Moss Ct,Murrells Inlet,SC,Georgetown County,29576,US,33.561101,-79.028875,46002020014,Matthew,1
1321,Glenns Bay Rd,Myrtle Beach,SC,Horry County,29575,US,33.615713,-78.985019,46101010016,Matthew,1
,Stonegate Dr,North Myrtle Beach,SC,Horry County,29582,US,33.819698,-78.759693,46116010037,Matthew,1
,,Surfside Beach,SC,Horry County,29575,US,33.606003,-78.973089,46116040040,Matthew,1
13,Pierce Pl,Myrtle Beach,SC,Horry County,29575,US,33.614659,-78.992472,46204010043,Matthew,1
4,Meadow Oak Dr,Myrtle Beach,SC,Horry County,29575,US,33.614182,-78.988939,46204020041,Matthew,1
219,Caropine Dr,Myrtle Beach,SC,Horry County,29575,US,33.609181,-78.988711,46204030023,Matthew,1
214,Caropine Dr,Myrtle Beach,SC,Horry County,29575,US,33.609794,-78.989117,46204030031,Matthew,1
210,Misty Pine Dr,Myrtle Beach,SC,Horry County,29575,US,33.612317,-78.989589,46204030075,Matthew,1
1533,Gulfstream Ct,Myrtle Beach,SC,Horry County,29575,US,33.607755,-78.994815,46206020030,Matthew,1
10292,McDowell Shortcut Rd,Murrells Inlet,SC,Horry County,29576,US,33.6085,-79.03499,46306010002,Matthew,1
617,Grand Cypress Way,Murrells Inlet,SC,Horry County,29576,US,33.59881,-79.070744,46410030015,Matthew,1
245,St Davids Ave,Myrtle Beach,SC,Horry County,29588,US,33.653027,-78.996176,46412040021,Florence,1
430,Buck Run Rd,Murrells Inlet,SC,Horry County,29576,US,33.59905,-79.059409,46412040022,Florence,1
216,Longridge Dr,Murrells Inlet,SC,Horry County,29576,US,33.594669,-79.062294,46414020006,Matthew,1
409,Windover Ct,Murrells Inlet,SC,Horry County,29576,US,33.592794,-79.064687,46414040014,Matthew,1
11822,Hwy 17th Byp,Murrells Inlet,SC,Horry County,29576,US,33.587451,-79.02786,46812030016,Matthew,1
178,Parmelee Dr,Murrells Inlet,SC,Horry County,29576,US,33.588551,-79.046291,46901020093,Matthew,1
384,Rum Gully Cir,Murrells Inlet,SC,Horry County,29576,US,33.573741,-79.021968,46912020026,Matthew,1
376,Rum Gully Rd,Murrells Inlet,SC,Horry County,29576,US,33.573237,-79.02111,46912020043,Matthew,1
1211,Cherry Dr,Surfside Beach,SC,Horry County,29575,US,33.619239,-78.970048,47000000005,Matthew,1
110,Point Dr,Murrells Inlet,SC,Horry County,29576,US,33.582757,-79.014538,47000000006,Matthew,1
2751,S Hwy 17,Murrells Inlet,SC,Horry County,29576,US,33.587857,-79.00884,47002010012,Matthew,1
503,N Dogwood Dr,Murrells Inlet,SC,Horry County,29576,US,33.58165,-78.997063,47003030046,Matthew,1
399,Rum Gully Rd,Murrells Inlet,SC,Horry County,29576,US,33.573571,-79.021484,47006010007,Matthew,1
316,Dogwood Dr N,Murrells Inlet,SC,Horry County,29576,US,33.580405,-78.998013,47006020055,Matthew,1
803,Edisto River Rd,Myrtle Beach,SC,Horry County,29588,US,33.620232,-79.021807,47006020079,Joaquin,1
,,Conway,SC,Horry County,29526,US,33.868775,-78.948287,47006020088,"Joaquin, Matthew",2
1301,2nd Ave,Conway,SC,Horry County,29526,US,33.831898,-79.049155,47006030022,Matthew,1
100,N Waccamaw Dr,Murrells Inlet,SC,Horry County,29576,US,33.576969,-78.998126,47006030033,Matthew,1
1215,N Cedar Dr,Myrtle Beach,SC,Horry County,29575,US,33.617408,-78.968091,47006030110,Matthew,1
314,S Dogwood Dr,Murrells Inlet,SC,Horry County,29576,US,33.575102,-79.002264,47006040003,Joaquin,1
310,S Dogwood Dr,Murrells Inlet,SC,Horry County,29576,US,33.575213,-79.002167,47006040004,Joaquin,1
2903,4th Ave,Conway,SC,Horry County,29527,US,33.823799,-79.072858,47006040006,Joaquin,1
207,Wildwood Dunes Trl,Myrtle Beach,SC,Horry County,29572,US,33.756107,-78.80172,47006040008,Joaquin,1
226,S Dogwood Dr,Murrells Inlet,SC,Horry County,29576,US,33.576348,-79.001184,47006040014,Joaquin,1
427,Vereen Rd,Murrells Inlet,SC,Horry County,29576,US,33.575566,-79.010624,47006040023,Joaquin,1
211,Atlantic Ave,Murrells Inlet,SC,Horry County,29576,US,33.577736,-79.000166,47006040025,Joaquin,1
128,Atlantic Ave,Murrells Inlet,SC,Horry County,29576,US,33.577841,-78.999305,47006040031,Matthew,1
332,Calhoun Dr,Murrells Inlet,SC,Horry County,29576,US,33.589803,-78.993036,47006040050,Joaquin,1
210,S Myrtle Dr,Surfside Beach,SC,Horry County,29575,US,33.60649,-78.977885,47006040072,Matthew,1
3269,Section 2nd Cir,Myrtle Beach,SC,Horry County,29577,US,33.654705,-78.921806,47008010012,Matthew,1
1150,Hwy 548,Conway,SC,Horry County,29527,US,33.871328,-79.139119,47008030116,Matthew,1
455,Vereen Rd,Murrells Inlet,SC,Horry County,29576,US,33.575236,-79.011606,47008030139,Matthew,1
586,Fernwood Rd,Murrells Inlet,SC,Horry County,29576,US,33.575287,-79.019475,47008040034,Matthew,1
546,Old Field Rd,Murrells Inlet,SC,Horry County,29576,US,33.573671,-79.018666,47009010059,Matthew,1
493,Old Field Rd,Murrells Inlet,SC,Horry County,29576,US,33.573328,-79.017587,47009020013,Joaquin,1
618,N Creekside Dr,Murrells Inlet,SC,Horry County,29576,US,33.572648,-79.013732,47009020016,"Joaquin, Matthew",2
624,N Creekside Dr,Murrells Inlet,SC,Horry County,29576,US,33.572711,-79.013558,47009020017,Matthew,1
3301,Mustang St,Myrtle Beach,SC,Horry County,29577,US,33.668998,-78.935127,47009020018,Matthew,1
2514,Graham Rd,Conway,SC,Horry County,29526,US,33.86656,-79.040251,47009020019,Matthew,1
648,N Creekside Dr,Murrells Inlet,SC,Horry County,29576,US,33.573004,-79.012834,47009020021,Matthew,1
670,N Creekside Dr,Murrells Inlet,SC,Horry County,29576,US,33.573693,-79.012442,47009020023,Matthew,1
657,N Creekside Dr,Murrells Inlet,SC,Horry County,29576,US,33.573493,-79.012859,47009020024,Matthew,1
653,N Creekside Dr,Murrells Inlet,SC,Horry County,29576,US,33.573422,-79.013018,47009020025,Matthew,1
643,N Creekside Dr,Murrells Inlet,SC,Horry County,29576,US,33.573041,-79.013865,47009020027,Matthew,1
615,N Creekside Dr,Murrells Inlet,SC,Horry County,29576,US,33.572944,-79.01409,47009020030,Matthew,1
670,Mt Gilead Place Dr,Murrells Inlet,SC,Horry County,29576,US,33.574887,-79.015381,47009020062,Matthew,1
330,S Dogwood Dr,Murrells Inlet,SC,Horry County,29576,US,33.574659,-79.002652,47011010008,Joaquin,1
100,Park Ave,Conway,SC,Horry County,29526,US,33.851252,-79.040157, , , 
1079,Folly Rd,Myrtle Beach,SC,Horry County,29588,US,33.699163,-78.975379, ,Florence,1
1012,Pineridge St,Conway,SC,Horry County,29527,US,33.80889,-79.069901,,,
102,Azalea Dr,Conway,SC,Horry County,29526,US,33.862981,-79.040441,,,
103,Azalea Dr,Conway,SC,Horry County,29526,US,33.862542,-79.040772,,,
107,Azalea Dr,Conway,SC,Horry County,29526,US,33.862879,-79.040979,,,
1100,Pineridge St,Conway,SC,Horry County,29527,US,33.809002,-79.069693,,,
1101,Pecangrove Blvd,Conway,SC,Horry County,29527,US,33.809889,-79.070889,,,
1104,Pineridge St,Conway,SC,Horry County,29527,US,33.809111,-79.069483,,,
1108,Pecangrove Blvd,Conway,SC,Horry County,29527,US,33.810127,-79.071523,,,
1109,Pecangrove Blvd,Conway,SC,Horry County,29527,US,33.809638,-79.07139,,,
1112,Pecangrove Blvd,Conway,SC,Horry County,29527,US,33.81001,-79.071727,,,
1113,Pecangrove Blvd,Conway,SC,Horry County,29527,US,33.809503,-79.071576,,,
1116,Pecangrove Blvd,Conway,SC,Horry County,29527,US,33.809876,-79.071915,,,
1117,Pecangrove Blvd,Conway,SC,Horry County,29527,US,33.809364,-79.071763,,,
1120,Pecangrove Blvd,Conway,SC,Horry County,29527,US,33.809728,-79.072104,,,
1121,Pecangrove Blvd,Conway,SC,Horry County,29527,US,33.809267,-79.071985,,,
1145,Pecangrove Blvd,Conway,SC,Horry County,29527,US,33.808422,-79.073356,,,
1146,Pecan Grove Blvd,Conway,SC,Horry County,29527,US,33.807662,-79.074666,,,
1149,Pecangrove Blvd,Conway,SC,Horry County,29527,US,33.808182,-79.073378,,,
1152,Pecangrove Blvd,Conway,SC,Horry County,29527,US,33.808256,-79.073856,,,
1153,Pecangrove Blvd,Conway,SC,Horry County,29527,US,33.807928,-79.073487,,,
1156,Pecangrove Blvd,Conway,SC,Horry County,29527,US,33.808031,-79.074027,,,
116,Sherwood Dr,Conway,SC,Horry County,29526,US,33.863783,-79.045439,,,
118,Sherwood Dr,Conway,SC,Horry County,29526,US,33.863518,-79.045524,,,
119,Sherwood Dr,Conway,SC,Horry County,29526,US,33.863304,-79.044942,,,
12,Laurel St,Conway,SC,Horry County,29526,US,33.83266,-79.045586,,,
1202,Pecangrove Blvd,Conway,SC,Horry County,29527,US,33.807732,-79.074763,,,
1235,Parkhill Dr,Conway,SC,Horry County,29526,US,33.850793,-79.062707,,,
1249,Parkhill Dr,Conway,SC,Horry County,29526,US,33.851414,-79.061782,,,
1257,Parkhill Dr,Conway,SC,Horry County,29526,US,33.851818,-79.061105,,,
1259,Parkhill Dr,Conway,SC,Horry County,29526,US,33.851896,-79.060874,,,
1301,Snowhill Dr,Conway,SC,Horry County,29526,US,33.851386,-79.046779,,,
1301,Woody Ln,Conway,SC,Horry County,29526,US,33.851807,-79.045811,,,
1304,Snowhill Dr,Conway,SC,Horry County,29526,US,33.851934,-79.04647,,,
1305,Woody Ln,Conway,SC,Horry County,29526,US,33.852199,-79.045981,,,
1308,Snowhill Dr,Conway,SC,Horry County,29526,US,33.852134,-79.046564,,,
1310,Woody Ln,Conway,SC,Horry County,29526,US,33.852643,-79.045506,,,
1312,Snowhill Dr,Conway,SC,Horry County,29526,US,33.852329,-79.046728,,,
1313,Woody Ln,Conway,SC,Horry County,29526,US,33.852794,-79.046062,,,
1316,Snowhill Dr,Conway,SC,Horry County,29526,US,33.852546,-79.046794,,,
1319,Snowhill Dr,Conway,SC,Horry County,29526,US,33.852454,-79.047418,,,
1323,Snowhill Dr,Conway,SC,Horry County,29526,US,33.85271,-79.047535,,,
140,Windmeadows Dr,Conway,SC,Horry County,29526,US,33.871693,-79.038706,,,
1409,Snowhill Dr,Conway,SC,Horry County,29526,US,33.853436,-79.047974,,,
145,Sherwood Dr,Conway,SC,Horry County,29526,US,33.857768,-79.04401,,,
151,Busbee St,Conway,SC,Horry County,29526,US,33.857547,-79.042464,,,
151,Sherwood Dr,Conway,SC,Horry County,29526,US,33.857015,-79.043366,,,
153,Busbee St,Conway,SC,Horry County,29526,US,33.857377,-79.042145,,,
154,Busbee St,Conway,SC,Horry County,29526,US,33.856778,-79.042666,,,
155,Busbee St,Conway,SC,Horry County,29526,US,33.856984,-79.042083,,,
155,Sherwood Dr,Conway,SC,Horry County,29526,US,33.85638,-79.043097,,,
157,Busbee St,Conway,SC,Horry County,29526,US,33.856614,-79.042012,,,
157,Sherwood Dr,Conway,SC,Horry County,29526,US,33.856057,-79.043082,,,
158,Busbee St,Conway,SC,Horry County,29526,US,33.856404,-79.042573,,,
159,Busbee St,Conway,SC,Horry County,29526,US,33.856283,-79.041948,,,
159,Sherwood Dr,Conway,SC,Horry County,29526,US,33.855851,-79.042948,,,
160,Busbee St,Conway,SC,Horry County,29526,US,33.856007,-79.042578,,,
1605,McDermott St,Conway,SC,Horry County,29526,US,33.853465,-79.052003,,,
1606,Sherwood Dr,Conway,SC,Horry County,29526,US,33.854864,-79.05047,,,
1607,McDermott St,Conway,SC,Horry County,29526,US,33.853599,-79.052185,,,
1608,McDermott St,Conway,SC,Horry County,29526,US,33.854163,-79.052135,,,
1608,Sherwood Dr,Conway,SC,Horry County,29526,US,33.854961,-79.050725,,,
161,Busbee St,Conway,SC,Horry County,29526,US,33.855911,-79.04196,,,
161,Sherwood Dr,Conway,SC,Horry County,29526,US,33.855079,-79.042724,,,
1611,Sherwood Dr,Conway,SC,Horry County,29526,US,33.854852,-79.051433,,,
164,Busbee St,Conway,SC,Horry County,29526,US,33.855673,-79.042583,,,
165,Busbee St,Conway,SC,Horry County,29526,US,33.855201,-79.04223,,,
1701,Freeman Dr,Conway,SC,Horry County,29526,US,33.856618,-79.047242,,,
177,Long Ave,Conway,SC,Horry County,29526,US,33.857959,-79.041973,,,
181,Long Ave,Conway,SC,Horry County,29526,US,33.857788,-79.04222,,,
198,Long Ave,Conway,SC,Horry County,29526,US,33.85679,-79.044816,,,
203,Jessamine St,Conway,SC,Horry County,29526,US,33.850087,-79.041152,,,
203,Long Ave,Conway,SC,Horry County,29526,US,33.85572,-79.045362,,,
205,Jessamine St,Conway,SC,Horry County,29526,US,33.849724,-79.041278,,,
206,Long Ave,Conway,SC,Horry County,29526,US,33.855918,-79.046039,,,
208,Sherwood Dr,Conway,SC,Horry County,29526,US,33.853534,-79.045445,,,
209,Long Ave,Conway,SC,Horry County,29526,US,33.855211,-79.046096,,,
210,Busbee St,Conway,SC,Horry County,29526,US,33.854469,-79.045978,,,
210,Sherwood Dr,Conway,SC,Horry County,29526,US,33.853415,-79.045968,,,
214,Busbee St,Conway,SC,Horry County,29526,US,33.854273,-79.046387,,,
215,Sherwood Dr,Conway,SC,Horry County,29526,US,33.853165,-79.046937,,,
216,Long Ave,Conway,SC,Horry County,29526,US,33.855005,-79.04739,,,
218,Busbee St,Conway,SC,Horry County,29526,US,33.854009,-79.046868,,,
218,Long Ave,Conway,SC,Horry County,29526,US,33.854807,-79.047605,,,
219,Busbee St,Conway,SC,Horry County,29526,US,33.853551,-79.046698,,,
219,Long Ave,Conway,SC,Horry County,29526,US,33.854268,-79.047379,,,
220,Busbee St,Conway,SC,Horry County,29526,US,33.853709,-79.047091,,,
220,Sherwood Dr,Conway,SC,Horry County,29526,US,33.853994,-79.047854,,,
2213,Main St,Conway,SC,Horry County,29526,US,33.857679,-79.056415,,,
2408,Main St,Conway,SC,Horry County,29526,US,33.860383,-79.054949,,,
2422,Main St,Conway,SC,Horry County,29526,US,33.861539,-79.055189,,,
2588,Long Ave Ext,Conway,SC,Horry County,29526,US,33.864188,-79.038568,,,
311,Crabtree Dr,Conway,SC,Horry County,29526,US,33.86297,-79.04222,,,
316,Allen Dr,Conway,SC,Horry County,29526,US,33.863302,-79.043703,,,
317,Allen Dr,Conway,SC,Horry County,29526,US,33.863023,-79.043592,,,
321,Crabtree Dr,Conway,SC,Horry County,29526,US,33.862912,-79.043604,,,
5,Elm St,Conway,SC,Horry County,29526,US,33.831406,-79.046523,,,
502,Danner Dr,Conway,SC,Horry County,29526,US,33.854603,-79.051737,,,
503,Danner Dr,Conway,SC,Horry County,29526,US,33.854336,-79.05122,,,
504,Danner Dr,Conway,SC,Horry County,29526,US,33.854517,-79.051967,,,
505,Danner Dr,Conway,SC,Horry County,29526,US,33.854185,-79.05142,,,
513,Merrywood Dr,Conway,SC,Horry County,29526,US,33.863763,-79.046455,,,
613,Merrywood Dr,Conway,SC,Horry County,29526,US,33.86394,-79.047544,,,
617,Merrywood Dr,Conway,SC,Horry County,29526,US,33.863956,-79.047933,,,
621,Merrywood Dr,Conway,SC,Horry County,29526,US,33.863942,-79.048246,,,
629,Merrywood Dr,Conway,SC,Horry County,29526,US,33.863442,-79.048806,,,